{"type":"FeatureCollection","features":[{"type":"Feature","properties":{"name":"","id":10249159,"hw":"service"},"geometry":{"type":"LineString","coordinates":[[-124.0875533,41.7960601],[-124.0875265,41.7961431],[-124.0875345,41.796268],[-124.0875694,41.796401],[-124.0876405,41.796542],[-124.0877183,41.796614],[-124.0878095,41.796618],[-124.0878618,41.79659],[-124.0879329,41.796509],[-124.0879355,41.796435],[-124.0878993,41.796353],[-124.0878081,41.796234],[-124.0876995,41.7961381],[-124.0875533,41.7960601]]}},{"type":"Feature","properties":{"name":"","id":10249162,"hw":"track"},"geometry":{"type":"LineString","coordinates":[[-124.0837392,41.796402],[-124.08353,41.7958001],[-124.08294,41.795045],[-124.082867,41.795001],[-124.08274,41.794967],[-124.08258,41.794954],[-124.082387,41.79496]]}},{"type":"Feature","properties":{"name":"","id":10249168,"hw":"service"},"geometry":{"type":"LineString","coordinates":[[-124.0866923,41.7948863],[-124.0866521,41.7949863]]}},{"type":"Feature","properties":{"name":"","id":10249169,"hw":"service"},"geometry":{"type":"LineString","coordinates":[[-124.087442,41.7949103],[-124.0872958,41.7948863],[-124.087092,41.7948303],[-124.0868801,41.7948103],[-124.0867996,41.7948543],[-124.0866923,41.7948863],[-124.0866628,41.7947863],[-124.0865824,41.7947263],[-124.0864992,41.7946943],[-124.0863624,41.7946883],[-124.0862377,41.7946533]]}},{"type":"Feature","properties":{"name":"","id":10249189,"hw":"residential"},"geometry":{"type":"LineString","coordinates":[[-124.077028,41.793728],[-124.076672,41.79406],[-124.076549,41.794175],[-124.076408,41.794341],[-124.076336,41.794424],[-124.076244,41.794559],[-124.076225,41.794602],[-124.07623,41.794675],[-124.076269,41.794717],[-124.07641,41.794772],[-124.0764873,41.7947902],[-124.077211,41.794877],[-124.077493,41.794936],[-124.077627,41.794998],[-124.077773,41.795096],[-124.078125,41.795484],[-124.078162,41.795571],[-124.078175,41.795663],[-124.078148,41.795801],[-124.078103,41.795898],[-124.078027,41.795984],[-124.077983,41.796024],[-124.077773,41.796171],[-124.077651,41.796227],[-124.077592,41.796244],[-124.077487,41.796252],[-124.077431,41.796251],[-124.077348,41.796238],[-124.076961,41.796091],[-124.076852,41.79606],[-124.076767,41.79605],[-124.07656,41.796057],[-124.076364,41.796101],[-124.075915,41.796249]]}},{"type":"Feature","properties":{"name":"","id":10249213,"hw":"service"},"geometry":{"type":"LineString","coordinates":[[-124.0845144,41.7938624],[-124.0842837,41.7938324],[-124.084096,41.7937244],[-124.0837741,41.7936325],[-124.0835059,41.7937644],[-124.0833235,41.7938884],[-124.08317,41.794102],[-124.083054,41.794313],[-124.082895,41.794466],[-124.082711,41.794626],[-124.0825651,41.7947764],[-124.082387,41.79496],[-124.08166,41.795709],[-124.081372,41.796015]]}},{"type":"Feature","properties":{"name":"","id":10249214,"hw":"service"},"geometry":{"type":"LineString","coordinates":[[-124.0837741,41.7936325],[-124.0838814,41.7935085],[-124.0839618,41.7933005],[-124.0840316,41.7931765],[-124.0840209,41.7930605],[-124.0839887,41.7929246],[-124.084037,41.7928006]]}},{"type":"Feature","properties":{"name":"","id":10249221,"hw":"residential"},"geometry":{"type":"LineString","coordinates":[[-124.077137,41.792818],[-124.077181,41.793314],[-124.077204,41.79376]]}},{"type":"Feature","properties":{"name":"","id":10249673,"hw":"residential"},"geometry":{"type":"LineString","coordinates":[[-124.0699306,41.7919302],[-124.070012,41.791653],[-124.070004,41.791145],[-124.0700493,41.7908329],[-124.0701995,41.7908009],[-124.0704006,41.7908609],[-124.0706742,41.7908529]]}},{"type":"Feature","properties":{"name":"","id":10249678,"hw":"residential"},"geometry":{"type":"LineString","coordinates":[[-124.070012,41.791653],[-124.070252,41.791581],[-124.070483,41.791549],[-124.070674,41.791551],[-124.070801,41.791568]]}},{"type":"Feature","properties":{"name":"","id":10249854,"hw":"residential"},"geometry":{"type":"LineString","coordinates":[[-124.071554,41.80202],[-124.071194,41.801869],[-124.070914,41.801779],[-124.07057,41.801744],[-124.070223,41.801739],[-124.069921,41.801756],[-124.06989,41.801758],[-124.069745,41.801736],[-124.069728,41.801715],[-124.06971,41.801693],[-124.069775,41.801636],[-124.069914,41.801567],[-124.070089,41.801512],[-124.070667,41.80138]]}},{"type":"Feature","properties":{"name":"","id":10250204,"hw":"residential"},"geometry":{"type":"LineString","coordinates":[[-124.072951,41.801737],[-124.072655,41.801601],[-124.071778,41.801308],[-124.071611,41.801295],[-124.071233,41.801313],[-124.070667,41.80138],[-124.070407,41.801247],[-124.06992,41.801095],[-124.069868,41.801079],[-124.069692,41.800983],[-124.069371,41.80093],[-124.068982,41.800902],[-124.06879,41.800931],[-124.068427,41.800945],[-124.068225,41.800929],[-124.068038,41.800883],[-124.067592,41.800688],[-124.067198,41.800604],[-124.066706,41.800542],[-124.066337,41.80052],[-124.066152,41.800606]]}},{"type":"Feature","properties":{"name":"","id":10250442,"hw":"residential"},"geometry":{"type":"LineString","coordinates":[[-124.059825,41.791269],[-124.059734,41.791434],[-124.059565,41.791628],[-124.059168,41.791905],[-124.058984,41.792034],[-124.058876,41.792135],[-124.058863,41.792225],[-124.058937,41.792367],[-124.059147,41.792714],[-124.059428,41.793178],[-124.059628,41.793408],[-124.059804,41.793667],[-124.059984,41.793837],[-124.0602233,41.7943647],[-124.0607882,41.7951266],[-124.0610033,41.795429],[-124.0611122,41.7958381],[-124.0617795,41.7960744],[-124.0623594,41.7962712],[-124.0628433,41.7964288],[-124.063295,41.7967519],[-124.0638437,41.7970463],[-124.064156,41.7973778],[-124.0644499,41.7977573],[-124.0648319,41.7980549],[-124.0654257,41.7984032],[-124.0678719,41.7988691],[-124.068323,41.7994797],[-124.0694309,41.7998739],[-124.07045,41.8003335],[-124.071704,41.8003308],[-124.0722636,41.8003409],[-124.0729079,41.8004528]]}},{"type":"Feature","properties":{"name":"","id":10250675,"hw":"residential"},"geometry":{"type":"LineString","coordinates":[[-124.072992,41.801729],[-124.072951,41.801737],[-124.072974,41.801804],[-124.073022,41.801864],[-124.07309,41.801912],[-124.073144,41.801914],[-124.073193,41.801898],[-124.073227,41.801866],[-124.073237,41.801827],[-124.073222,41.801788],[-124.073155,41.80175],[-124.073076,41.80173],[-124.072992,41.801729]]}},{"type":"Feature","properties":{"name":"","id":10251045,"hw":"service"},"geometry":{"type":"LineString","coordinates":[[-124.08548,41.7977657],[-124.085368,41.797586],[-124.08531,41.797518],[-124.085268,41.797439],[-124.085252,41.797338],[-124.085263,41.797263],[-124.085279,41.797235],[-124.08535,41.797191],[-124.0854076,41.7971699]]}},{"type":"Feature","properties":{"name":"","id":10251176,"hw":"service"},"geometry":{"type":"LineString","coordinates":[[-124.0862015,41.7977637],[-124.0861425,41.7976458],[-124.0860647,41.7975598],[-124.0859708,41.7974518],[-124.0859601,41.7973658],[-124.0860084,41.7972239],[-124.0860513,41.7971499],[-124.086054,41.7970359],[-124.0861264,41.7969599],[-124.0861559,41.7968499],[-124.0861371,41.7967719],[-124.0860432,41.796684],[-124.0859601,41.796594],[-124.085834,41.79646],[-124.0857938,41.796324],[-124.085767,41.796196],[-124.0857857,41.7960561],[-124.0857589,41.7959621],[-124.0856838,41.7958941],[-124.0855712,41.7958461],[-124.0856034,41.7958121],[-124.085665,41.7957781],[-124.0857938,41.7956961],[-124.085834,41.7956401],[-124.0859574,41.7955622],[-124.0861478,41.7955002],[-124.0862632,41.7954202],[-124.0863651,41.7953202],[-124.086408,41.7952422],[-124.0864214,41.7951742],[-124.0865073,41.7950782],[-124.0865931,41.7950062],[-124.0866521,41.7949863],[-124.086746,41.7950682],[-124.0868291,41.7951642],[-124.0869391,41.7952802],[-124.0869659,41.7953522],[-124.0869632,41.7954642],[-124.0868828,41.7956241],[-124.0867943,41.7957281],[-124.086805,41.7958461],[-124.0868613,41.7959321],[-124.086915,41.7960001],[-124.0869418,41.79618],[-124.086915,41.796334],[-124.0868801,41.796416],[-124.0868238,41.796504],[-124.0868023,41.796688],[-124.0868318,41.7967839],[-124.0868184,41.7969019],[-124.0867603,41.797042],[-124.0867567,41.7971919],[-124.0868238,41.7972958],[-124.0869096,41.7973898],[-124.0869927,41.7974438]]}},{"type":"Feature","properties":{"name":"","id":10251227,"hw":"residential"},"geometry":{"type":"LineString","coordinates":[[-124.075938,41.79198],[-124.075877,41.792057],[-124.075744,41.792173],[-124.0756059,41.7922644],[-124.075534,41.792312],[-124.075482,41.792357],[-124.075456,41.792397],[-124.075431,41.79249],[-124.07542,41.792638],[-124.075441,41.793241],[-124.075462,41.793493]]}},{"type":"Feature","properties":{"name":"","id":10251229,"hw":"service"},"geometry":{"type":"LineString","coordinates":[[-124.0730453,41.7919187],[-124.0730318,41.7921746],[-124.0730265,41.7923806],[-124.0730265,41.7925866],[-124.072997,41.7927566],[-124.0729728,41.7928986],[-124.072956,41.793072]]}},{"type":"Feature","properties":{"name":"Stout Memorial Grove","id":10251230,"hw":"service"},"geometry":{"type":"LineString","coordinates":[[-124.0859145,41.787711],[-124.0859628,41.787923],[-124.085944,41.788187],[-124.0858825,41.7885899],[-124.0857214,41.7888289],[-124.0855765,41.7889809],[-124.0854853,41.7891429],[-124.0854639,41.7892869],[-124.08537,41.7893849],[-124.0851849,41.7894909]]}},{"type":"Feature","properties":{"name":"","id":10251301,"hw":"service"},"geometry":{"type":"LineString","coordinates":[[-124.085275,41.801875],[-124.0852171,41.8019268],[-124.0851635,41.8020727],[-124.0850974,41.8021532],[-124.0849481,41.8022339],[-124.0847853,41.8022947],[-124.0845922,41.8022787],[-124.0844259,41.8022287]]}},{"type":"Feature","properties":{"name":"","id":10251302,"hw":"service"},"geometry":{"type":"LineString","coordinates":[[-124.0856972,41.7999853],[-124.0857482,41.8000032],[-124.085834,41.8000652],[-124.0859199,41.8001152],[-124.0860645,41.8001692],[-124.0861563,41.8002492],[-124.0863222,41.8002972],[-124.0864161,41.8003792],[-124.0864957,41.8005036],[-124.0865636,41.8006148],[-124.0866834,41.8007726],[-124.0867513,41.800959],[-124.0867421,41.8011231],[-124.0866923,41.801199],[-124.086577,41.8012909],[-124.0864992,41.8013829],[-124.0864617,41.8015049],[-124.0864,41.8016008],[-124.0863168,41.8016708],[-124.0861022,41.8017608],[-124.085893,41.8018028],[-124.0857428,41.8018128],[-124.0856409,41.8018168],[-124.085429,41.8018288],[-124.085275,41.801875],[-124.085252,41.8018328],[-124.0852895,41.8016568],[-124.0852922,41.8014889],[-124.08526,41.8013889],[-124.0852171,41.8012769],[-124.085193,41.801131],[-124.0851635,41.801037],[-124.0851527,41.800887],[-124.0851554,41.8007371],[-124.0852574,41.8005051],[-124.0853727,41.8003912],[-124.0855202,41.8003212],[-124.0856355,41.8002052],[-124.0856972,41.7999853],[-124.085665,41.7998153],[-124.0856704,41.7996213],[-124.0856999,41.7992874],[-124.0856758,41.7990715],[-124.085607,41.798739],[-124.0854385,41.7983644],[-124.08537,41.798202],[-124.0853834,41.7980637]]}},{"type":"Feature","properties":{"name":"","id":10251304,"hw":"service"},"geometry":{"type":"LineString","coordinates":[[-124.0854385,41.7983644],[-124.0848166,41.7983875]]}},{"type":"Feature","properties":{"name":"","id":10251419,"hw":"residential"},"geometry":{"type":"LineString","coordinates":[[-124.0703581,41.7919798],[-124.0699306,41.7919302]]}},{"type":"Feature","properties":{"name":"","id":10251823,"hw":"residential"},"geometry":{"type":"LineString","coordinates":[[-124.077782,41.793914],[-124.077871,41.79383],[-124.077992,41.79365],[-124.078218,41.793133],[-124.078255,41.793101],[-124.078308,41.79309],[-124.078389,41.793085],[-124.078489,41.793102],[-124.078642,41.793115],[-124.078838,41.793103],[-124.079014,41.793076],[-124.079124,41.793068],[-124.079172,41.793082],[-124.079192,41.793128],[-124.079179,41.793232],[-124.079124,41.793375],[-124.079093,41.793486],[-124.079078,41.793772],[-124.079032,41.79388],[-124.079029,41.793962],[-124.079055,41.794055],[-124.079061,41.794166],[-124.079049,41.794302],[-124.079009,41.794423]]}},{"type":"Feature","properties":{"name":"Hyatt Heights","id":10252350,"hw":"residential"},"geometry":{"type":"LineString","coordinates":[[-124.071778,41.801308],[-124.072221,41.800991],[-124.072791,41.800527],[-124.0729079,41.8004528],[-124.073018,41.800383],[-124.073345,41.800298],[-124.073524,41.800304],[-124.073674,41.800318],[-124.073895,41.800424],[-124.074156,41.800567],[-124.074338,41.800755],[-124.074386,41.800892],[-124.074443,41.801324],[-124.074463,41.801685],[-124.074452,41.801898],[-124.074396,41.802144],[-124.074408,41.802211],[-124.074512,41.802214],[-124.07464,41.802123],[-124.074811,41.801894],[-124.07511,41.801623],[-124.075386,41.801432],[-124.075701,41.801264],[-124.075855,41.801232],[-124.075925,41.801258],[-124.075917,41.801366],[-124.075815,41.801505],[-124.07567,41.80176],[-124.07557,41.80204],[-124.075574,41.802312],[-124.075637,41.802498],[-124.075717,41.802682],[-124.075769,41.802745],[-124.075822,41.802773],[-124.075913,41.802765],[-124.07618,41.802683],[-124.076313,41.802656],[-124.076545,41.802638],[-124.076661,41.802643],[-124.076776,41.802657],[-124.076889,41.80268],[-124.077119,41.802752],[-124.077352,41.802853],[-124.077534,41.802965],[-124.077788,41.803163],[-124.077873,41.803243],[-124.078076,41.803507]]}},{"type":"Feature","properties":{"name":"Cable Lane","id":10253317,"hw":"residential"},"geometry":{"type":"LineString","coordinates":[[-124.0723398,41.7910578],[-124.0724404,41.7910898],[-124.0724726,41.7911358],[-124.072482,41.7911837],[-124.0724646,41.7912967],[-124.0724485,41.7914167],[-124.0724,41.791715],[-124.072387,41.791897],[-124.0723851,41.7922376]]}},{"type":"Feature","properties":{"name":"Ashford Road","id":10253413,"hw":"residential"},"geometry":{"type":"LineString","coordinates":[[-124.078355,41.801953],[-124.078293,41.801969],[-124.078044,41.801968],[-124.07795,41.801972],[-124.077891,41.801986],[-124.077793,41.802034],[-124.077679,41.802133],[-124.077491,41.802338],[-124.077449,41.802419],[-124.077436,41.802484],[-124.077462,41.802598],[-124.077562,41.802795],[-124.077996,41.803226],[-124.078058,41.803324],[-124.078081,41.803453],[-124.078076,41.803507]]}},{"type":"Feature","properties":{"name":"","id":170140360,"hw":"service"},"geometry":{"type":"LineString","coordinates":[[-124.0814524,41.7967638],[-124.0814642,41.7967423],[-124.0814698,41.7967231],[-124.0814693,41.7966882],[-124.081462,41.7966663],[-124.081451,41.7966478],[-124.0814277,41.7966235],[-124.0814122,41.7966125],[-124.0813822,41.7965976],[-124.0813511,41.7965884],[-124.0813202,41.7965842],[-124.0812857,41.7965847],[-124.0812631,41.796588],[-124.0812375,41.7965949],[-124.0812174,41.7966031],[-124.0811969,41.7966146],[-124.0811752,41.796632],[-124.0811579,41.7966529],[-124.0811421,41.796694],[-124.0811425,41.7967223],[-124.0811485,41.7967429],[-124.0811617,41.7967662],[-124.0811745,41.796781]]}},{"type":"Feature","properties":{"name":"","id":170140362,"hw":"service"},"geometry":{"type":"LineString","coordinates":[[-124.081408,41.7968037],[-124.0814446,41.7968369],[-124.0815867,41.7969443],[-124.081741,41.797036],[-124.0818802,41.7971261],[-124.082006,41.7971533],[-124.0820975,41.797153],[-124.0822155,41.7971301],[-124.0823181,41.7970702],[-124.0826,41.7968878]]}},{"type":"Feature","properties":{"name":"Howland Hill Road","id":189104653,"hw":"unclassified"},"geometry":{"type":"LineString","coordinates":[[-124.099634,41.7743582],[-124.0994865,41.7744763],[-124.0993872,41.7745563],[-124.0992612,41.7746583],[-124.0991646,41.7748363],[-124.0990573,41.7752444],[-124.0989554,41.7755324],[-124.0988508,41.7756884],[-124.0986121,41.7759565],[-124.0984565,41.7761145],[-124.0982232,41.7763085],[-124.0979657,41.7765086],[-124.0977001,41.7768466],[-124.0974024,41.7772166],[-124.0972361,41.7773567],[-124.0970296,41.7774307],[-124.0967935,41.7774527],[-124.0965763,41.7775227],[-124.0964422,41.7775447],[-124.0962303,41.7775567],[-124.0960559,41.7775327],[-124.0957716,41.7774387],[-124.0955704,41.7774467],[-124.0953532,41.7775047],[-124.0950421,41.7776827],[-124.094688,41.7778547],[-124.0944493,41.7779987],[-124.0942508,41.7782188],[-124.0939799,41.7784608],[-124.0934944,41.7787928],[-124.0932262,41.7790288],[-124.0930519,41.7792168],[-124.0929687,41.7793789],[-124.0928963,41.7796549],[-124.0928373,41.7797889],[-124.0927702,41.7798849],[-124.0924993,41.7801009],[-124.0924376,41.7802069],[-124.0924323,41.7803249],[-124.0924671,41.7804429],[-124.0925798,41.7806169],[-124.0926495,41.780769],[-124.0926549,41.780925],[-124.0926227,41.781087],[-124.0925851,41.781221],[-124.0926468,41.781785],[-124.0926093,41.782243],[-124.0926147,41.782465],[-124.0926066,41.782577],[-124.0925744,41.782683],[-124.0922338,41.7831611],[-124.0919414,41.7835511],[-124.0916517,41.7838411],[-124.0913594,41.7841091],[-124.0911582,41.7844411],[-124.0908739,41.7847831],[-124.0907559,41.7850571],[-124.090544,41.7853491],[-124.0903375,41.7855691],[-124.0901953,41.7857671],[-124.0900853,41.7858771],[-124.0898976,41.7860251],[-124.0896508,41.7861331],[-124.0891975,41.7862611],[-124.0888837,41.7864051],[-124.0886289,41.786591],[-124.0883553,41.786845],[-124.0881193,41.786971],[-124.0877384,41.787105],[-124.087401,41.78722],[-124.0868184,41.787349],[-124.0866065,41.787387],[-124.0864643,41.787455],[-124.0862283,41.787507],[-124.0860191,41.787657],[-124.0859145,41.787711],[-124.0855604,41.787865],[-124.0852681,41.787967],[-124.0850723,41.788073],[-124.0847799,41.788247],[-124.084619,41.788295],[-124.0843692,41.7883111],[-124.0841416,41.788323],[-124.0839565,41.788297],[-124.0837285,41.788313],[-124.083412,41.788383],[-124.0831411,41.788425],[-124.0827066,41.788621],[-124.082543,41.788671],[-124.0823257,41.788725],[-124.081808,41.7889509],[-124.0815532,41.7890309],[-124.0809765,41.7893429],[-124.0801019,41.7897243],[-124.0796113,41.7899849],[-124.0793914,41.7901808],[-124.0793109,41.7902328],[-124.0792465,41.7902568],[-124.0791634,41.7902588],[-124.0790749,41.7902448],[-124.0788925,41.7901488],[-124.0784018,41.7898258],[-124.078128,41.7896089],[-124.0780744,41.7895329],[-124.0780315,41.7893789],[-124.0780234,41.7892929],[-124.0779912,41.7892129],[-124.0779108,41.7891529],[-124.0777338,41.7891109],[-124.0776077,41.7891209],[-124.0773153,41.7892709],[-124.0770847,41.7893629],[-124.076905,41.7893989],[-124.076567,41.7894449],[-124.0761808,41.7894769],[-124.0757945,41.7894609],[-124.0754271,41.7894029],[-124.0751883,41.7893969],[-124.0748906,41.7893329],[-124.0746975,41.7892669],[-124.0743113,41.7892009],[-124.0738285,41.7891149],[-124.073512,41.7891429],[-124.0726858,41.7891249],[-124.0725544,41.7891229],[-124.0720681,41.7890939],[-124.0715995,41.7890129],[-124.0711758,41.7888889],[-124.0709424,41.7888409],[-124.0705588,41.7888269],[-124.0703657,41.7888069],[-124.0701646,41.788741],[-124.0697193,41.788477],[-124.0692258,41.788241],[-124.0688664,41.787961],[-124.0687779,41.787903],[-124.0685499,41.787829],[-124.0684024,41.787765],[-124.0681905,41.787625],[-124.0680027,41.787581],[-124.0678498,41.787591],[-124.0676969,41.787631],[-124.0674046,41.787733],[-124.0671873,41.787805],[-124.066807,41.787885],[-124.06671,41.7879],[-124.066474,41.787928],[-124.0662659,41.787925]]}},{"type":"Feature","properties":{"name":"","id":197434522,"hw":"service"},"geometry":{"type":"LineString","coordinates":[[-124.0732911,41.7947957],[-124.0726698,41.7946087],[-124.0721227,41.7946407],[-124.0716438,41.794333],[-124.0704515,41.7943092]]}},{"type":"Feature","properties":{"name":"","id":197434523,"hw":"service"},"geometry":{"type":"LineString","coordinates":[[-124.0737504,41.7936882],[-124.0736034,41.7940174],[-124.0735007,41.7942585],[-124.0732911,41.7947957],[-124.073221,41.7949634]]}},{"type":"Feature","properties":{"name":"","id":197434524,"hw":"residential"},"geometry":{"type":"LineString","coordinates":[[-124.0718894,41.7928928],[-124.0717406,41.7937652]]}},{"type":"Feature","properties":{"name":"","id":197434525,"hw":"service"},"geometry":{"type":"LineString","coordinates":[[-124.0716781,41.7941323],[-124.070394,41.7940622]]}},{"type":"Feature","properties":{"name":"","id":366811364,"hw":"service"},"geometry":{"type":"LineString","coordinates":[[-124.0715218,41.7950486],[-124.073221,41.7949634],[-124.0739737,41.7949257],[-124.0740796,41.794883],[-124.0741453,41.7948402],[-124.074244,41.7947507],[-124.074392,41.7945128],[-124.0745455,41.7942688],[-124.074601,41.7940488],[-124.0745784,41.7939394],[-124.074534,41.7938828],[-124.0737504,41.7936882],[-124.0735627,41.7936421],[-124.0734133,41.7936377],[-124.0729917,41.7936488],[-124.0726317,41.7937972],[-124.0717406,41.7937652]]}},{"type":"Feature","properties":{"name":"","id":366811366,"hw":"service"},"geometry":{"type":"LineString","coordinates":[[-124.0717406,41.7937652],[-124.0705241,41.7935768],[-124.0703309,41.7936328],[-124.0702988,41.7937528],[-124.070394,41.7940622],[-124.070449,41.7942407],[-124.0704515,41.7943092],[-124.0704597,41.7945287],[-124.0703202,41.7948406],[-124.070567,41.7952006],[-124.0708888,41.7952566],[-124.0712,41.7951606],[-124.0715218,41.7950486]]}},{"type":"Feature","properties":{"name":"","id":366811367,"hw":"service"},"geometry":{"type":"LineString","coordinates":[[-124.0717406,41.7937652],[-124.0716781,41.7941323],[-124.0716438,41.794333],[-124.0715218,41.7950486]]}},{"type":"Feature","properties":{"name":"","id":485751669,"hw":"service"},"geometry":{"type":"LineString","coordinates":[[-124.0869927,41.7974438],[-124.0870142,41.7976018],[-124.086923,41.7976838],[-124.0867728,41.7977417],[-124.0865824,41.7977717],[-124.0863946,41.7977897],[-124.0862015,41.7977637]]}},{"type":"Feature","properties":{"name":"","id":485751670,"hw":"service"},"geometry":{"type":"LineString","coordinates":[[-124.0856034,41.7958121],[-124.0855443,41.7956791],[-124.0855269,41.7954202],[-124.0854867,41.7952232],[-124.0854907,41.7951352],[-124.0856034,41.7949823],[-124.0858756,41.7947643],[-124.0860151,41.7947213],[-124.0862377,41.7946533],[-124.0862229,41.7945463],[-124.0861425,41.7944503],[-124.0859266,41.7942874],[-124.0857978,41.7941484],[-124.0856878,41.7939824],[-124.0856887,41.7938436],[-124.0857294,41.7937124],[-124.0857348,41.7936495],[-124.0856664,41.7934795],[-124.0856691,41.7934195],[-124.0857294,41.7933835],[-124.0858354,41.7933615],[-124.0859762,41.7933505],[-124.0861452,41.7933915],[-124.086228,41.7934109],[-124.0863034,41.7935275],[-124.0863973,41.7936005],[-124.0864898,41.7937304],[-124.0865622,41.7938874],[-124.08675,41.7940574],[-124.0868439,41.7942004],[-124.0869726,41.7942844],[-124.0871336,41.7943713],[-124.087261,41.7945093],[-124.0873709,41.7946873],[-124.087442,41.7949103],[-124.087552,41.7950572],[-124.087611,41.7951572],[-124.087611,41.7956461],[-124.0876017,41.7957132],[-124.0875533,41.7960601]]}},{"type":"Feature","properties":{"name":"","id":485751671,"hw":"service"},"geometry":{"type":"LineString","coordinates":[[-124.0853834,41.7980637],[-124.0854099,41.797888],[-124.08548,41.7977657],[-124.0854505,41.7974958],[-124.0854076,41.7971699],[-124.0853941,41.7970919],[-124.0853646,41.7970069],[-124.085362,41.7969259],[-124.0853187,41.7967864],[-124.0852993,41.7965607],[-124.0852328,41.7962528],[-124.0852547,41.7961541],[-124.0853003,41.7960721],[-124.0854022,41.7959581],[-124.0855712,41.7958461]]}},{"type":"Feature","properties":{"name":"","id":693045806,"hw":"residential"},"geometry":{"type":"LineString","coordinates":[[-124.073674,41.800318],[-124.0733315,41.8000214],[-124.0732405,41.7998856],[-124.0730812,41.7997216],[-124.0728839,41.7996142],[-124.0727929,41.7996085],[-124.0725729,41.7996764],[-124.0725274,41.7998687],[-124.0724819,41.8001062],[-124.0723984,41.800225],[-124.0722636,41.8003409]]}},{"type":"Feature","properties":{"name":"","id":847582820,"hw":"service"},"geometry":{"type":"LineString","coordinates":[[-124.0735007,41.7942585],[-124.0732411,41.7941854],[-124.0731673,41.7941384],[-124.0731512,41.7940814],[-124.073178,41.7940124],[-124.0732344,41.7939704],[-124.0733202,41.7939564],[-124.0733939,41.7939674],[-124.0736034,41.7940174]]}},{"type":"Feature","properties":{"name":"","id":863713494,"hw":"residential"},"geometry":{"type":"LineString","coordinates":[[-124.077119,41.802752],[-124.0770417,41.8025556],[-124.077035,41.8025106],[-124.0770498,41.8024496],[-124.0773596,41.8020647],[-124.0774789,41.8019078],[-124.0776372,41.8017738],[-124.0778129,41.8016808],[-124.0781723,41.8016528],[-124.0784593,41.8016078],[-124.0786095,41.8015489],[-124.0786994,41.8014939],[-124.0787423,41.8014409],[-124.078753,41.8013729],[-124.0787436,41.8012529],[-124.0786511,41.801119],[-124.0785196,41.801087],[-124.0783064,41.801035],[-124.0781575,41.800963],[-124.0780422,41.8007911],[-124.0778974,41.8005381],[-124.077778,41.8004731],[-124.07766,41.8004331],[-124.0774159,41.8004841],[-124.0771115,41.8005621],[-124.0765402,41.8006611],[-124.0760949,41.8006791]]}},{"type":"Feature","properties":{"name":"","id":918793043,"hw":"service"},"geometry":{"type":"LineString","coordinates":[[-124.0717239,41.7928678],[-124.0716696,41.7930548],[-124.0715366,41.7933897],[-124.070871,41.7932892],[-124.0709823,41.792958],[-124.0710456,41.7927553]]}},{"type":"Feature","properties":{"name":"","id":918793044,"hw":"service"},"geometry":{"type":"LineString","coordinates":[[-124.0716696,41.7930548],[-124.0709823,41.792958]]}},{"type":"Feature","properties":{"name":"","id":1046273875,"hw":"service"},"geometry":{"type":"LineString","coordinates":[[-124.0869927,41.7974438],[-124.0871,41.7974398],[-124.0871832,41.7974138],[-124.0873548,41.7974358],[-124.0875104,41.7975178],[-124.087615,41.7976258],[-124.0876687,41.7977557],[-124.0876848,41.7980237],[-124.0877384,41.7981617],[-124.0877304,41.7982456],[-124.0876901,41.7983276],[-124.0876204,41.7983896],[-124.0875426,41.7984476],[-124.0874058,41.7985356],[-124.0872985,41.7985596],[-124.0871161,41.7985696],[-124.086912,41.798513],[-124.0868023,41.7984596],[-124.0866387,41.7984216],[-124.0863812,41.7984276],[-124.0861478,41.7983876],[-124.0860111,41.7983376],[-124.0859574,41.7982776],[-124.0859467,41.7981777],[-124.0859869,41.7979217]]}},{"type":"Feature","properties":{"name":"","id":1046273876,"hw":"service"},"geometry":{"type":"LineString","coordinates":[[-124.086228,41.7934109],[-124.0862994,41.7933495],[-124.0863691,41.7933185],[-124.0864952,41.7932785]]}},{"type":"Feature","properties":{"name":"","id":1046273877,"hw":"service"},"geometry":{"type":"LineString","coordinates":[[-124.0850974,41.8021532],[-124.0852025,41.8022823],[-124.0854993,41.802433],[-124.0855548,41.802529],[-124.0856643,41.8025922],[-124.0857778,41.8025724],[-124.0858117,41.8024724],[-124.085771,41.802398],[-124.085664,41.8023798],[-124.0854993,41.802433]]}},{"type":"Feature","properties":{"name":"","id":1046274215,"hw":"service"},"geometry":{"type":"LineString","coordinates":[[-124.0853834,41.7980637],[-124.0851554,41.7980517],[-124.0846945,41.798039],[-124.0844634,41.7980717],[-124.0842167,41.7981317],[-124.0840879,41.7981977]]}},{"type":"Feature","properties":{"name":"","id":1046274216,"hw":"service"},"geometry":{"type":"LineString","coordinates":[[-124.0852328,41.7962528],[-124.0851877,41.7962724],[-124.0851193,41.7963028],[-124.085085,41.7964062],[-124.0850889,41.7965664],[-124.0851045,41.796716],[-124.0851313,41.7968199],[-124.0852118,41.7968999],[-124.085362,41.7969259]]}},{"type":"Feature","properties":{"name":"","id":1046369334,"hw":"service"},"geometry":{"type":"LineString","coordinates":[[-124.0851554,41.7980517],[-124.0850589,41.7978757],[-124.0849999,41.7977817],[-124.0849113,41.7977557],[-124.0847987,41.7977777],[-124.0846995,41.7978697],[-124.0846945,41.798039]]}},{"type":"Feature","properties":{"name":"","id":1046385277,"hw":"service"},"geometry":{"type":"LineString","coordinates":[[-124.0852328,41.7962528],[-124.0851232,41.7959101],[-124.0851367,41.7956421],[-124.0850857,41.7953862],[-124.0850776,41.7950282],[-124.0850025,41.7947723],[-124.0848979,41.7944903],[-124.0849087,41.7941564],[-124.0848416,41.7939544],[-124.0848309,41.7938364],[-124.0847826,41.7937544],[-124.0846941,41.7937224],[-124.0845573,41.7937344],[-124.0845063,41.7937924],[-124.0845144,41.7938624],[-124.08467,41.7939364],[-124.0848416,41.7939544]]}},{"type":"Feature","properties":{"name":"","id":1046385278,"hw":"service"},"geometry":{"type":"LineString","coordinates":[[-124.0862015,41.7977637],[-124.0860754,41.7978197],[-124.0859869,41.7979217],[-124.0857443,41.797802],[-124.085612,41.797778],[-124.08548,41.7977657]]}},{"type":"Feature","properties":{"name":"Stout Memorial Grove","id":1117518612,"hw":"service"},"geometry":{"type":"LineString","coordinates":[[-124.0851849,41.7894909],[-124.0851299,41.7893899],[-124.085024,41.7893279],[-124.0848537,41.7892459],[-124.0847692,41.7893039],[-124.0847303,41.7893869],[-124.0847088,41.7895109],[-124.0847625,41.7895919],[-124.0848322,41.7896429],[-124.0848939,41.7896469],[-124.0849945,41.7896189],[-124.0851849,41.7894909]]}},{"type":"Feature","properties":{"name":"","id":1185382515,"hw":"service"},"geometry":{"type":"LineString","coordinates":[[-124.0731633,41.788675],[-124.0730023,41.7888489],[-124.0728575,41.7889849],[-124.0727502,41.7890329],[-124.0726402,41.7890789],[-124.0725544,41.7891229]]}},{"type":"Feature","properties":{"name":"","id":1290143314,"hw":"service"},"geometry":{"type":"LineString","coordinates":[[-124.0811745,41.796781],[-124.0811874,41.7967922],[-124.0812062,41.7968047],[-124.0812315,41.7968165],[-124.0812571,41.7968243],[-124.0812795,41.7968282],[-124.0813007,41.7968298],[-124.0813363,41.7968278],[-124.0813574,41.7968238],[-124.0813844,41.7968152],[-124.081408,41.7968037],[-124.0814335,41.7967851],[-124.0814524,41.7967638]]}},{"type":"Feature","properties":{"name":"Pharr Lane","id":1348215282,"hw":"residential"},"geometry":{"type":"LineString","coordinates":[[-124.0723851,41.7922376],[-124.072381,41.792969]]}},{"type":"Feature","properties":{"name":"","id":1385999317,"hw":"service"},"geometry":{"type":"LineString","coordinates":[[-124.0847826,41.7937544],[-124.0849543,41.7935885],[-124.0851528,41.7934485],[-124.0853566,41.7934165],[-124.0855604,41.7933885],[-124.0856691,41.7934195]]}}]}