{"type":"FeatureCollection","features":[{"type":"Feature","properties":{"name":"Little Bald Hills Trail","id":10251050},"geometry":{"type":"LineString","coordinates":[[-123.9818697,41.7425645],[-123.9819896,41.7425312],[-123.9820486,41.7424712],[-123.9820379,41.742151],[-123.9826816,41.7427314],[-123.9833522,41.7433237],[-123.9836741,41.7434798],[-123.9832288,41.7427594],[-123.9829981,41.7422991],[-123.9839959,41.7431436],[-123.9843661,41.7433438],[-123.9846182,41.7433638],[-123.9849132,41.7433317],[-123.9851117,41.7432557],[-123.9849991,41.7432477],[-123.9847845,41.7432917],[-123.9845645,41.7432317],[-123.9842641,41.7429515],[-123.9836794,41.742131],[-123.9831859,41.7414945],[-123.983143,41.7412304],[-123.9830625,41.7409582],[-123.9831001,41.740658],[-123.9833576,41.7402977],[-123.9834112,41.7401056],[-123.9835078,41.7399054],[-123.9835829,41.7401856],[-123.9837384,41.7398134],[-123.9841676,41.739209],[-123.9842641,41.7391289],[-123.9842802,41.7391889],[-123.9841944,41.7396933],[-123.9842159,41.7401816],[-123.9843231,41.7404018],[-123.98435,41.740642],[-123.9845431,41.7408701],[-123.9847952,41.7409021],[-123.9849669,41.7409542],[-123.9855355,41.7415386],[-123.9858037,41.7417227],[-123.9862007,41.7418468],[-123.9867103,41.7419108],[-123.9872199,41.7418268],[-123.9874506,41.7418308],[-123.9880997,41.7420029],[-123.9884216,41.7419909],[-123.9890546,41.7417667],[-123.989473,41.7417147],[-123.9897573,41.7417547],[-123.9900363,41.7419308],[-123.9902186,41.7419588],[-123.9906102,41.7418788],[-123.9907497,41.7417667],[-123.9911118,41.7415486],[-123.9914846,41.7415366],[-123.9925307,41.7411343],[-123.9928606,41.7410182],[-123.993043,41.7410362],[-123.9931396,41.7411063],[-123.9931986,41.7412604],[-123.9933568,41.7416066],[-123.9934668,41.7417507],[-123.9937753,41.7419068],[-123.9938745,41.7419148],[-123.9942259,41.7418608],[-123.9946201,41.7418668],[-123.994714,41.7419408],[-123.9947408,41.7420829],[-123.994647,41.7424792],[-123.9946765,41.7425733],[-123.9948052,41.7426373],[-123.9954302,41.7426953],[-123.996031,41.7426773],[-123.9965218,41.7425212],[-123.9968061,41.7424812],[-123.9973721,41.7420509],[-123.9974982,41.7420069],[-123.9975974,41.7420069],[-123.9979005,41.742191],[-123.9980641,41.7422671],[-123.9982733,41.7422931],[-123.9988071,41.7424212],[-123.9989492,41.7425352],[-123.9989519,41.7426433],[-123.9986596,41.7430636],[-123.9986247,41.7431276],[-123.9986515,41.7435099],[-123.9987749,41.7436439],[-123.9988741,41.743754],[-123.9988875,41.7438581],[-123.9986461,41.7442423],[-123.9986193,41.7443924],[-123.9987668,41.7447026],[-123.9988151,41.745387],[-123.9989197,41.7456992],[-123.9989439,41.7459354],[-123.9990029,41.7464917],[-123.9989492,41.747066],[-123.9989787,41.7472081],[-123.9991477,41.7474743],[-123.9993435,41.7485189],[-123.9994293,41.748759],[-123.9996144,41.7489151],[-123.9997432,41.7492133],[-123.9999846,41.7494894],[-124.0000838,41.7496235],[-124.0002114,41.749716],[-124.0004459,41.7497576],[-124.0006042,41.7497416],[-124.0009341,41.7495054],[-124.0014812,41.7491632],[-124.0020043,41.7488411],[-124.002302,41.7485869],[-124.0025783,41.7483488],[-124.0033481,41.7473862],[-124.0034339,41.7473482],[-124.0035465,41.7473782],[-124.0039086,41.7478025],[-124.0042841,41.7481126],[-124.0049064,41.7488511],[-124.0050888,41.7489191],[-124.0053865,41.7489351],[-124.0058586,41.7488831],[-124.0060946,41.7488431],[-124.0061402,41.7488531],[-124.0062958,41.7490592],[-124.0064621,41.7494934],[-124.0065828,41.7496295],[-124.0067384,41.7496655],[-124.0068698,41.7496635],[-124.0070897,41.7495575],[-124.0073633,41.7494494],[-124.0077871,41.7493734],[-124.0079293,41.7492953],[-124.0080339,41.7493013],[-124.0081117,41.7493814],[-124.008235,41.7493874],[-124.0084094,41.7493233],[-124.0085435,41.7493173],[-124.0087661,41.7494094],[-124.0088868,41.7494394],[-124.0089995,41.7494094],[-124.0092838,41.7490052],[-124.0093964,41.7489031],[-124.0095252,41.7488671],[-124.0098041,41.748713],[-124.0099195,41.7485909],[-124.0102038,41.7483328],[-124.0104264,41.7480706],[-124.0105847,41.7479085],[-124.0107054,41.7476644],[-124.0108046,41.7476284],[-124.0108985,41.7476404],[-124.0110782,41.7477304],[-124.011164,41.7478565],[-124.0112311,41.7481847],[-124.0113544,41.7483528],[-124.0114993,41.748811],[-124.0116522,41.7492133],[-124.0117273,41.7492533],[-124.0118668,41.7492413],[-124.0122557,41.7489531],[-124.0124381,41.7488991],[-124.0125239,41.7489051],[-124.0126929,41.7490492],[-124.0129396,41.7490932],[-124.0130255,41.7492113],[-124.0129933,41.7493033],[-124.0129611,41.7494534],[-124.0130174,41.7495595],[-124.0131676,41.7496595],[-124.013409,41.7496915],[-124.0137631,41.7496035],[-124.0138489,41.7496215],[-124.0138784,41.7497215],[-124.0139481,41.7497756],[-124.0140662,41.7497716],[-124.0141225,41.7497816],[-124.0144417,41.7499217],[-124.0145892,41.7499217],[-124.014836,41.7498596],[-124.015123,41.7498396],[-124.0154073,41.7497496],[-124.0155226,41.7497936],[-124.0155762,41.7498796],[-124.0155897,41.7500217],[-124.0156513,41.7501498],[-124.015646,41.7502638],[-124.0155575,41.7504459],[-124.0155414,41.7507081],[-124.0156809,41.7508782],[-124.0159223,41.7509722],[-124.0164319,41.7510182],[-124.0166223,41.7512103],[-124.0169469,41.7513444],[-124.0172151,41.7516286],[-124.0174887,41.7518567],[-124.0175101,41.7521388],[-124.0177837,41.7523669],[-124.0178186,41.752443],[-124.017781,41.7526051],[-124.0177596,41.7527091],[-124.0177891,41.7529072],[-124.0178695,41.7530173],[-124.0179876,41.7530433],[-124.0182397,41.7529972],[-124.0183497,41.7529652],[-124.0184113,41.7529792],[-124.0185455,41.7531013],[-124.0188056,41.7532414],[-124.018862,41.7533494],[-124.0186849,41.7534735],[-124.0186554,41.7535275],[-124.0187037,41.7536356],[-124.0191489,41.7539177],[-124.0192187,41.7539957],[-124.0191919,41.7540618],[-124.0190792,41.7540978],[-124.0188807,41.7542218],[-124.018811,41.7543939],[-124.0188217,41.75453],[-124.0191758,41.7548862],[-124.0192455,41.7550782],[-124.0194762,41.7553584],[-124.0198088,41.7554664],[-124.0199697,41.7556585],[-124.0202326,41.7558426],[-124.0203023,41.7559787],[-124.0204686,41.7561027],[-124.0209192,41.7565469],[-124.0216059,41.7569751],[-124.0223247,41.7577834],[-124.0226133,41.757985],[-124.022743,41.758061],[-124.022917,41.7582],[-124.023068,41.758295],[-124.023301,41.7583837],[-124.023642,41.75861],[-124.0239555,41.7587478],[-124.0244383,41.7591],[-124.024734,41.759233],[-124.024977,41.759332],[-124.025161,41.759387],[-124.0252751,41.7594521],[-124.025633,41.75964],[-124.025789,41.759695],[-124.0259296,41.7597082],[-124.0260851,41.7596762],[-124.026608,41.759567],[-124.026702,41.759566],[-124.026912,41.759599],[-124.0272005,41.759636],[-124.0274906,41.7596362],[-124.0282899,41.7597882],[-124.0295184,41.7601124],[-124.0298832,41.7601164],[-124.0300924,41.7600724],[-124.0305,41.76011],[-124.0306717,41.7601564],[-124.030921,41.76013],[-124.031599,41.760041],[-124.031731,41.760036],[-124.031843,41.760055],[-124.031955,41.760092],[-124.032112,41.760169],[-124.032473,41.760387],[-124.032767,41.760624],[-124.032942,41.760782],[-124.033089,41.760941],[-124.033331,41.761173],[-124.03354,41.761397],[-124.033799,41.761711],[-124.033966,41.761888],[-124.034135,41.762009],[-124.034437,41.762204],[-124.034688,41.762349],[-124.03523,41.762575],[-124.035347,41.762648],[-124.035422,41.762734],[-124.035529,41.762911],[-124.035654,41.76322],[-124.035704,41.763279],[-124.035901,41.763423],[-124.036015,41.763539],[-124.036088,41.763661],[-124.036156,41.763801],[-124.036191,41.763915],[-124.036215,41.764062],[-124.036193,41.764237],[-124.036159,41.764349],[-124.035646,41.765246],[-124.035549,41.76538],[-124.035369,41.765587],[-124.035327,41.765649],[-124.0353,41.765724],[-124.035293,41.765779],[-124.035342,41.766127],[-124.035412,41.766402],[-124.035446,41.766467],[-124.035488,41.766518],[-124.035782,41.76676],[-124.036891,41.767627],[-124.037348,41.767918],[-124.037461,41.767973],[-124.037581,41.76802],[-124.0378663,41.768101],[-124.0381712,41.7680349],[-124.0384126,41.7680749],[-124.0386057,41.768187],[-124.0387505,41.768203],[-124.0391421,41.768191],[-124.0393084,41.768251],[-124.0395337,41.768403],[-124.0397644,41.768467],[-124.0403223,41.7685711],[-124.0406925,41.7686991],[-124.0412128,41.7686991],[-124.0413791,41.7687591],[-124.0416312,41.7687711],[-124.0418512,41.7688471],[-124.042275,41.7687871],[-124.0424198,41.7688071],[-124.0427417,41.7689511],[-124.0429133,41.7689632],[-124.0431655,41.7688511],[-124.0433425,41.7686951],[-124.0435678,41.7685671],[-124.0439326,41.7685791],[-124.0441471,41.768523],[-124.04441,41.768539],[-124.0445924,41.7686151],[-124.044705,41.7687631],[-124.0448874,41.7688351],[-124.0450269,41.7689992],[-124.0453756,41.7691432],[-124.0459174,41.7691552],[-124.0461534,41.7692392],[-124.046545,41.7692392],[-124.0472853,41.7694513],[-124.0476823,41.7696513],[-124.047854,41.7698754],[-124.047854,41.7701834],[-124.0479666,41.7703475],[-124.0480632,41.7703795],[-124.0483421,41.7703675],[-124.048503,41.7704475],[-124.0486425,41.7706355],[-124.0487927,41.7706916],[-124.0491146,41.7705355],[-124.0492594,41.7705395],[-124.0493989,41.7706195],[-124.0496188,41.7706475],[-124.0503645,41.7705475],[-124.0507025,41.7705515],[-124.0508795,41.7705155],[-124.0511155,41.7705395],[-124.0514481,41.7704315],[-124.0515232,41.7703275],[-124.0516841,41.7702995],[-124.051888,41.7703235],[-124.0519953,41.7702835],[-124.0520597,41.7701874],[-124.0522367,41.7701394],[-124.0523332,41.7701474],[-124.0527088,41.7703115],[-124.0531004,41.7703595],[-124.0532452,41.7703315],[-124.0535027,41.7700794],[-124.0539265,41.7698674],[-124.0542269,41.7697753],[-124.054715,41.7697193],[-124.0549028,41.7696473],[-124.0551442,41.7692312],[-124.0551978,41.7691832],[-124.055348,41.7691872],[-124.0554285,41.7692832],[-124.0554768,41.7694553],[-124.0555733,41.7694913],[-124.0556592,41.7694713],[-124.0557933,41.7692552],[-124.0558684,41.7692312],[-124.055965,41.7692712],[-124.055981,41.7693712],[-124.055981,41.7697113],[-124.0560508,41.7697593],[-124.0561527,41.7697633],[-124.056437,41.7694753],[-124.0565389,41.7694793],[-124.0566731,41.7696153],[-124.0569842,41.7697513],[-124.0570217,41.7698434],[-124.0568179,41.7703235],[-124.0568394,41.7704315],[-124.0570271,41.7704635],[-124.057231,41.7703955],[-124.0575314,41.7704195],[-124.0582877,41.7702995],[-124.0585023,41.7703475],[-124.0585291,41.7704195],[-124.0585131,41.7706515],[-124.0585882,41.7707716],[-124.0585667,41.7709276],[-124.0585935,41.7709636],[-124.0587437,41.7708756],[-124.0589476,41.7706075],[-124.0590012,41.7705915],[-124.0590441,41.7706395],[-124.0590066,41.7708176],[-124.0590307,41.7708556],[-124.059087,41.7708516],[-124.0592533,41.7706875],[-124.0593633,41.7706515],[-124.0594679,41.7706555],[-124.0595859,41.7706815],[-124.0597281,41.7706455],[-124.0597925,41.7706535],[-124.0598407,41.7707216],[-124.0598515,41.7709076],[-124.059889,41.7709336],[-124.0599319,41.7709216],[-124.060117,41.7706956],[-124.0602002,41.7706695],[-124.0602189,41.7706935],[-124.0601948,41.7708816],[-124.0602216,41.7711276],[-124.0603048,41.7711797],[-124.0603638,41.7711917],[-124.0604576,41.7711617],[-124.0605918,41.7712197],[-124.0607795,41.7712077],[-124.0611309,41.7712717],[-124.0614608,41.7714317],[-124.0616038,41.771562],[-124.061921,41.771834],[-124.062295,41.7721559],[-124.0623411,41.772371],[-124.0624881,41.7725439],[-124.062559,41.772611],[-124.0626061,41.772708],[-124.0626007,41.772836],[-124.0623915,41.772952],[-124.0621716,41.773024],[-124.0621179,41.7731],[-124.0621287,41.77318],[-124.0622628,41.7732601],[-124.0623969,41.7733241],[-124.062459,41.773366],[-124.0625149,41.7734441],[-124.0626329,41.7735161],[-124.0630245,41.7736081],[-124.0633196,41.7738682],[-124.0636951,41.7739522],[-124.0639311,41.7739642],[-124.063981,41.774013],[-124.0640491,41.7740082],[-124.0641135,41.7741122],[-124.0641564,41.7743362],[-124.064312,41.7745403],[-124.0644747,41.774854],[-124.064565,41.774938],[-124.064615,41.775004],[-124.0647411,41.7752764],[-124.0649343,41.7753924],[-124.0649611,41.7754844],[-124.0648592,41.7756484],[-124.064886,41.7759245],[-124.0648913,41.7761045],[-124.0649396,41.7762645],[-124.0649772,41.7763765],[-124.065071,41.776528],[-124.065121,41.776595],[-124.065201,41.776658],[-124.06536,41.776754],[-124.0655565,41.7768406],[-124.066211,41.7775207],[-124.0664524,41.7779127],[-124.0669781,41.7785608],[-124.0672463,41.7786768],[-124.0673965,41.7787728],[-124.0675306,41.7789488],[-124.067992,41.7791168],[-124.0682387,41.7791528],[-124.0684372,41.7792088],[-124.0687645,41.7794089],[-124.0690273,41.7794649],[-124.0691292,41.7794329],[-124.0692633,41.7792929],[-124.0693814,41.7790848],[-124.0694457,41.7790128],[-124.0696925,41.7788208],[-124.0698052,41.7787008],[-124.0699178,41.7784688],[-124.0699124,41.7780727],[-124.0700144,41.7779927],[-124.0701163,41.7780447],[-124.0701807,41.7782088],[-124.0701699,41.7785608],[-124.0701914,41.7790088],[-124.0701217,41.7791568],[-124.0700841,41.7793049],[-124.0701646,41.7793569],[-124.070304,41.7793249],[-124.0705776,41.7790768],[-124.0707064,41.7790088],[-124.0708566,41.7789648],[-124.0710658,41.7790008],[-124.0712106,41.7791728],[-124.071393,41.7795729],[-124.0713286,41.7801769],[-124.0713179,41.780665],[-124.0712428,41.780885],[-124.0710872,41.781041],[-124.0706098,41.781173],[-124.0703899,41.781221],[-124.0702665,41.781369],[-124.0703791,41.781573],[-124.0706903,41.781749],[-124.0708405,41.781905],[-124.0709746,41.781925],[-124.0712482,41.781805],[-124.0714467,41.781853],[-124.0720904,41.782293],[-124.0721816,41.782445],[-124.072305,41.782541],[-124.0724927,41.782605],[-124.072659,41.782725],[-124.0727019,41.7829691],[-124.0725839,41.7830691],[-124.0724766,41.7830731],[-124.0723908,41.7829611],[-124.0722781,41.7829771],[-124.072203,41.7830171],[-124.0720689,41.7833211],[-124.072026,41.7837651],[-124.0717042,41.7840731],[-124.0713608,41.7844131],[-124.0713286,41.7845491],[-124.0713716,41.7846491],[-124.0714628,41.7847011],[-124.0718329,41.7847851],[-124.0725142,41.7852731],[-124.0728468,41.7853571],[-124.0732598,41.7853851],[-124.073469,41.7855131],[-124.0736675,41.7859331],[-124.0736622,41.7861211],[-124.073469,41.7863531],[-124.0734851,41.7864811],[-124.07363,41.786757],[-124.0736407,41.786985],[-124.0733671,41.787457],[-124.0733832,41.787613],[-124.073469,41.787781],[-124.0734959,41.787981],[-124.0736836,41.788189],[-124.0737373,41.788421],[-124.07363,41.788561],[-124.0734154,41.788597],[-124.0731633,41.788675]]}},{"type":"Feature","properties":{"name":"","id":10251177},"geometry":{"type":"LineString","coordinates":[[-124.0868238,41.796504],[-124.0866226,41.79666],[-124.0865153,41.7967319],[-124.0863249,41.7967459],[-124.0861371,41.7967719]]}},{"type":"Feature","properties":{"name":"River Trail","id":189104654},"geometry":{"type":"LineString","coordinates":[[-124.0771329,41.7904008],[-124.0770525,41.7905248],[-124.0769693,41.7905488],[-124.0766984,41.7905168],[-124.076398,41.7903288],[-124.0761942,41.7903088],[-124.0759769,41.7902408],[-124.075816,41.7902008],[-124.0756068,41.7901848],[-124.0753841,41.7901028],[-124.0752527,41.7900929],[-124.0751293,41.7900669],[-124.0749013,41.7899429],[-124.0747297,41.7898849],[-124.0745527,41.7898249],[-124.0744454,41.7898109],[-124.0743274,41.7898369],[-124.0742442,41.7898389],[-124.074043,41.7897609],[-124.0738526,41.7897049],[-124.0737024,41.7896989],[-124.073469,41.7896389],[-124.0732437,41.7895609],[-124.072929,41.7894261],[-124.0726778,41.7893429],[-124.0725893,41.7892729],[-124.0725544,41.7891229]]}},{"type":"Feature","properties":{"name":"","id":233583547},"geometry":{"type":"LineString","coordinates":[[-124.0804448,41.7960883],[-124.0805946,41.7961391],[-124.0808433,41.7962584],[-124.0809319,41.7963727],[-124.0810682,41.7964083],[-124.0812116,41.7964992]]}},{"type":"Feature","properties":{"name":"Self Guided Nature Trail","id":346157531},"geometry":{"type":"LineString","coordinates":[[-124.0864268,41.8018408],[-124.0865582,41.8017868],[-124.0866306,41.8017348],[-124.0867969,41.8016608],[-124.0871188,41.8014029],[-124.0873629,41.801193],[-124.0874112,41.801055],[-124.0876579,41.800845],[-124.0877733,41.8007171],[-124.0878403,41.8005851],[-124.0878591,41.8004371],[-124.087937,41.800333],[-124.087961,41.8001432],[-124.0880737,41.7999813],[-124.0881327,41.7998653],[-124.088153,41.79969],[-124.0881354,41.7991355],[-124.0877974,41.7990155],[-124.0876848,41.7989675],[-124.0875828,41.7989515],[-124.0875104,41.7989795],[-124.0874165,41.7990655],[-124.0872583,41.7992434],[-124.0871966,41.7992954],[-124.0871269,41.7993114],[-124.0870464,41.7993054],[-124.0869874,41.7992594],[-124.086864,41.7991295],[-124.0867513,41.7990735],[-124.0866387,41.7990175],[-124.0865234,41.7990115],[-124.0864912,41.7989495],[-124.0865099,41.7988735],[-124.0864804,41.7988435],[-124.0863785,41.7988315],[-124.0862498,41.7987755],[-124.0861022,41.7987535],[-124.085961,41.798786],[-124.0859708,41.7988755],[-124.0860325,41.7989695],[-124.0860486,41.7990555],[-124.0859976,41.7991454],[-124.0860137,41.7991994],[-124.0861264,41.7992794],[-124.0861961,41.7993374],[-124.0862256,41.7994094],[-124.0862069,41.7994714],[-124.0860674,41.7995594],[-124.0859762,41.7996353],[-124.0859279,41.7997773],[-124.0858126,41.7998893],[-124.0857482,41.8000032],[-124.0857562,41.8000832],[-124.0858448,41.8002132],[-124.085995,41.8003232],[-124.0861478,41.8005151],[-124.086222,41.800607],[-124.0862042,41.8007011],[-124.0861344,41.8007951],[-124.0860674,41.800993],[-124.0859655,41.8013349],[-124.0859708,41.8014929],[-124.0859252,41.8016188],[-124.0858313,41.8017128],[-124.0857428,41.8018128],[-124.0858582,41.8018508],[-124.0859816,41.8018448],[-124.0862104,41.8018105],[-124.0864268,41.8018408]]}},{"type":"Feature","properties":{"name":"River Trail","id":442983618},"geometry":{"type":"LineString","coordinates":[[-124.0835246,41.7911997],[-124.0836494,41.7913037],[-124.0837164,41.7914547],[-124.0837982,41.7915087],[-124.0838881,41.7914957],[-124.0840809,41.79156],[-124.0841828,41.791676],[-124.0842582,41.7917047],[-124.0843333,41.7918097],[-124.084395,41.7917857],[-124.0844728,41.7917907]]}},{"type":"Feature","properties":{"name":"River Trail","id":442983619},"geometry":{"type":"LineString","coordinates":[[-124.0844728,41.7917907],[-124.0845358,41.7918127]]}},{"type":"Feature","properties":{"name":"River Trail","id":442983620},"geometry":{"type":"LineString","coordinates":[[-124.0845358,41.7918127],[-124.0845935,41.7918107],[-124.0846901,41.7918507],[-124.0847558,41.7918387],[-124.0848067,41.7918787],[-124.0849167,41.7919687],[-124.0850562,41.7920047],[-124.0851662,41.7920147],[-124.0852386,41.7920047]]}},{"type":"Feature","properties":{"name":"Summer Foot Bridge","id":442983621},"geometry":{"type":"LineString","coordinates":[[-124.0852386,41.7920047],[-124.0851922,41.7926819]]}},{"type":"Feature","properties":{"name":"River Trail","id":442983622},"geometry":{"type":"LineString","coordinates":[[-124.0851922,41.7926819],[-124.0852426,41.7927376],[-124.0853164,41.7927996],[-124.0854545,41.7928486],[-124.0855551,41.7928536],[-124.0857367,41.7928419],[-124.0859164,41.7929239],[-124.0861176,41.7929759],[-124.0862946,41.7930519],[-124.0864214,41.7931205],[-124.086514,41.7932455],[-124.0864952,41.7932785]]}},{"type":"Feature","properties":{"name":"Stout Grove Trail","id":621875208},"geometry":{"type":"LineString","coordinates":[[-124.0848939,41.7896469],[-124.0848054,41.7897099],[-124.0846807,41.7897779],[-124.0845093,41.7898052],[-124.0843762,41.7898069],[-124.0842019,41.7898129],[-124.0840141,41.7898469],[-124.08388,41.7898399],[-124.0837929,41.7898575],[-124.0837057,41.7898599],[-124.0836293,41.7898979],[-124.0835474,41.7899209],[-124.0834267,41.7899479],[-124.0833651,41.7899979]]}},{"type":"Feature","properties":{"name":"Stout Grove Trail","id":621875209},"geometry":{"type":"LineString","coordinates":[[-124.0833651,41.7899979],[-124.0833074,41.7900429],[-124.0832417,41.7900579]]}},{"type":"Feature","properties":{"name":"","id":1046273878},"geometry":{"type":"LineString","coordinates":[[-124.085664,41.8023798],[-124.0856624,41.8022247],[-124.085775,41.8021227],[-124.0859848,41.8020315],[-124.0862364,41.8019428],[-124.0864268,41.8018408]]}},{"type":"Feature","properties":{"name":"River Beach Trail","id":1046273879},"geometry":{"type":"LineString","coordinates":[[-124.0881354,41.7991355],[-124.0881783,41.7990495],[-124.0882346,41.7989355],[-124.0882373,41.7988055],[-124.0881997,41.7986576],[-124.0881139,41.7985896],[-124.0880603,41.7984756],[-124.0880349,41.798348],[-124.0880388,41.7981257],[-124.0879664,41.7979777],[-124.0878242,41.7976938],[-124.0877813,41.7975218],[-124.0876579,41.7973478],[-124.0875641,41.7970639],[-124.0874594,41.7968459],[-124.0873039,41.796612],[-124.0872556,41.796412],[-124.0872288,41.796186],[-124.0872315,41.7960361],[-124.0872958,41.7958981],[-124.0873736,41.7958101],[-124.0874916,41.7957321],[-124.0876017,41.7957132]]}},{"type":"Feature","properties":{"name":"","id":1046369335},"geometry":{"type":"LineString","coordinates":[[-124.085961,41.798786],[-124.0859306,41.7987195],[-124.0858984,41.7986456],[-124.0859306,41.7984976],[-124.0859038,41.7984276],[-124.085885,41.7983276],[-124.0859574,41.7982776]]}},{"type":"Feature","properties":{"name":"","id":1046369336},"geometry":{"type":"LineString","coordinates":[[-124.0882147,41.7980606],[-124.0881803,41.7981034],[-124.0881528,41.7982358],[-124.0880349,41.798348],[-124.0877304,41.7982456]]}},{"type":"Feature","properties":{"name":"Hiouchi Trail","id":1046381923},"geometry":{"type":"LineString","coordinates":[[-124.0896052,41.8028985],[-124.0894942,41.802822],[-124.0893311,41.802662],[-124.0892351,41.8026066],[-124.0891841,41.8024826],[-124.0890688,41.8024026],[-124.0889416,41.8022542],[-124.0891204,41.8020623],[-124.0892807,41.8020518],[-124.0893316,41.8019588],[-124.0893638,41.8018308],[-124.0895107,41.8016053],[-124.0896396,41.8014971],[-124.0897018,41.8014749],[-124.0897474,41.8013789],[-124.0897554,41.8012409],[-124.0897232,41.801103],[-124.0898117,41.800861],[-124.0898252,41.8007031],[-124.0899164,41.8005856],[-124.08993,41.8004272],[-124.0898387,41.8003094],[-124.089911,41.8001923],[-124.0899056,41.8000412],[-124.0898868,41.7999213],[-124.0898815,41.7998173],[-124.0899512,41.7996773],[-124.0899888,41.7995554],[-124.0899994,41.7994262],[-124.0900221,41.7992604],[-124.0901075,41.7991574],[-124.0902972,41.7990715],[-124.0902624,41.7990135],[-124.0901658,41.7989955],[-124.090139,41.7989055],[-124.0901738,41.7988175],[-124.0901819,41.7987015],[-124.0901367,41.7986215],[-124.0901138,41.7985259],[-124.0901436,41.7984578],[-124.090147,41.7983776],[-124.0900578,41.7982183],[-124.0900375,41.7981315],[-124.0900311,41.7979794],[-124.0899742,41.7978186],[-124.0899386,41.7976586],[-124.0899834,41.7975638],[-124.0900102,41.7974198],[-124.0899995,41.7972718],[-124.0900049,41.7971399],[-124.0900156,41.7970139],[-124.0900639,41.7969179],[-124.0901208,41.7968058],[-124.0901524,41.796666],[-124.0902007,41.79652],[-124.090239,41.7963798],[-124.0902876,41.7963332],[-124.0903872,41.7963366],[-124.090448,41.7962958],[-124.0904501,41.796256],[-124.0903736,41.7962257],[-124.0903589,41.7960981],[-124.0902811,41.7959621],[-124.0902731,41.7957381],[-124.0903197,41.7956224]]}},{"type":"Feature","properties":{"name":"","id":1046381924},"geometry":{"type":"LineString","coordinates":[[-124.0854662,41.7916902],[-124.0854395,41.7917718],[-124.0853519,41.79181],[-124.08526,41.7919027],[-124.0852386,41.7920047]]}},{"type":"Feature","properties":{"name":"Hiouchi Trail","id":1046381926},"geometry":{"type":"LineString","coordinates":[[-124.0835354,41.8063334],[-124.0836311,41.8062171],[-124.0837044,41.8061155],[-124.0838116,41.8059576],[-124.0838331,41.8058236],[-124.0837884,41.8057077],[-124.0836627,41.805584],[-124.0834261,41.8054077],[-124.0831863,41.8052836],[-124.0831157,41.8052515],[-124.0830553,41.8051538],[-124.0830762,41.8050452],[-124.0832246,41.8049227],[-124.0832377,41.8048719],[-124.0831518,41.8047939],[-124.0831196,41.8047199],[-124.0832001,41.804698],[-124.0833128,41.804658],[-124.0834143,41.8044065],[-124.083522,41.8042561],[-124.0836427,41.8041821],[-124.0838063,41.8041861],[-124.0839458,41.8041701],[-124.0841335,41.8041241],[-124.0842328,41.8040562],[-124.0842569,41.8039002],[-124.0843588,41.8038242],[-124.0846163,41.8037362],[-124.0847561,41.8037197],[-124.084984,41.8037569],[-124.0852198,41.8037502],[-124.0853298,41.8037902],[-124.0855533,41.8037851],[-124.0858018,41.8037702],[-124.0859279,41.8037163],[-124.0860942,41.8036903],[-124.0862766,41.8036903],[-124.0864751,41.8037322],[-124.0868171,41.8037401],[-124.0870088,41.8037422],[-124.0871671,41.8037063],[-124.0874219,41.8036723],[-124.0875429,41.8036163],[-124.0877697,41.8036027],[-124.087894,41.8035983],[-124.0880173,41.8035103],[-124.0880629,41.8033884],[-124.0882442,41.8032834],[-124.0883714,41.8031564],[-124.0884492,41.8031504],[-124.0886396,41.8032004],[-124.0888757,41.8032504],[-124.0889964,41.8032284],[-124.0890983,41.8032244],[-124.0891305,41.8033504],[-124.0891948,41.8034083],[-124.0893397,41.8034123],[-124.0894972,41.8033483],[-124.0895972,41.8032884],[-124.0896562,41.8031844],[-124.0896499,41.8030927],[-124.0896374,41.8029865]]}},{"type":"Feature","properties":{"name":"Hiouchi Trail","id":1046381927},"geometry":{"type":"LineString","coordinates":[[-124.0896374,41.8029865],[-124.0896052,41.8028985]]}},{"type":"Feature","properties":{"name":"Hiouchi Trail","id":1046381928},"geometry":{"type":"LineString","coordinates":[[-124.090216,41.7932533],[-124.09021,41.7932437],[-124.0902275,41.7931765],[-124.0901765,41.7931085],[-124.0900478,41.7930565],[-124.0899485,41.7930505],[-124.0898842,41.7930285],[-124.0898439,41.7929645],[-124.089793,41.7929725],[-124.0897474,41.7930525],[-124.089691,41.7930805],[-124.0896234,41.7930733],[-124.0895596,41.7929865],[-124.089413,41.7928877],[-124.0892477,41.7927818],[-124.0891686,41.7927634],[-124.0889962,41.7927092],[-124.0888703,41.7925986],[-124.0887845,41.7925426],[-124.0887013,41.7925326],[-124.0884867,41.7925563],[-124.088368,41.7925386],[-124.088231,41.7925012],[-124.0880683,41.7925106],[-124.0879321,41.7924778],[-124.0877324,41.7923832],[-124.0875999,41.7923143],[-124.0875292,41.7922966],[-124.0874185,41.792211],[-124.0873129,41.792158],[-124.0872073,41.7921386],[-124.0871768,41.7920418],[-124.0870813,41.7919427],[-124.087033,41.7918847],[-124.0869742,41.7918235],[-124.086872,41.7918067],[-124.0867916,41.7918487],[-124.0866897,41.7918647],[-124.0865797,41.7918627],[-124.0864912,41.7918387],[-124.0863705,41.7917887],[-124.0862364,41.7917367],[-124.0860298,41.7916907],[-124.085885,41.7916547],[-124.0857126,41.7916782],[-124.0855472,41.7916723],[-124.0854662,41.7916902]]}},{"type":"Feature","properties":{"name":"Hiouchi Trail","id":1046381929},"geometry":{"type":"LineString","coordinates":[[-124.090262,41.7933279],[-124.090216,41.7932533]]}},{"type":"Feature","properties":{"name":"Hiouchi Trail","id":1046381930},"geometry":{"type":"LineString","coordinates":[[-124.0903335,41.7955543],[-124.0903125,41.7954129],[-124.0903385,41.7952486],[-124.0903303,41.7951627],[-124.0903347,41.7950759],[-124.0903128,41.7950284],[-124.0901938,41.7949858],[-124.090183,41.7949015],[-124.0901944,41.7948543],[-124.0902301,41.7948146],[-124.0901613,41.7947457],[-124.090029,41.7945723],[-124.089968,41.7944441],[-124.0899029,41.7943883],[-124.0898264,41.7942925],[-124.0898161,41.7942075],[-124.0897611,41.7941022],[-124.0898136,41.7940252],[-124.0899023,41.7939287],[-124.0899403,41.7937857],[-124.0900517,41.7936822],[-124.0901062,41.7935916],[-124.0901577,41.7934725],[-124.0902543,41.7934525],[-124.0903106,41.7933965],[-124.090262,41.7933279]]}},{"type":"Feature","properties":{"name":"Hiouchi Trail","id":1046381931},"geometry":{"type":"LineString","coordinates":[[-124.0903197,41.7956224],[-124.0903335,41.7955543]]}},{"type":"Feature","properties":{"name":"Mill Creek Trail","id":1046381932},"geometry":{"type":"LineString","coordinates":[[-124.0854662,41.7916902],[-124.0853065,41.7915964],[-124.0851949,41.7915353],[-124.0850213,41.7914732],[-124.0849945,41.7914547],[-124.0849945,41.7914227],[-124.0850428,41.7914127],[-124.0850374,41.7913767],[-124.0850803,41.7913307],[-124.0852835,41.7913305],[-124.0853423,41.7912629],[-124.0855142,41.7912572],[-124.0855631,41.7912367],[-124.0855846,41.7911787],[-124.085608,41.7910546],[-124.0856713,41.7909619],[-124.0857024,41.7908802],[-124.0857589,41.7908348],[-124.0857616,41.7907568],[-124.0858635,41.7906788],[-124.085985,41.7906811],[-124.0860817,41.7906684],[-124.0861094,41.790627],[-124.0861083,41.7905441],[-124.0860306,41.7904362],[-124.0859392,41.7903928],[-124.0859681,41.7902868],[-124.0860754,41.7902068],[-124.0861838,41.7901627],[-124.0862873,41.7901728],[-124.0864129,41.7902347],[-124.0865859,41.790285],[-124.0866545,41.7903294],[-124.0867172,41.7903614],[-124.0868291,41.7903568],[-124.0868935,41.7902928],[-124.0868014,41.7901618],[-124.0866781,41.7901158],[-124.0865349,41.7900664],[-124.0864268,41.7900329],[-124.0863544,41.7899729],[-124.0864107,41.7898589],[-124.0864912,41.7898029],[-124.086569,41.7897309],[-124.0866655,41.7896309],[-124.0867299,41.7895989],[-124.086831,41.7896243],[-124.086997,41.7896748],[-124.0871204,41.7896713],[-124.0871989,41.7896231],[-124.0872781,41.789605],[-124.0874675,41.7896929],[-124.0875909,41.7897209],[-124.0876606,41.7896589],[-124.0876526,41.7895689],[-124.0876034,41.7894427],[-124.0876798,41.7893446],[-124.0877472,41.7892467],[-124.0878105,41.7891964],[-124.0879688,41.7891849],[-124.0880559,41.7891149],[-124.0880599,41.7890129],[-124.0880549,41.7888549],[-124.0879449,41.788573],[-124.0880254,41.788465],[-124.0880889,41.7883081],[-124.0881039,41.7881875],[-124.0881263,41.788086],[-124.0881384,41.7880193],[-124.0882036,41.7879497],[-124.0883019,41.7879172],[-124.0883831,41.7878857],[-124.0884465,41.787889],[-124.0885137,41.7879289],[-124.0886128,41.787973],[-124.0887415,41.787963],[-124.088814,41.787903],[-124.0888381,41.787817],[-124.0890017,41.787777],[-124.0890929,41.787701],[-124.0891948,41.787643],[-124.0892753,41.787611],[-124.0893477,41.787499],[-124.0893155,41.787437],[-124.0893319,41.7873452],[-124.089404,41.787263],[-124.0895103,41.7872444],[-124.0896528,41.7872562],[-124.0897366,41.7872488],[-124.0898031,41.7872278],[-124.089897,41.7872825],[-124.0899851,41.787252],[-124.0900841,41.7872838],[-124.0901923,41.7873226],[-124.0902731,41.7874125],[-124.0903777,41.787409],[-124.0904796,41.787385],[-124.0905547,41.787309],[-124.0905475,41.7871863],[-124.090636,41.7870398],[-124.0907183,41.786953],[-124.0907666,41.786905],[-124.0908771,41.7868438],[-124.0909866,41.786747],[-124.0910697,41.786691],[-124.0911314,41.786619],[-124.0911582,41.7864991],[-124.0911528,41.7863411],[-124.0911394,41.7860651],[-124.0911931,41.7859591],[-124.0912923,41.7858611],[-124.0913567,41.7856091],[-124.091464,41.7855231],[-124.0916464,41.7854311],[-124.0917698,41.7853991],[-124.091877,41.7853711],[-124.0919951,41.7853531],[-124.0921077,41.7852831],[-124.0921729,41.785172],[-124.0922847,41.7851511],[-124.0924028,41.7851451],[-124.0924618,41.7851551],[-124.0925315,41.7851831],[-124.0926093,41.7853051],[-124.09273,41.7852731],[-124.0928495,41.7852654],[-124.0929622,41.785261],[-124.0931097,41.7852454],[-124.0932442,41.7852731],[-124.0933358,41.785276],[-124.093508,41.7852116],[-124.0936124,41.7851881],[-124.0937036,41.7851281],[-124.0938275,41.7851123],[-124.0939259,41.7851424],[-124.0940014,41.7851469],[-124.0940516,41.7851294]]}},{"type":"Feature","properties":{"name":"Mill Creek Trail","id":1046381933},"geometry":{"type":"LineString","coordinates":[[-124.0940516,41.7851294],[-124.0940639,41.7851031]]}},{"type":"Feature","properties":{"name":"Wellman Trail","id":1046383758},"geometry":{"type":"LineString","coordinates":[[-124.0837646,41.8015667],[-124.0834084,41.8016176],[-124.0832913,41.8017388],[-124.0831035,41.8017508],[-124.0830767,41.8018268],[-124.0828782,41.8018228],[-124.0827602,41.8018928],[-124.0826798,41.8018888],[-124.0827253,41.8017148],[-124.0827602,41.8015469],[-124.0825725,41.8016188],[-124.0824679,41.8017088],[-124.0824491,41.8015889],[-124.0825242,41.8013749],[-124.0824974,41.801195],[-124.0825161,41.800977],[-124.0826342,41.8006131],[-124.0827763,41.8003592],[-124.0828273,41.8001352],[-124.0828273,41.7999333],[-124.082728,41.7997593],[-124.0826529,41.7993954],[-124.0825903,41.7994799],[-124.0825791,41.799751],[-124.0824174,41.8001646],[-124.0823432,41.7999234],[-124.0823247,41.7996777],[-124.0821379,41.7993594],[-124.0821127,41.799552],[-124.0820277,41.7999032],[-124.0819379,41.8001575],[-124.081797,41.8002327],[-124.0818682,41.8000125],[-124.0817331,41.7996279],[-124.081623,41.7993274],[-124.0815425,41.7994834],[-124.0815165,41.7997479],[-124.0813547,41.7999433],[-124.0811355,41.8000906],[-124.0807539,41.8002072],[-124.0805072,41.8003352],[-124.0803891,41.8003992],[-124.0802353,41.8004531],[-124.0801585,41.8006031],[-124.0800941,41.8007111],[-124.0799654,41.8008031],[-124.0797939,41.8008653],[-124.0795308,41.800975],[-124.0795147,41.801167],[-124.0794879,41.8014749],[-124.0795201,41.8016748],[-124.079504,41.8018588],[-124.079504,41.8020867],[-124.0794412,41.8025375],[-124.0794152,41.8027354],[-124.0798849,41.8031424],[-124.0799439,41.8035143],[-124.0798473,41.8038142],[-124.0797615,41.8040462],[-124.0797213,41.8041541],[-124.0796542,41.8042781],[-124.0795684,41.8043581],[-124.0796596,41.8043421],[-124.0797776,41.8042621],[-124.0798312,41.8042781],[-124.0797856,41.8043681],[-124.0796596,41.8045],[-124.079673,41.804572],[-124.0798708,41.8044225],[-124.0800324,41.8043141],[-124.080156,41.804275],[-124.0801612,41.8043781],[-124.080078,41.80455],[-124.0799949,41.8047],[-124.0796435,41.8048659],[-124.0797598,41.8048811],[-124.0801638,41.8047639],[-124.0801638,41.8048379],[-124.0801102,41.8049359],[-124.0799305,41.8050478],[-124.0798286,41.8050978],[-124.079681,41.8050958],[-124.0796703,41.8051598],[-124.079899,41.8051618],[-124.0801531,41.8050758],[-124.0802941,41.804966],[-124.0804803,41.8048019],[-124.0805949,41.804649],[-124.0808495,41.8044476],[-124.0812153,41.8038602],[-124.0813977,41.8036723],[-124.0815398,41.8035283],[-124.0815848,41.8033109],[-124.0816948,41.8032124],[-124.0817442,41.8031058],[-124.0819623,41.8029538],[-124.0821487,41.8027465],[-124.082205,41.8025646],[-124.0823311,41.8023426],[-124.0824819,41.8021152],[-124.0826798,41.8018888]]}},{"type":"Feature","properties":{"name":"Mill Creek Trail","id":1081664756},"geometry":{"type":"LineString","coordinates":[[-124.0940639,41.7851031],[-124.0940329,41.7850675],[-124.0939756,41.7850341],[-124.093964,41.7850113],[-124.0939738,41.784962],[-124.0939504,41.7849211],[-124.0938847,41.7848881],[-124.093831,41.7847881],[-124.0938257,41.7847071],[-124.0938914,41.7846521],[-124.0939786,41.7846311],[-124.0940671,41.7846331],[-124.0941221,41.7846611],[-124.0941758,41.7846655],[-124.0942489,41.784668],[-124.0943059,41.7846652],[-124.094353,41.7846413],[-124.0944207,41.7845641],[-124.0944729,41.7845021],[-124.0944717,41.7844389],[-124.0944053,41.7843912],[-124.0943458,41.7843667],[-124.0941972,41.7843191],[-124.0941251,41.7842661],[-124.0940627,41.7842407],[-124.0939611,41.7842511],[-124.0938847,41.7842141],[-124.0937897,41.7841181],[-124.0937808,41.7840312],[-124.0937661,41.7839794],[-124.0937841,41.7839421],[-124.0938016,41.7838893],[-124.0937961,41.7838159],[-124.0937895,41.7837311],[-124.0937828,41.7836061],[-124.0937828,41.7834481],[-124.0937876,41.783302],[-124.0938377,41.7831841],[-124.0938981,41.7830811],[-124.0939128,41.7829911],[-124.0939663,41.7829243],[-124.0940904,41.7828627],[-124.0941247,41.7828046],[-124.0942027,41.7827435],[-124.0943165,41.782714],[-124.0944015,41.7826629],[-124.0943554,41.782604],[-124.0942666,41.7825521],[-124.0941915,41.7824593],[-124.0941872,41.7823958],[-124.0941615,41.782342],[-124.0941085,41.7822484],[-124.094069,41.7821996],[-124.0940172,41.7821691],[-124.0939622,41.7821285],[-124.0939376,41.7820805],[-124.0939418,41.7820212],[-124.0939732,41.7819375],[-124.0939496,41.7818588],[-124.0939149,41.7818181],[-124.0938102,41.7816939],[-124.0937412,41.781598],[-124.0937508,41.7814707],[-124.0936928,41.781373],[-124.0936368,41.7812424],[-124.093633,41.7811904],[-124.0935815,41.7811314],[-124.0935756,41.7810581],[-124.0935217,41.780998],[-124.0934875,41.7808921],[-124.0934958,41.780799],[-124.0935346,41.780714],[-124.0935655,41.7805979],[-124.0936205,41.7805009],[-124.0936495,41.7803873],[-124.0936867,41.780316],[-124.0936849,41.7802279],[-124.0937492,41.7801279],[-124.093772,41.7800339],[-124.0937841,41.7799489],[-124.0938203,41.7798829],[-124.0938807,41.7798179],[-124.093992,41.7797619],[-124.094056,41.7796166],[-124.0941046,41.7795249],[-124.0941462,41.7794809],[-124.0943096,41.7793816],[-124.0943956,41.7793319],[-124.0945549,41.7793001],[-124.0946531,41.7792958],[-124.0948047,41.7793609],[-124.0949066,41.7793309],[-124.0950823,41.7792278],[-124.0952191,41.7791588],[-124.0953773,41.7791145],[-124.09543,41.7790682],[-124.0954615,41.7790189],[-124.0955088,41.7789301],[-124.0956216,41.7788759],[-124.0957158,41.7788238],[-124.0957646,41.7787916],[-124.0957652,41.7787278],[-124.0956988,41.778609],[-124.0957005,41.7785433],[-124.0957192,41.7784769],[-124.0957215,41.7784253],[-124.0956174,41.7783568],[-124.0955772,41.7782818],[-124.095608,41.7782278],[-124.0957046,41.7781767],[-124.0958159,41.7781887],[-124.0958896,41.7782288],[-124.0959522,41.7783179],[-124.0960722,41.7784022],[-124.0961753,41.7784428],[-124.0962276,41.7785198],[-124.096255,41.7785906],[-124.0963393,41.7786874],[-124.0964407,41.7787505],[-124.0965867,41.7787956],[-124.0966897,41.778802],[-124.0967675,41.7788096],[-124.0968493,41.7788606],[-124.0968709,41.7789076],[-124.0969799,41.7789878],[-124.0970416,41.7789688],[-124.0971263,41.7788923],[-124.0971908,41.7788796],[-124.0972578,41.7788702],[-124.0973149,41.7788372],[-124.0973391,41.7787618],[-124.0973819,41.7786915],[-124.0974024,41.7786368],[-124.0975396,41.7786311],[-124.097679,41.7786689],[-124.0977661,41.778698],[-124.0978303,41.7787441],[-124.0978562,41.7787789],[-124.0979133,41.7787958],[-124.0979362,41.7788088],[-124.0979831,41.7788028],[-124.0980139,41.7787768],[-124.098022,41.7787118],[-124.0979952,41.7786748],[-124.0979207,41.7786216],[-124.0979058,41.7785596],[-124.0979387,41.7785232],[-124.0980415,41.7784729],[-124.0981221,41.7784371],[-124.0982609,41.7784218],[-124.09837,41.7784325],[-124.0984223,41.7784787],[-124.0984595,41.7785172],[-124.0984703,41.7785741],[-124.098535,41.7786003],[-124.0985529,41.7786298],[-124.0985536,41.7786819],[-124.0985325,41.7787642],[-124.09848,41.7788114],[-124.0984699,41.7788618],[-124.0985115,41.7789158],[-124.0985812,41.7789308],[-124.0986671,41.7789548],[-124.0987456,41.778975],[-124.0988146,41.7790038],[-124.0988654,41.7790965],[-124.0988935,41.7791131],[-124.0990063,41.7791232],[-124.0990761,41.7791131],[-124.09915,41.7791049],[-124.0991988,41.7791036],[-124.099252,41.7790717],[-124.0993266,41.7790583],[-124.0994379,41.7790258],[-124.0995232,41.7789856],[-124.0995602,41.7789418],[-124.0996232,41.7789331],[-124.0996715,41.7789088],[-124.0997279,41.7788988],[-124.0997453,41.7788578],[-124.0997716,41.7788012],[-124.0998185,41.7787944],[-124.0998716,41.7788404],[-124.0999089,41.7788458],[-124.0999532,41.7788498]]}},{"type":"Feature","properties":{"name":"Hiouchi Trail","id":1216923027},"geometry":{"type":"LineString","coordinates":[[-124.0851877,41.7962724],[-124.0851264,41.7962577],[-124.085016,41.796248],[-124.0848979,41.796242],[-124.0847859,41.79628],[-124.0847155,41.796298],[-124.0846565,41.796274],[-124.0845734,41.796224],[-124.0844044,41.7961401],[-124.0843052,41.7961161],[-124.0841764,41.7961181],[-124.0840074,41.7960381],[-124.0838411,41.7959201],[-124.0837875,41.7958301],[-124.0837929,41.7957381],[-124.0837339,41.7956381],[-124.0836277,41.7955035],[-124.0833383,41.7951579],[-124.0832927,41.7951239],[-124.0832257,41.7950959],[-124.0828609,41.7949719],[-124.0827769,41.7949317],[-124.0825651,41.7947764],[-124.0825,41.7947063],[-124.0823659,41.7946763],[-124.0822613,41.7945843],[-124.0821621,41.7945603],[-124.0820467,41.7945623],[-124.0818741,41.7944867],[-124.0816176,41.7941724],[-124.0815037,41.7941029],[-124.0814111,41.7940364],[-124.0809881,41.7939829],[-124.0808849,41.7939431],[-124.080786,41.7938579],[-124.0806066,41.7936748],[-124.0804321,41.7935625],[-124.0799549,41.7934108],[-124.0798001,41.7933339],[-124.0797722,41.7932345],[-124.0796408,41.7931205],[-124.0795362,41.7930645],[-124.0794718,41.7929965],[-124.0794665,41.7928826],[-124.0794155,41.7928246],[-124.0793002,41.7928086],[-124.0791875,41.7928206],[-124.0790823,41.7927846],[-124.0789783,41.7928106],[-124.0789193,41.7928586],[-124.0788698,41.7929642],[-124.0788174,41.7930025],[-124.078694,41.7930285],[-124.0785921,41.7930125],[-124.0783721,41.7929026],[-124.0781656,41.7928678],[-124.0778702,41.7928235],[-124.0777633,41.7928146],[-124.077656,41.7928566],[-124.0774548,41.7928066],[-124.077137,41.792818],[-124.0768944,41.7927913],[-124.076736,41.7927986],[-124.0766287,41.7927526],[-124.076567,41.7926346],[-124.0763239,41.7924512],[-124.0762103,41.7923906],[-124.0761459,41.7923806],[-124.0760279,41.7923866],[-124.0757623,41.7923266],[-124.0756059,41.7922644],[-124.0749653,41.7921391],[-124.0748728,41.7921432],[-124.0746009,41.7921646],[-124.074432,41.7921446],[-124.0742925,41.7922306],[-124.0741852,41.7922606],[-124.0741175,41.7923135]]}},{"type":"Feature","properties":{"name":"Hiouchi Trail","id":1216923028},"geometry":{"type":"LineString","coordinates":[[-124.0740246,41.7923557],[-124.0739927,41.7923702],[-124.0737668,41.7925666],[-124.0737641,41.7926946],[-124.0737158,41.7927566],[-124.0736219,41.7928006],[-124.0734422,41.7928286],[-124.0733133,41.7929392],[-124.0732062,41.7929705],[-124.0730909,41.7929605],[-124.0729728,41.7928986]]}},{"type":"Feature","properties":{"name":"Hiouchi Trail","id":1216923029},"geometry":{"type":"LineString","coordinates":[[-124.0741175,41.7923135],[-124.0740246,41.7923557]]}},{"type":"Feature","properties":{"name":"River Trail","id":1290114999},"geometry":{"type":"LineString","coordinates":[[-124.0835246,41.7911997],[-124.083336,41.7912659],[-124.083243,41.7912897],[-124.0831304,41.7912897],[-124.0829936,41.7912427],[-124.0828688,41.7912097],[-124.0827736,41.7912127],[-124.0826167,41.7912747],[-124.0823686,41.7912807],[-124.0821111,41.7912647],[-124.0819663,41.7912147],[-124.0818228,41.7910948],[-124.0817182,41.7910678],[-124.0816015,41.7910848],[-124.081403,41.7911987],[-124.0813091,41.7912197],[-124.0810651,41.7911128],[-124.0809417,41.7910888],[-124.0807486,41.7911328],[-124.0806185,41.7911158],[-124.0803677,41.7909108]]}},{"type":"Feature","properties":{"name":"Stout Grove Trail","id":1290115000},"geometry":{"type":"LineString","coordinates":[[-124.0803677,41.7909108],[-124.0804026,41.7908688],[-124.0805804,41.7907836],[-124.0807351,41.7906728],[-124.0808156,41.7906508],[-124.0809041,41.7906048],[-124.0809765,41.7905908],[-124.0811375,41.7906008],[-124.0813877,41.7907529],[-124.0815049,41.7906448],[-124.0815613,41.7905888],[-124.0816364,41.7905908],[-124.0817026,41.7906465],[-124.0818388,41.7906081],[-124.0819502,41.7904988],[-124.0821192,41.7904448],[-124.082264,41.7903408],[-124.0824839,41.7902348],[-124.0826315,41.7901828],[-124.0828147,41.7901268],[-124.0828867,41.7901125],[-124.0829654,41.7901078],[-124.0830258,41.7900849],[-124.0830982,41.7900729],[-124.0831624,41.7900642],[-124.0832417,41.7900579]]}},{"type":"Feature","properties":{"name":"Stout Grove Trail","id":1385912030},"geometry":{"type":"LineString","coordinates":[[-124.0832417,41.7900579],[-124.0831757,41.7902573],[-124.0831277,41.7904968],[-124.0831679,41.7906488],[-124.0832564,41.7908008],[-124.0832845,41.790943],[-124.0834976,41.791177],[-124.0835246,41.7911997]]}},{"type":"Feature","properties":{"name":"","id":1385920941},"geometry":{"type":"LineString","coordinates":[[-124.0875694,41.796401],[-124.0874004,41.796298],[-124.0872958,41.796192],[-124.0872288,41.796186],[-124.0870759,41.796194],[-124.0869418,41.79618]]}},{"type":"Feature","properties":{"name":"","id":1385920942},"geometry":{"type":"LineString","coordinates":[[-124.0881139,41.7985896],[-124.0880817,41.7986975],[-124.0879878,41.7988455],[-124.0879235,41.7989175],[-124.0878537,41.7989535],[-124.0877652,41.7989675],[-124.0876848,41.7989675]]}},{"type":"Feature","properties":{"name":"River Trail","id":1385999318},"geometry":{"type":"LineString","coordinates":[[-124.0772241,41.7903848],[-124.0771329,41.7904008]]}},{"type":"Feature","properties":{"name":"River Trail","id":1385999319},"geometry":{"type":"LineString","coordinates":[[-124.0803677,41.7909108],[-124.0802336,41.7909168],[-124.0800512,41.7909768],[-124.079848,41.7909732],[-124.0796837,41.7909228],[-124.0794852,41.7909208],[-124.079268,41.7908688],[-124.0784043,41.7908608],[-124.0781415,41.7907928],[-124.0779162,41.7908248],[-124.0777901,41.7908308],[-124.0776372,41.7907808],[-124.0775433,41.7907188],[-124.077436,41.7907008],[-124.0773529,41.7906568],[-124.0773153,41.7905788],[-124.07731,41.7904168],[-124.0772241,41.7903848]]}}]}