{"type":"FeatureCollection","features":[{"type":"Feature","properties":{"name":"","kind":"toilets","id":434941210},"geometry":{"type":"Point","coordinates":[-124.0851249,41.7892286]}},{"type":"Feature","properties":{"name":"","kind":"parking","id":3527586653},"geometry":{"type":"Point","coordinates":[-124.0850664,41.8020675]}},{"type":"Feature","properties":{"name":"","kind":"toilets","id":4887057582},"geometry":{"type":"Point","coordinates":[-124.086956,41.7958754]}},{"type":"Feature","properties":{"name":"","kind":"toilets","id":9622661730},"geometry":{"type":"Point","coordinates":[-124.0869987,41.7980652]}},{"type":"Feature","properties":{"name":"","kind":"toilets","id":9622661731},"geometry":{"type":"Point","coordinates":[-124.0863326,41.7972316]}},{"type":"Feature","properties":{"name":"Stout Memorial Grove Parking","kind":"parking","id":10220794755},"geometry":{"type":"Point","coordinates":[-124.085099,41.7893534]}},{"type":"Feature","properties":{"name":"","kind":"board","id":10220794756},"geometry":{"type":"Point","coordinates":[-124.0849057,41.7896666]}},{"type":"Feature","properties":{"name":"Little Bald Hills Trailhead","kind":"parking","id":11011140844},"geometry":{"type":"Point","coordinates":[-124.0731633,41.788675]}}]}