{"type":"FeatureCollection","features":[{"type":"Feature","properties":{"name":"","kind":"parking","id":170140363},"geometry":{"type":"Polygon","coordinates":[[[-124.0814761,41.7969914],[-124.0813629,41.7968939],[-124.0814446,41.7968369],[-124.0815867,41.7969443],[-124.0814761,41.7969914]]]}},{"type":"Feature","properties":{"name":"","kind":"toilets","id":495140586},"geometry":{"type":"Polygon","coordinates":[[[-124.0815524,41.7970815],[-124.081493,41.7970434],[-124.0815509,41.7969933],[-124.0816103,41.7970313],[-124.0815524,41.7970815]]]}},{"type":"Feature","properties":{"name":"Hike and Bike Campsites","kind":"camp_site","id":1188253018},"geometry":{"type":"Polygon","coordinates":[[[-124.0862326,41.8014022],[-124.0869129,41.8014022],[-124.0872643,41.8006868],[-124.0862551,41.8004786],[-124.0862326,41.8014022]]]}},{"type":"Feature","properties":{"name":"Jedediah Smith Campground","kind":"camp_site","id":1303588928},"geometry":{"type":"Polygon","coordinates":[[[-124.0869659,41.7986556],[-124.087202,41.7986476],[-124.0874004,41.7986036],[-124.0875506,41.7985556],[-124.0876633,41.7985036],[-124.0877813,41.7984236],[-124.0878242,41.7983516],[-124.0878564,41.7982756],[-124.0878779,41.7981357],[-124.087894,41.7978877],[-124.087835,41.7977158],[-124.0877813,41.7976198],[-124.0876955,41.7975238],[-124.0876097,41.7974518],[-124.0875185,41.7973878],[-124.0873307,41.7972678],[-124.087261,41.7972079],[-124.0871966,41.7971279],[-124.0871644,41.7970319],[-124.0871322,41.7968839],[-124.0871161,41.7967639],[-124.0871966,41.796692],[-124.0873146,41.79666],[-124.0874863,41.796644],[-124.087674,41.796636],[-124.0878296,41.79662],[-124.0879476,41.796576],[-124.0880388,41.796488],[-124.0880764,41.79636],[-124.0880817,41.796232],[-124.0880817,41.7960521],[-124.088012,41.7957561],[-124.0879101,41.7955002],[-124.0878457,41.7952962],[-124.0876418,41.7949163],[-124.0874487,41.7945283],[-124.0873468,41.7943843],[-124.0872824,41.7943204],[-124.0871859,41.7942324],[-124.0870625,41.7941484],[-124.0869391,41.7940804],[-124.086408,41.7939884],[-124.0861934,41.7939644],[-124.0860218,41.7939444],[-124.0856302,41.7939684],[-124.0856999,41.7941004],[-124.0857697,41.7942124],[-124.0858555,41.7942884],[-124.0858716,41.7944003],[-124.0858126,41.7944843],[-124.0856999,41.7945563],[-124.0854102,41.7947243],[-124.0852547,41.7948243],[-124.0851742,41.7949203],[-124.0851528,41.7950522],[-124.0851635,41.7952642],[-124.0852118,41.7953882],[-124.0852654,41.7955762],[-124.0852922,41.7956601],[-124.0852439,41.7957761],[-124.0851742,41.7958801],[-124.0849811,41.7961281],[-124.084965,41.796244],[-124.0849596,41.796436],[-124.0849865,41.796584],[-124.0850186,41.7967559],[-124.0850079,41.7971319],[-124.0850025,41.7972359],[-124.0850562,41.7973918],[-124.0851206,41.7975318],[-124.0851796,41.7976638],[-124.0852225,41.7978317],[-124.0854585,41.7980277],[-124.0855175,41.7981077],[-124.0856302,41.7982516],[-124.0857697,41.7983356],[-124.0860379,41.7984636],[-124.0862954,41.7985316],[-124.0866333,41.7985916],[-124.0869659,41.7986556]]]}}]}