{"type":"FeatureCollection","features":[{"type":"Feature","properties":{"name":"US-101","cls":"hwy"},"geometry":{"type":"MultiLineString","coordinates":[[[-124.2122300629092,42.00834010491246],[-124.2113920632082,42.00721010495322]],[[-124.21396806403212,42.01035410519268],[-124.2122300629092,42.00834010491246]],[[-124.20847606172735,41.99990010449936],[-124.20832506121631,41.99865710490638]],[[-124.20832506121631,41.99865710490638],[-124.2083110609726,41.99840610433975]],[[-124.2113920632082,42.00721010495322],[-124.20991806257425,42.00467210490069]],[[-124.20991806257425,42.00467210490069],[-124.20861406181963,42.0006301050651]],[[-124.20861406181963,42.0006301050651],[-124.20847606172735,41.99990010449936]],[[-124.19530901982344,41.756590089649784],[-124.1959270203147,41.75725208957652]],[[-124.19697902117427,41.76330909000665],[-124.19761902140687,41.76187609004038]],[[-124.18288001758724,41.75068709028345],[-124.18448301809262,41.751821090579405]],[[-124.14460302521479,41.830779098994306],[-124.14500902419735,41.82616909841095]],[[-124.19690002153156,41.76341909028903],[-124.19697902117427,41.76330909000665]],[[-124.1366450342674,41.8951461038925],[-124.13661303448035,41.89891910417712]],[[-124.16549504496287,41.93391510361084],[-124.16750804464876,41.934326103113065]],[[-124.1643310134076,41.74100009164218],[-124.1696660144552,41.74352609126048],[-124.1760080161565,41.745767090997305]],[[-124.19749302101017,41.7574460894112],[-124.19811302115127,41.75813208987818]],[[-124.20269305467791,41.96534910284046],[-124.20272605518817,41.96633210313486]],[[-124.20724005984647,41.98947910391643],[-124.20784806029202,41.992313104351176]],[[-124.1557690428739,41.93218410399171],[-124.16406604453476,41.93368310348335]],[[-124.1703460454135,41.93495110335302],[-124.17519104601632,41.936807102651024]],[[-124.19301201955712,41.75275808993769],[-124.19366201983543,41.7534360898951]],[[-124.14371702673152,41.84005909937189],[-124.14460302521479,41.830779098994306]],[[-124.202728054838,41.9631541028864],[-124.20269105502808,41.96361110270237]],[[-124.16138501268786,41.739598091791045],[-124.16270801281074,41.740166091583795]],[[-124.18206301780266,41.750190090661704],[-124.18281501728993,41.750737090948014]],[[-124.20801905999623,41.99371010470452],[-124.20806406020209,41.99488410438425]],[[-124.19100101952102,41.75318708987401],[-124.19114301891292,41.753144090289325]],[[-124.2030380544594,41.96143210318509],[-124.20299405407847,41.96160410318517]],[[-124.1366870349985,41.89892010379054],[-124.13672303408522,41.8951461038925]],[[-124.14874002132139,41.803272096669666],[-124.1512270206602,41.79963809631546],[-124.15476602085859,41.796884095955335]],[[-124.14205502847156,41.85739910087519],[-124.14267502771436,41.85122410034894]],[[-124.14562304066034,41.92982210518286],[-124.14602104104361,41.93001810469669]],[[-124.19761902140687,41.76187609004038],[-124.19811302115127,41.75813208987818]],[[-124.20313005721586,41.97714310360648],[-124.20321105740673,41.97955710406088]],[[-124.20275005547762,41.96698710340435],[-124.20313005721586,41.97714310360648]],[[-124.19084801936016,41.753124089973916],[-124.1917390187646,41.752708090177215]],[[-124.20485205844524,41.98614010404076],[-124.20724005984647,41.98947910391643]],[[-124.13663203744187,41.917152104851496],[-124.13664303731254,41.91334510514995]],[[-124.14177002896452,41.85905010113583],[-124.14205502847156,41.85739910087519]],[[-124.16548504491713,41.93398810351097],[-124.16750804464876,41.934326103113065]],[[-124.13664303371927,41.891936103577486],[-124.1366450342674,41.8951461038925]],[[-124.16138501268786,41.739598091791045],[-124.16254401277921,41.74017009191855]],[[-124.19772105115851,41.94828010227045],[-124.19712105110892,41.94788410257485]],[[-124.13673803325551,41.891932103348964],[-124.13673103268451,41.88373110287423]],[[-124.19712105110892,41.94788410257485],[-124.19559905079439,41.9468901028045]],[[-124.13663003779206,41.91836410506374],[-124.13663203744187,41.917152104851496]],[[-124.14967601015188,41.7340240927281],[-124.1498020105486,41.73408809277959]],[[-124.14299102718354,41.84772709995129],[-124.14371702673152,41.84005909937189]],[[-124.19685802080045,41.756789089939666],[-124.19749302101017,41.7574460894112]],[[-124.18129901682317,41.749531090761145],[-124.18288001758724,41.75068709028345]],[[-124.1773450165231,41.746715090722475],[-124.18049301690922,41.74903009044939]],[[-124.13968702985676,41.868247101895825],[-124.13944903020537,41.86933810219046]],[[-124.14556402314281,41.82114609856603],[-124.14492502453176,41.826172098656954]],[[-124.1426000282696,41.851220100248405],[-124.1410850294244,41.86196010119101]],[[-124.1410850294244,41.86196010119101],[-124.14010302978333,41.86640810165926]],[[-124.14566902362311,41.82114409824501],[-124.1468680221008,41.81217809745597]],[[-124.19512302184721,41.7655190902147],[-124.19690002153156,41.76341909028903]],[[-124.18361201788134,41.75132109062505],[-124.18539001828893,41.752226090569195]],[[-124.1946730197888,41.75593508980331],[-124.19530901982344,41.756590089649784]],[[-124.1451980405129,41.92965410483382],[-124.14562304066034,41.92982210518286]],[[-124.19114301891292,41.753144090289325],[-124.19213401967313,41.75325309002211]],[[-124.18554001807675,41.7521550905505],[-124.18578701794895,41.752214090477146]],[[-124.20383105395454,41.95855010228697],[-124.20433205337167,41.956950102145754]],[[-124.14500902419735,41.82616909841095],[-124.14566902362311,41.82114409824501]],[[-124.19431101939053,41.75411808952836],[-124.19493302007979,41.754777089918925]],[[-124.14768302133726,41.80791609757388],[-124.14874002132139,41.803272096669666]],[[-124.17546004652816,41.93692610288049],[-124.18384204857784,41.94058310193852]],[[-124.20299405407847,41.96160410318517],[-124.202728054838,41.9631541028864]],[[-124.18559501832831,41.752267090308266],[-124.19042801923558,41.75326909010874]],[[-124.20809606088746,41.99543310450835],[-124.20814606021786,41.99604210426419]],[[-124.18049301690922,41.74903009044939],[-124.18123401742417,41.74957809050418]],[[-124.14454802496321,41.830589098819935],[-124.14453202506968,41.83079009910343]],[[-124.14010302978333,41.86640810165926],[-124.13968702985676,41.868247101895825]],[[-124.1917390187646,41.752708090177215],[-124.19301201955712,41.75275808993769]],[[-124.14602104104361,41.93001810469669],[-124.14709404092125,41.93049410482769]],[[-124.14115402902137,41.86198310158336],[-124.14177002896452,41.85905010113583]],[[-124.1534120423331,41.93175810419994],[-124.1557690428739,41.93218410399171]],[[-124.20423605401051,41.956947102691856],[-124.20383105395454,41.95855010228697]],[[-124.15053702109721,41.799934096559646],[-124.14829102088451,41.80350309668636]],[[-124.14429904071254,41.929122105153766],[-124.14068603999601,41.92545910536706]],[[-124.14911504190137,41.93097710454367],[-124.1509410419895,41.93125310464877]],[[-124.14736502131994,41.80776809731028],[-124.14556402314281,41.82114609856603]],[[-124.19403002008147,41.75525108967512],[-124.1946730197888,41.75593508980331]],[[-124.1805540170086,41.74898409092175],[-124.18084401743683,41.749189090995905]],[[-124.13662803814222,41.919120104922456],[-124.1366320383402,41.91891010511736]],[[-124.20363305448616,41.95924910261326],[-124.2030380544594,41.96143210318509]],[[-124.20828506103334,41.99815210460177],[-124.2083110609726,41.99840610433975]],[[-124.20815806081173,41.996222104342415],[-124.20828506103334,41.99815210460177]],[[-124.15210404227882,41.93151310454645],[-124.1534120423331,41.93175810419994]],[[-124.13950403045695,41.86933710211412],[-124.13974603030628,41.86825510197372]],[[-124.19542802144576,41.76508209072076],[-124.19252302163218,41.76725209097167]],[[-124.19339501987174,41.75459209013039],[-124.19403002008147,41.75525108967512]],[[-124.13653903845379,41.919120104922456],[-124.13705803831256,41.92127610528533],[-124.13871703889441,41.92326610499109]],[[-124.19213401967313,41.75325309002211],[-124.19277101953267,41.75391009017238]],[[-124.20793606015555,41.992308104252764],[-124.20798106036142,41.9932401040549]],[[-124.18448301809262,41.751821090579405],[-124.18554001807675,41.7521550905505]],[[-124.1366320383402,41.91891010511736],[-124.13663003779206,41.91836410506374]],[[-124.16406604453476,41.93368310348335],[-124.16549504496287,41.93391510361084]],[[-124.1384570314169,41.87389910241015],[-124.13915803085055,41.87082710220797]],[[-124.20383105395454,41.95855010228697],[-124.20363305448616,41.95924910261326]],[[-124.13664303731254,41.91334510514995],[-124.1366870349985,41.89892010379054]],[[-124.1509410419895,41.93125310464877],[-124.15210404227882,41.93151310454645]],[[-124.20272605518817,41.96633210313486],[-124.20275005547762,41.96698710340435]],[[-124.14829102088451,41.80350309668636],[-124.14736502131994,41.80776809731028]],[[-124.18281501728993,41.750737090948014],[-124.18361201788134,41.75132109062505]],[[-124.19366201983543,41.7534360898951],[-124.19431101939053,41.75411808952836]],[[-124.19743002126098,41.76186209025086],[-124.19680302144718,41.76327209018604]],[[-124.19724102111508,41.758595089877815],[-124.19778202071517,41.75984408978704],[-124.19743002126098,41.76186209025086]],[[-124.13910403042387,41.87082110188935],[-124.13732903128769,41.87852210278108]],[[-124.1992260517546,41.94924610257663],[-124.19772105115851,41.94828010227045]],[[-124.18539001828893,41.752226090569195],[-124.18559501832831,41.752267090308266]],[[-124.16750804464876,41.934326103113065],[-124.1703460454135,41.93495110335302]],[[-124.13654303775341,41.91588610483006],[-124.13653903845379,41.919120104922456]],[[-124.20485205844524,41.98614010404076],[-124.2073550594742,41.98948610396457]],[[-124.14068603999601,41.92545910536706],[-124.13871703889441,41.92326610499109]],[[-124.1436160264492,41.84009509985636],[-124.1426000282696,41.851220100248405]],[[-124.13672303408522,41.8951461038925],[-124.13673803325551,41.891932103348964]],[[-124.1468680221008,41.81217809745597],[-124.14768302133726,41.80791609757388]],[[-124.19042801923558,41.75326909010874],[-124.19100101952102,41.75318708987401]],[[-124.19013434649449,41.76912993484692],[-124.19232102196582,41.76752709050447]],[[-124.14911504190137,41.93097710454367],[-124.15210404227882,41.93151310454645]],[[-124.19557202048749,41.755453089632816],[-124.19620702069719,41.75611208971909]],[[-124.13772703167092,41.87705310254868],[-124.13778203102419,41.87680810224373]],[[-124.13664803284382,41.886576102942605],[-124.13664303371927,41.891936103577486]],[[-124.14453202506968,41.83079009910343],[-124.1436160264492,41.84009509985636]],[[-124.1451980405129,41.92965410483382],[-124.14429904071254,41.929122105153766]],[[-124.14492502453176,41.826172098656954],[-124.14454802496321,41.830589098819935]],[[-124.19620702069719,41.75611208971909],[-124.19685802080045,41.756789089939666]],[[-124.20798106036142,41.9932401040549],[-124.20801905999623,41.99371010470452]],[[-124.16254401277921,41.74017009191855],[-124.1643310134076,41.74100009164218]],[[-124.19680302144718,41.76327209018604],[-124.19542802144576,41.76508209072076]],[[-124.1959270203147,41.75725208957652],[-124.19724102111508,41.758595089877815]],[[-124.13974603030628,41.86825510197372],[-124.14115402902137,41.86198310158336]],[[-124.14911504190137,41.93097710454367],[-124.14833604175159,41.93083210490102]],[[-124.20814606021786,41.99604210426419],[-124.20815806081173,41.996222104342415]],[[-124.18578701794895,41.752214090477146],[-124.19084801936016,41.753124089973916]],[[-124.20269105502808,41.96361110270237],[-124.20269305467791,41.96534910284046]],[[-124.19268802148862,41.767290090838394],[-124.19512302184721,41.7655190902147]],[[-124.13944903020537,41.86933810219046],[-124.13910403042387,41.87082110188935]],[[-124.19232102196582,41.76752709050447],[-124.192496021868,41.76741609090558]],[[-124.1498020105486,41.73408809277959],[-124.15411701142199,41.736152092592775]],[[-124.18123401742417,41.74957809050418],[-124.18206301780266,41.750190090661704]],[[-124.15411701142199,41.736152092592775],[-124.16138501268786,41.739598091791045]],[[-124.17740601572419,41.746663090981606],[-124.17769401650257,41.746877090908214]],[[-124.20806406020209,41.99488410438425],[-124.20809606088746,41.99543310450835]],[[-124.18384204857784,41.94058310193852],[-124.18990904991955,41.9433421030419]],[[-124.20176105257062,41.95087410218061],[-124.1992260517546,41.94924610257663]],[[-124.16406604453476,41.93368310348335],[-124.16548504491713,41.93398810351097]],[[-124.16270801281074,41.740166091583795],[-124.1643310134076,41.74100009164218]],[[-124.13656603731962,41.91334510514995],[-124.13654303775341,41.91588610483006]],[[-124.19277101953267,41.75391009017238],[-124.19339501987174,41.75459209013039]],[[-124.14709404092125,41.93049410482769],[-124.1451980405129,41.92965410483382]],[[-124.17519104601632,41.936807102651024],[-124.17546004652816,41.93692610288049]],[[-124.14833604175159,41.93083210490102],[-124.14709404092125,41.93049410482769]],[[-124.13915803085055,41.87082710220797],[-124.13950403045695,41.86933710211412]],[[-124.14267502771436,41.85122410034894],[-124.14299102718354,41.84772709995129]],[[-124.19493302007979,41.754777089918925],[-124.19557202048749,41.755453089632816]],[[-124.20785605978962,41.992446104554084],[-124.20806406020209,41.99488410438425]],[[-124.192496021868,41.76741609090558],[-124.19268802148862,41.767290090838394]],[[-124.2073550594742,41.98948610396457],[-124.20793606015555,41.992308104252764]],[[-124.19252302163218,41.76725209097167],[-124.1906370212696,41.768536090750935]],[[-124.17769401650257,41.746877090908214],[-124.1805540170086,41.74898409092175]],[[-124.13871703889441,41.92326610499109],[-124.13715003837407,41.92124510538642],[-124.13662803814222,41.919120104922456]],[[-124.1760080161565,41.745767090997305],[-124.1773450165231,41.746715090722475]],[[-124.20784806029202,41.992313104351176],[-124.20785605978962,41.992446104554084]],[[-124.13661303448035,41.89891910417712],[-124.13656603731962,41.91334510514995]],[[-124.1760080161565,41.745767090997305],[-124.17740601572419,41.746663090981606]],[[-124.20321105740673,41.97955710406088],[-124.20340005755261,41.98377110434078],[-124.20485205844524,41.98614010404076]],[[-124.13778203102419,41.87680810224373],[-124.1384570314169,41.87389910241015]],[[-124.13737303166862,41.878525102579005],[-124.13772703167092,41.87705310254868]],[[-124.18084401743683,41.749189090995905],[-124.18129901682317,41.749531090761145]],[[-124.20280305248612,41.95157710235075],[-124.20176105257062,41.95087410218061]],[[-124.20271405279766,41.951627102564586],[-124.20453505376125,41.95397010249947],[-124.20423605401051,41.956947102691856]],[[-124.20433205337167,41.956950102145754],[-124.20463105312241,41.9539531023479],[-124.20280305248612,41.95157710235075]],[[-124.19388005083637,41.945797103015465],[-124.18990904991955,41.9433421030419]],[[-124.18990904991955,41.9433421030419],[-124.19380105029533,41.94583810248815]],[[-124.19559905079439,41.9468901028045],[-124.19388005083637,41.945797103015465]],[[-124.19380105029533,41.94583810248815],[-124.20271405279766,41.951627102564586]],[[-124.13673103178617,41.8815611027814],[-124.13737303166862,41.878525102579005]],[[-124.13732903128769,41.87852210278108],[-124.13665903181617,41.8815611027814]],[[-124.13673103268451,41.88373110287423],[-124.13673103178617,41.8815611027814]],[[-124.13665903181617,41.8815611027814],[-124.13664803284382,41.886576102942605]],[[-124.14386659892128,41.72971907189391],[-124.1471927855339,41.73259934286939],[-124.14967601015188,41.7340240927281]],[[-124.13686867434899,41.718064631496155],[-124.13954560628494,41.72391063457168]],[[-124.1258488790619,41.70514013115038],[-124.12705080335249,41.70578586358724],[-124.13031134557573,41.706152127982705],[-124.1314317243981,41.70800808857096],[-124.13084430166077,41.70901812697499],[-124.12720670507176,41.70992645448988],[-124.12707992224246,41.710960008941484],[-124.12924130654525,41.71147472220952],[-124.13053879271746,41.71312824578446],[-124.13527587421362,41.71435606990304],[-124.13686867434899,41.718064631496155]],[[-124.14141038305063,41.72542802505231],[-124.14335992035495,41.72915406293307]],[[-124.12064009131174,41.699710311816],[-124.1258488790619,41.70514013115038]],[[-124.13954560628494,41.72391063457168],[-124.14141038305063,41.72542802505231]],[[-124.14337884156978,41.72918212102383],[-124.14386659892128,41.72971907189391]],[[-124.14335992035495,41.72915406293307],[-124.14337884156978,41.72918212102383]]]}},{"type":"Feature","properties":{"name":"US-199","cls":"hwy"},"geometry":{"type":"MultiLineString","coordinates":[[[-124.13987602012116,41.80419609776635],[-124.143251020288,41.80430309763618]],[[-124.06322900674373,41.79146410391835],[-124.06370700749295,41.791544103552226]],[[-124.01211602141248,41.84248314186458],[-124.0095985206765,41.842270151560086],[-124.00798080756341,41.84285211181536]],[[-124.06052700642145,41.79112310389866],[-124.06308200732896,41.79144210358292]],[[-123.99575417779442,41.84235311735827],[-124.00442608055937,41.84362065797829],[-124.00798080756341,41.84285211181536]],[[-123.99217900513452,41.84234911335684],[-123.99403540151694,41.84237437275925]],[[-124.15476602085859,41.796884095955335],[-124.15280702070102,41.798715096300086],[-124.15076402087793,41.80164709697085],[-124.14874002132139,41.803272096669666]],[[-124.06699400779621,41.792118103438945],[-124.06777000757296,41.79226610368471]],[[-124.13894102033578,41.804349097681765],[-124.13915101949974,41.80429909795091]],[[-123.99217900513452,41.84234911335684],[-123.98487200440891,41.84423311390489]],[[-124.05899300641137,41.7915791045746],[-124.0598390065083,41.791274104303994]],[[-124.06544800719229,41.79184610336328],[-124.06638900772374,41.79200310374969]],[[-124.06777000757296,41.79226610368471],[-124.0691250083812,41.79243410371246]],[[-124.07239500896608,41.792974103354936],[-124.07297000890134,41.79307710282468]],[[-124.06308200732896,41.79144210358292],[-124.06322900674373,41.79146410391835]],[[-124.06370700749295,41.791544103552226],[-124.06450300736114,41.79167610390192]],[[-124.06450300736114,41.79167610390192],[-124.06544800719229,41.79184610336328]],[[-124.13899001984127,41.804448097944345],[-124.13946602004233,41.80435609796234]],[[-124.06638900772374,41.79200310374969],[-124.06699400779621,41.792118103438945]],[[-124.05874296304698,41.795410179418674],[-124.05825900646744,41.79311010449249],[-124.05899300641137,41.7915791045746]],[[-124.13946602004233,41.80435609796234],[-124.14324702009004,41.80447809718209]],[[-124.13915101949974,41.80429909795091],[-124.13987602012116,41.80419609776635]],[[-123.9459894972293,41.83699751709026],[-123.94925728436529,41.83802878503095],[-123.95318380789575,41.84066484806069],[-123.95843317434397,41.84220773440226]],[[-124.0691250083812,41.79243410371246],[-124.06996600845524,41.792561103213984]],[[-123.99403540151694,41.84237437275925],[-123.99425614273505,41.842368561170204]],[[-124.0598390065083,41.791274104303994],[-124.06052700642145,41.79112310389866]],[[-124.06996600845524,41.792561103213984],[-124.07239500896608,41.792974103354936]],[[-124.13796702019233,41.80470109821817],[-124.13894102033578,41.804349097681765]],[[-123.9684486854827,41.84538095340961],[-123.96903538148298,41.845458687405674]],[[-123.93831171866682,41.836903357222184],[-123.94190057087188,41.83625302677597],[-123.9459894972293,41.83699751709026]],[[-124.1372600200126,41.80529609799209],[-124.13899001984127,41.804448097944345]],[[-124.1372600200126,41.80529609799209],[-124.13796702019233,41.80470109821817]],[[-124.02624119472037,41.839133196921374],[-124.03061596230624,41.83887884019281],[-124.03328851765015,41.83954841795014],[-124.03504330020088,41.83931642624754],[-124.03625942416114,41.83780131548054],[-124.03631269335918,41.834680112179726]],[[-124.05874296304698,41.795410179418674],[-124.05875694891763,41.796813627542605],[-124.05661393875563,41.80049014655177],[-124.05471757902117,41.80199794180023]],[[-123.96734597292873,41.84505898536586],[-123.96592668328886,41.84462073122998]],[[-123.99425614273505,41.842368561170204],[-123.99469100548599,41.842357113328674]],[[-124.0542250794633,41.802239130434586],[-124.05238798787633,41.80411455569667],[-124.05188501396225,41.8081410016636],[-124.04954236939798,41.80908732522776],[-124.04658835121431,41.80927115144345],[-124.0454310345658,41.80992577407419],[-124.0448455692575,41.81152095287466],[-124.04490035660832,41.81294544254994],[-124.04388908716041,41.81443174629929],[-124.038700286027,41.81668542765443],[-124.03708135569667,41.8185824183769],[-124.03676541192303,41.8203949749822],[-124.0358645921359,41.82152968707656],[-124.03168404480601,41.822882211692814],[-124.03189629424976,41.82483488807644]],[[-123.95843317434397,41.84220773440226],[-123.96555290507891,41.84450447197659]],[[-124.02624119472037,41.839133196921374],[-124.02488576361907,41.83905601742229],[-124.02336637021551,41.83970011269207],[-124.02240839511842,41.841573085903846],[-124.02237693252393,41.84261812842456],[-124.02149351130721,41.843598320198765],[-124.01808960245621,41.84397422546307],[-124.01576377255745,41.84332769375622]],[[-123.96788146136453,41.84522424510711],[-123.96734597292873,41.84505898536586]],[[-123.90708487712067,41.84976222358032],[-123.90118338408185,41.85223374905131],[-123.89419815629776,41.85323407107013],[-123.89132423729471,41.85534582816956]],[[-124.03189629424976,41.82483488807644],[-124.03254096212859,41.82602375700921],[-124.03193537365959,41.82953593392623],[-124.03465371793017,41.830841060092816],[-124.03631269335918,41.834680112179726]],[[-123.96788146136453,41.84522424510711],[-123.9684486854827,41.84538095340961]],[[-124.05471757902117,41.80199794180023],[-124.0542250794633,41.802239130434586]],[[-124.01576377255745,41.84332769375622],[-124.01211602141248,41.84248314186458]],[[-123.93117685760753,41.84110101582358],[-123.9274288356122,41.843585549535625]],[[-123.9274288356122,41.843585549535625],[-123.92469526938918,41.844515563415726],[-123.91892507680724,41.84551493809156]],[[-123.91892507680724,41.84551493809156],[-123.91624580296333,41.84625177755808],[-123.91319216161465,41.8484785572932],[-123.90877569243665,41.84903048607047],[-123.90708487712067,41.84976222358032]],[[-123.93117685760753,41.84110101582358],[-123.93347477235882,41.839393438117355],[-123.93831171866682,41.836903357222184]],[[-123.99469100548599,41.842357113328674],[-123.99575417779442,41.84235311735827]],[[-123.96592668328886,41.84462073122998],[-123.96555290507891,41.84450447197659]],[[-123.98253882718946,41.84490590268593],[-123.98487200440891,41.84423311390489]],[[-123.98112670161397,41.84519278000009],[-123.98253882718946,41.84490590268593]],[[-123.97984750693757,41.84534052848218],[-123.98112670161397,41.84519278000009]],[[-123.97700700346647,41.845406115250626],[-123.97984750693757,41.84534052848218]],[[-124.14324702009004,41.80447809718209],[-124.14597702089974,41.80430409739006],[-124.14829102088451,41.80350309668636]],[[-124.143251020288,41.80430309763618],[-124.14705602062516,41.80335109719812],[-124.15053702109721,41.799934096559646]],[[-124.14829102088451,41.80350309668636],[-124.14874002132139,41.803272096669666]],[[-123.97132521948154,41.84545945698249],[-123.97700700346647,41.845406115250626]],[[-123.96903538148298,41.845458687405674],[-123.97132521948154,41.84545945698249]],[[-124.07297000890134,41.79307710282468],[-124.07477045820785,41.79339401323736]],[[-124.1372600200126,41.80529609799209],[-124.13696635086474,41.805568969742005]],[[-124.10225332826232,41.81164466522231],[-124.0953536802804,41.811683549372084],[-124.09047438469497,41.81050498190061]],[[-124.13696635086474,41.805568969742005],[-124.13470185973024,41.807010194487816]],[[-124.09047438469497,41.81050498190061],[-124.08515922473704,41.80841162354517],[-124.08162278383891,41.806007982094066],[-124.08108559938383,41.805139973888174]],[[-124.10695631420187,41.81145214631883],[-124.10225332826232,41.81164466522231]],[[-124.13470185973024,41.807010194487816],[-124.13177479010679,41.80893066532512],[-124.12890699491902,41.808525803013644],[-124.12723962473365,41.80777136893329],[-124.12703983222794,41.80824855137143],[-124.12804921251885,41.80950051348152],[-124.12793853827921,41.810271611424795],[-124.12441875663804,41.81129905088108],[-124.12185155840558,41.81031774176757],[-124.11544602605075,41.811546225112686],[-124.11228876313572,41.80986638999444],[-124.11037987280139,41.81124533719643],[-124.10777793851355,41.811511993597726]],[[-124.10777793851355,41.811511993597726],[-124.10695631420187,41.81145214631883]],[[-124.08137694459005,41.796013417896454],[-124.07905562513237,41.794418396129416],[-124.0772052923781,41.79377823609514]],[[-124.07699793246447,41.793748653782934],[-124.07543743215348,41.79350205383818]],[[-124.07543743215348,41.79350205383818],[-124.07486228758945,41.79340835307135]],[[-124.07486228758945,41.79340835307135],[-124.07477045820785,41.79339401323736]],[[-124.0772052923781,41.79377823609514],[-124.07699793246447,41.793748653782934]],[[-124.0840668239442,41.79811160733846],[-124.08384988888793,41.79791301181246]],[[-124.0841857177687,41.7983106516111],[-124.0840668239442,41.79811160733846]],[[-124.08384988888793,41.79791301181246],[-124.08137694459005,41.796013417896454]],[[-124.08426315883439,41.800561626806115],[-124.0841857177687,41.7983106516111]],[[-124.08108559938383,41.805139973888174],[-124.08149867170094,41.803888647756274],[-124.08347769081459,41.80198760036967],[-124.08426315883439,41.800561626806115]]]}},{"type":"Feature","properties":{"name":"N Bank Rd","cls":"local"},"geometry":{"type":"MultiLineString","coordinates":[[[-124.1075150213928,41.838737102874724],[-124.10920402121361,41.84019210269701]],[[-124.11937702498798,41.8557591026522],[-124.11780202586831,41.85822410319752]],[[-124.11680402363882,41.84632010237977],[-124.1207160250044,41.8512151024643],[-124.12028102570955,41.85445410258934]],[[-124.10920402121361,41.84019210269701],[-124.112786021968,41.84199010271617],[-124.11385202307126,41.843587102787836],[-124.11583602334315,41.844981102321256],[-124.11680402363882,41.84632010237977]],[[-124.11780202586831,41.85822410319752],[-124.11777502610413,41.862267103128396],[-124.11725202604741,41.864408103627],[-124.11761502716888,41.86614210339073],[-124.11833002684625,41.86718810390269],[-124.12287002785055,41.87061610337442],[-124.12394002915177,41.87417910386428]],[[-124.12028102570955,41.85445410258934],[-124.11937702498798,41.8557591026522]],[[-124.09521208063877,41.81881302577296],[-124.09693901631402,41.82097110237727]],[[-124.09693901631402,41.82097110237727],[-124.09738501637786,41.82136810234259]],[[-124.09738501637786,41.82136810234259],[-124.09746674420407,41.82143741506025]],[[-124.09746674420407,41.82143741506025],[-124.10274801791284,41.82623310228929]],[[-124.10274801791284,41.82623310228929],[-124.10366185428845,41.82813774298164]],[[-124.10366185428845,41.82813774298164],[-124.10371601910681,41.82829110273452]],[[-124.10371601910681,41.82829110273452],[-124.10386801854447,41.828746102602416]],[[-124.10386801854447,41.828746102602416],[-124.10441701943878,41.83052910269902]],[[-124.10441701943878,41.83052910269902],[-124.1043620191872,41.832896102565186],[-124.10630702089766,41.83732610273577],[-124.1075150213928,41.838737102874724]],[[-124.13665903181617,41.8815611027814],[-124.13673103178617,41.8815611027814]],[[-124.12394002915177,41.87417910386428],[-124.12554103000733,41.87681010350038],[-124.1282020303217,41.87910710351704],[-124.13665903181617,41.8815611027814]]]}},{"type":"Feature","properties":{"name":"Elk Valley Cross Rd","cls":"local"},"geometry":{"type":"MultiLineString","coordinates":[[[-124.1457420216214,41.80690009755012],[-124.14676102107238,41.80747109739213]],[[-124.14736502131994,41.80776809731028],[-124.14768302133726,41.80791609757388]],[[-124.14327902077541,41.80492109723658],[-124.14380102100723,41.805786097832254]],[[-124.14676102107238,41.80747109739213],[-124.14736502131994,41.80776809731028]],[[-124.14324702009004,41.80447809718209],[-124.14327902077541,41.80492109723658]],[[-124.143251020288,41.80430309763618],[-124.14324702009004,41.80447809718209]],[[-124.14380102100723,41.805786097832254],[-124.14498401779477,41.80648322978648]],[[-124.14498401779477,41.80648322978648],[-124.1457420216214,41.80690009755012]]]}},{"type":"Feature","properties":{"name":"North Bank","cls":"local"},"geometry":{"type":"MultiLineString","coordinates":[[[-124.08053404817247,41.807049085468364],[-124.07896898801309,41.81017343167505]],[[-124.09397616948775,41.817882993214965],[-124.09521208063877,41.81881302577296]],[[-124.09069825833849,41.8163039578888],[-124.09397616948775,41.817882993214965]],[[-124.07896898801309,41.81017343167505],[-124.08032013864204,41.81219999559768]],[[-124.08556202481886,41.81463321040234],[-124.09069825833849,41.8163039578888]],[[-124.08032013864204,41.81219999559768],[-124.08245797450802,41.813835952282595],[-124.08556202481886,41.81463321040234]],[[-124.08109678969736,41.80521750832876],[-124.08053404817247,41.807049085468364]]]}}]}