{"type":"FeatureCollection","features":[{"type":"Feature","properties":{"name":"Jedediah Smith Redwoods State Park"},"geometry":{"type":"Polygon","coordinates":[[[-124.0581978,41.7923487],[-124.0578332,41.7923396],[-124.0575194,41.7912566],[-124.057525,41.7903737],[-124.0573533,41.7898117],[-124.0580947,41.7890731],[-124.0585384,41.7898688],[-124.0584092,41.79114],[-124.0587702,41.7918121],[-124.0581978,41.7923487]]]}},{"type":"Feature","properties":{"name":"Jedediah Smith Redwoods State Park"},"geometry":{"type":"Polygon","coordinates":[[[-124.0622954,41.7904692],[-124.0618455,41.7904732],[-124.0618289,41.7894648],[-124.0622807,41.7894574],[-124.0622954,41.7904692]]]}},{"type":"Feature","properties":{"name":"Jedediah Smith Redwoods State Park"},"geometry":{"type":"Polygon","coordinates":[[[-124.0611444,41.7890963],[-124.0611399,41.79007],[-124.0604849,41.7897382],[-124.0604737,41.7887065],[-124.0611444,41.7890963]]]}},{"type":"Feature","properties":{"name":"Jedediah Smith Redwoods State Park"},"geometry":{"type":"Polygon","coordinates":[[[-124.0503374,41.7972598],[-124.0510075,41.7976689],[-124.0517977,41.79775],[-124.0553111,41.7969169],[-124.0551646,41.7971159],[-124.0551724,41.7977929],[-124.0562836,41.797798],[-124.0562944,41.7984246],[-124.0557899,41.798826],[-124.0503899,41.7983396],[-124.0503374,41.7972598]]]}},{"type":"Feature","properties":{"name":"Jedediah Smith Redwoods State Park"},"geometry":{"type":"Polygon","coordinates":[[[-124.0760247,41.7955454],[-124.0802549,41.7955641],[-124.0813766,41.7961432],[-124.0806329,41.7966906],[-124.0820554,41.7976229],[-124.0827679,41.7971208],[-124.0841291,41.7985717],[-124.0841533,41.792708],[-124.0854221,41.7927235],[-124.0868945,41.7932664],[-124.0882259,41.7954005],[-124.08822,41.7979167],[-124.0884332,41.7991306],[-124.0879813,41.8008499],[-124.0863934,41.8021114],[-124.0829905,41.8028373],[-124.0819254,41.8034728],[-124.081504,41.8045706],[-124.0818702,41.8054227],[-124.081901,41.8060344],[-124.0813491,41.8082837],[-124.0811575,41.8099459],[-124.0800826,41.8099458],[-124.0808796,41.8088097],[-124.0808915,41.8071003],[-124.0793711,41.8070813],[-124.0790144,41.8019936],[-124.0791449,41.7992331],[-124.0744067,41.7991898],[-124.0744014,41.7955375],[-124.0760247,41.7955454]]]}},{"type":"Feature","properties":{"name":"Jedediah Smith Redwoods State Park"},"geometry":{"type":"Polygon","coordinates":[[[-124.0648638,41.7854426],[-124.0619626,41.785424],[-124.0619754,41.786212],[-124.0598768,41.7862097],[-124.0598759,41.7868283],[-124.055741,41.7868638],[-124.0557192,41.7855176],[-124.0529718,41.7855427],[-124.0529395,41.7835615],[-124.0556366,41.7835367],[-124.05564,41.781817],[-124.0692365,41.7818606],[-124.0692901,41.7666375],[-124.0650346,41.7666157],[-124.064943,41.7590641],[-124.0700561,41.7585322],[-124.1094099,41.7584266],[-124.1183103,41.7581769],[-124.1374104,41.758206],[-124.1375866,41.7291522],[-124.1412602,41.7291343],[-124.1398012,41.725452],[-124.1410368,41.7254383],[-124.1427677,41.7291353],[-124.1417598,41.7291346],[-124.1418027,41.7303319],[-124.14343,41.7303327],[-124.1434738,41.7327831],[-124.146308,41.7437658],[-124.145722,41.7437706],[-124.146116,41.7455761],[-124.1461295,41.7475459],[-124.14678,41.7498325],[-124.1458675,41.7516691],[-124.145198,41.7542639],[-124.1452209,41.7569703],[-124.1467621,41.7569923],[-124.1473774,41.7566594],[-124.1484701,41.7574157],[-124.1484227,41.7581734],[-124.1455272,41.7582339],[-124.1455117,41.7654825],[-124.1470152,41.7654763],[-124.1468928,41.7690943],[-124.1550758,41.7691783],[-124.1545166,41.77042],[-124.1522938,41.7704068],[-124.1521334,41.7709119],[-124.1468883,41.7708442],[-124.1468898,41.7691156],[-124.1419311,41.7690845],[-124.1418455,41.787205],[-124.1389453,41.7871965],[-124.1370519,41.7894189],[-124.1370546,41.7933727],[-124.1383083,41.7933797],[-124.1383433,41.7995199],[-124.1417854,41.7995381],[-124.1418042,41.8005845],[-124.1406123,41.8022553],[-124.1370744,41.8051121],[-124.1370773,41.8058293],[-124.1355794,41.8090846],[-124.1345367,41.8090896],[-124.134531,41.8101841],[-124.1354695,41.8101957],[-124.1349545,41.8121884],[-124.1350541,41.8166202],[-124.1345632,41.8179456],[-124.135703,41.8193767],[-124.1355241,41.8225164],[-124.1228481,41.8225637],[-124.1227838,41.8334986],[-124.1179716,41.8335087],[-124.1180018,41.8380206],[-124.1098151,41.837315],[-124.1096976,41.8396017],[-124.1094185,41.8402391],[-124.1069323,41.8380474],[-124.1061451,41.8368404],[-124.1043849,41.832622],[-124.1045295,41.830271],[-124.1032819,41.82681],[-124.1025814,41.8258442],[-124.1044286,41.8258495],[-124.104438,41.8241841],[-124.1024673,41.8248817],[-124.1024636,41.8228599],[-124.1044291,41.8208499],[-124.104075,41.8206466],[-124.1033936,41.8197631],[-124.1021211,41.8168063],[-124.1016215,41.8164116],[-124.1014999,41.8157629],[-124.1012638,41.8153945],[-124.100805,41.8153854],[-124.1011291,41.8147459],[-124.1004221,41.8142581],[-124.0995697,41.8141757],[-124.0968609,41.8146678],[-124.0955266,41.8146853],[-124.092801,41.817404],[-124.0886647,41.8168623],[-124.0878204,41.8165505],[-124.0868281,41.8168301],[-124.0856844,41.8161744],[-124.0849199,41.8154115],[-124.0849115,41.8148487],[-124.0818669,41.8137116],[-124.0809299,41.8130945],[-124.079797,41.8119186],[-124.0794941,41.8119951],[-124.0784536,41.811748],[-124.0774877,41.8109554],[-124.0767766,41.8115564],[-124.0762675,41.8117549],[-124.0766047,41.8107295],[-124.0776748,41.810107],[-124.0746704,41.810116],[-124.0753497,41.8142583],[-124.083978,41.8145254],[-124.0879389,41.8142652],[-124.08479,41.8129102],[-124.0831181,41.8124643],[-124.0818954,41.8124402],[-124.0815443,41.812235],[-124.0812669,41.8114354],[-124.081289,41.8106288],[-124.0818274,41.8097226],[-124.0825496,41.8090176],[-124.0829268,41.8075907],[-124.082755,41.8066506],[-124.0830211,41.8059755],[-124.0823451,41.8045431],[-124.0824272,41.8040633],[-124.0832286,41.8032466],[-124.0836101,41.8032422],[-124.0831994,41.8037888],[-124.0860976,41.8033985],[-124.0869944,41.8035072],[-124.0879913,41.8031377],[-124.0887603,41.8024068],[-124.0892392,41.8014079],[-124.0894454,41.8006587],[-124.0894523,41.7996605],[-124.0897297,41.7988729],[-124.0895533,41.7982997],[-124.0896201,41.797122],[-124.0899299,41.795623],[-124.0896118,41.7944284],[-124.089197,41.7941115],[-124.0893927,41.7936524],[-124.0890873,41.7930919],[-124.0873778,41.7924075],[-124.0792876,41.7912791],[-124.0700715,41.7887004],[-124.0662792,41.7885625],[-124.0662352,41.7873856],[-124.0655421,41.7873735],[-124.0655281,41.7870738],[-124.0648901,41.7870654],[-124.0648638,41.7854426]]]}}]}