{"type":"FeatureCollection","features":[{"type":"Feature","properties":{"name":"Hiouchi","kind":"poi"},"geometry":{"type":"Point","coordinates":[-124.0720219,41.7926137]}},{"type":"Feature","properties":{"name":"Howland Hill","kind":"poi"},"geometry":{"type":"Point","coordinates":[-124.1309119,41.7559477]}},{"type":"Feature","properties":{"name":"Stout Grove","kind":"attraction"},"geometry":{"type":"Point","coordinates":[-124.0828556,41.7903916]}},{"type":"Feature","properties":{"name":"Boy Scout Tree","kind":"poi"},"geometry":{"type":"Point","coordinates":[-124.1345319,41.7817887]}},{"type":"Feature","properties":{"name":"Boy Scout Tree Trailhead","kind":"poi"},"geometry":{"type":"Point","coordinates":[-124.1101483,41.7686151]}},{"type":"Feature","properties":{"name":"Jedediah Smith Redwood State Park","kind":"information"},"geometry":{"type":"Point","coordinates":[-124.0865271,41.7956993]}},{"type":"Feature","properties":{"name":"Hiouchi Community Fellowship","kind":"poi"},"geometry":{"type":"Point","coordinates":[-124.0630878,41.7915972]}},{"type":"Feature","properties":{"name":"Grove of Titans","kind":"attraction"},"geometry":{"type":"Point","coordinates":[-124.1002786,41.7783014]}},{"type":"Feature","properties":{"name":"Mill Creek Trailhead","kind":"poi"},"geometry":{"type":"Point","coordinates":[-124.099254,41.7724665]}},{"type":"Feature","properties":{"name":"Stout Memorial Grove Parking","kind":"poi"},"geometry":{"type":"Point","coordinates":[-124.085099,41.7893534]}},{"type":"Feature","properties":{"name":"Stout Memorial Grove","kind":"grove"},"geometry":{"type":"Point","coordinates":[-124.08565057999999,41.78875263]}}]}