{"type":"FeatureCollection","features":[{"type":"Feature","properties":{"name":"South Fork Smith River"},"geometry":{"type":"MultiLineString","coordinates":[[[-123.93588948383604,41.7038977626407],[-123.93801881774027,41.705453097301415]],[[-123.95288574792505,41.725506881519806],[-123.95295491949383,41.7255488533095]],[[-123.99085416635127,41.75099149561842],[-123.9905481016434,41.751793598170124]],[[-124.00120130155507,41.75581162738872],[-124.00308574373653,41.759934973106546]],[[-123.94402535454074,41.719343297690784],[-123.94428868764496,41.71998596286604]],[[-123.9833810657637,41.735879321813094],[-123.98359734696774,41.73629547041201]],[[-123.93855968515471,41.705960229653016],[-123.93857475208486,41.70599402953015]],[[-124.04878871560985,41.79550586966012],[-124.04881231491758,41.79553389275345]],[[-123.94199195265486,41.71152136302142],[-123.94216715358246,41.71301922989183]],[[-123.94328115432549,41.715699097281316],[-123.94346755451896,41.71728382933989]],[[-123.94346755451896,41.71728382933989],[-123.94336335754024,41.71769123716623]],[[-124.01752384182707,41.78042769535083],[-124.01795291844675,41.78042819815342]],[[-123.99186775453718,41.7545792765093],[-123.99207397585998,41.75480933110864]],[[-123.93975922090188,41.70750370844009],[-123.93967328945438,41.70894093684826]],[[-124.02573884513112,41.79360029461861],[-124.02672477800837,41.79374069495678]],[[-124.01932221625108,41.780633352909184],[-124.02101870888418,41.78129656023056]],[[-124.01359307224824,41.77623341818106],[-124.01313877412855,41.77696076010414]],[[-124.01302324053353,41.778606494545414],[-124.01304451320756,41.77870936473692]],[[-123.9418937897319,41.711224827588005],[-123.94199195265486,41.71152136302142]],[[-123.93967328945438,41.70894093684826],[-123.94085701949236,41.710023429399286]],[[-123.93260601683866,41.7028083631338],[-123.93436001769662,41.70332029715565]],[[-123.99284439336608,41.74667707075919],[-123.99281609916963,41.74685862726793]],[[-123.95039455588785,41.724477362697556],[-123.95288574792505,41.725506881519806]],[[-123.94951135595821,41.72362296325918],[-123.95039455588785,41.724477362697556]],[[-124.02153190850353,41.781904227141844],[-124.0218511422078,41.78248215717269]],[[-123.99107111037536,41.75051851991701],[-123.99086783272287,41.7509570401567]],[[-123.93141375026099,41.70184276287593],[-123.93174288360429,41.70242656304615]],[[-123.99140396674883,41.74984302770787],[-123.99107111037536,41.75051851991701]],[[-123.95470629092274,41.726723362686116],[-123.95542769096025,41.72694749708011]],[[-124.02108117525283,41.78137036020722],[-124.02153190850353,41.781904227141844]],[[-123.94219144276414,41.71383648548842],[-123.94260150154663,41.71467980147155]],[[-124.00190604576724,41.76870046743335],[-124.00619757051311,41.76753816060245],[-124.00827063858993,41.768215960894146]],[[-123.99207397585998,41.75480933110864],[-123.9928543096537,41.755625976748455]],[[-123.93841795195787,41.705832962973886],[-123.93855968515471,41.705960229653016]],[[-123.99377043935813,41.75605088980722],[-123.99408893428335,41.756100048103484]],[[-123.9538020753309,41.726142626241824],[-123.95470629092274,41.726723362686116]],[[-123.99121421395529,41.74553628141935],[-123.99187103325936,41.745801401174354]],[[-123.9325846172195,41.702800497340995],[-123.93260601683866,41.7028083631338]],[[-123.99915097434557,41.76897393514003],[-124.00128000857606,41.76901562319598]],[[-123.94216715358246,41.71301922989183],[-123.94219144276414,41.71383648548842]],[[-124.00308574373653,41.759934973106546],[-124.00319876964497,41.76044036066192]],[[-123.99197652258114,41.74875553807359],[-123.99140396674883,41.74984302770787]],[[-123.93857475208486,41.70599402953015],[-123.93975922090188,41.70750370844009]],[[-124.02554584483147,41.79325116049308],[-124.02573884513112,41.79360029461861]],[[-123.99859243450423,41.75488576040927],[-123.99924074536298,41.75478854495611]],[[-124.00777270880484,41.77038057562184],[-124.0083796574025,41.77049606749369]],[[-123.9309773784585,41.70066636850705],[-123.93109815010092,41.70101242968226]],[[-124.02471649773122,41.78646451966771],[-124.02558290968776,41.7869914267059]],[[-124.0083796574025,41.77049606749369],[-124.00952015742115,41.77077656939368]],[[-124.00732149482751,41.769341516585115],[-124.0071744028813,41.769699652830475]],[[-124.01115949352985,41.77152225587173],[-124.01211964301882,41.77218153370174]],[[-124.02210651002541,41.78489216056512],[-124.02471649773122,41.78646451966771]],[[-123.93109815010092,41.70101242968226],[-123.93121975000828,41.70134562997861]],[[-123.95295491949383,41.7255488533095],[-123.9538020753309,41.726142626241824]],[[-124.013764574078,41.77575316041687],[-124.01359307224824,41.77623341818106]],[[-124.00952015742115,41.77077656939368],[-124.01090550546012,41.77133482698905]],[[-123.93069914907167,41.69922116270313],[-123.9309773784585,41.70066636850705]],[[-123.99038136649918,41.75293729520631],[-123.9908067898045,41.75376182266902]],[[-123.97554125191229,41.729551227430576],[-123.97454362239401,41.73093176239843],[-123.97504841658095,41.731503135740255]],[[-123.99408893428335,41.756100048103484],[-123.99580950070761,41.75616696092166],[-123.9985590510567,41.7548923925938]],[[-124.04881231491758,41.79553389275345],[-124.04978358563235,41.79681653270743]],[[-124.03850837955764,41.79517402655564],[-124.04052090313182,41.79539846346245]],[[-124.01313877412855,41.77696076010414],[-124.01302324053353,41.778606494545414]],[[-124.02558290968776,41.7869914267059],[-124.0259109098897,41.78781496029839]],[[-124.00075199175467,41.75507523305094],[-124.00120130155507,41.75581162661252]],[[-124.0259109098897,41.78781496029839],[-124.02583337763143,41.78962142744931]],[[-123.99794894443876,41.76812009738542],[-123.99832544080192,41.768734269230336]],[[-124.03496498408283,41.79468753392302],[-124.0366661799289,41.795143626401504]],[[-124.00353770793879,41.76233653404619],[-124.00372330379957,41.763417560442825]],[[-123.93174288360429,41.70242656304615],[-123.9325846172195,41.702800497340995]],[[-124.04716498126572,41.79503022535234],[-124.04868571524506,41.795383559000726]],[[-124.00742219040981,41.77018881767979],[-124.00777270880484,41.77038057562184]],[[-124.00827063858993,41.768215960894146],[-124.00836770479017,41.76879236047354],[-124.00732149482751,41.769341516585115]],[[-123.99086783272287,41.7509570401567],[-123.99085416635127,41.75099149561842]],[[-123.99281609916963,41.74685862726793],[-123.99251920260554,41.74763232288578]],[[-123.96501009621596,41.72720720242885],[-123.97136923039807,41.72588220135077]],[[-124.01304451320756,41.77870936473692],[-124.0137721075431,41.77994656115054]],[[-124.04868571524506,41.795383559000726],[-124.04878871560985,41.79550586966012]],[[-123.94085701949236,41.710023429399286],[-123.9418937897319,41.711224827588005]],[[-123.93436001769662,41.70332029715565],[-123.93588948383604,41.7038977626407]],[[-123.9985590510567,41.7548923925938],[-123.99859243450423,41.75488576040927]],[[-124.00128000857606,41.76901562319598],[-124.00190604576724,41.76870046743335]],[[-123.93801881774027,41.705453097301415],[-123.93826975184315,41.70569122907344]],[[-123.9928543096537,41.755625976748455],[-123.99377043935813,41.75605088980722]],[[-124.0071883273053,41.76981902311534],[-124.00742219040981,41.77018881767979]],[[-124.02583337763143,41.78962142744931],[-124.02554584483147,41.79325116049308]],[[-124.01211964301882,41.77218153370174],[-124.01447790581605,41.77257662703143]],[[-124.01090550546012,41.77133482698905],[-124.01115949352985,41.77152225587173]],[[-124.01605537490357,41.78061442726129],[-124.01752384182707,41.78042769535083]],[[-123.99253789891776,41.74605822691124],[-123.99284439336608,41.74667707075919]],[[-124.02195545884796,41.78445595313722],[-124.02210651002541,41.78489216056512]],[[-124.01795291844675,41.78042819815342],[-124.01932221625108,41.780633352909184]],[[-123.99924074536298,41.75478854495611],[-124.00036049609609,41.754865800199894]],[[-124.00036049609609,41.754865800199894],[-124.00075199175467,41.75507523305094]],[[-124.04288003997749,41.79544314036659],[-124.04364818079557,41.795393093729636]],[[-124.04052090313182,41.79539846346245],[-124.04288003997749,41.79544314036659]],[[-123.99251920260554,41.74763232288578],[-123.99214691520181,41.74832136026954]],[[-124.0071744028813,41.769699652830475],[-124.0071883273053,41.76981902311534]],[[-123.95542769096025,41.72694749708011],[-123.95847291316507,41.72754762573243]],[[-124.00372330379957,41.763417560442825],[-124.00304990358858,41.76530062733393],[-124.00067572582611,41.76575115540797]],[[-123.95847291316507,41.72754762573243],[-123.9642228917772,41.72735016168964]],[[-124.0466031783102,41.79511100603022],[-124.04716498126572,41.79503022535234]],[[-123.93826975184315,41.70569122907344],[-123.93841795195787,41.705832962973886]],[[-124.00353158023492,41.76230075901185],[-124.00353770793879,41.76233653404619]],[[-123.94842033644578,41.72245690752845],[-123.94951135595821,41.72362296325918]],[[-124.02805177915224,41.79368536012196],[-124.03151771208455,41.79318202651764],[-124.03330791207463,41.79355035980524]],[[-123.97638086700056,41.72544593594109],[-123.97634611525102,41.7263290346623]],[[-123.9763195805973,41.728544846491836],[-123.97565244231903,41.7289860429312]],[[-124.0218511422078,41.78248215717269],[-124.02195545884796,41.78445595313722]],[[-123.99214691520181,41.74832136026954],[-123.99197652258114,41.74875553807359]],[[-124.0374756465894,41.79510535932978],[-124.03850837955764,41.79517402655564]],[[-123.99831490747773,41.7674031354956],[-123.99794894443876,41.76812009738542]],[[-124.04978358563235,41.79681653270743],[-124.05133582281456,41.79771463659381]],[[-123.94265315364697,41.71474816332636],[-123.94285242004149,41.714964162946046]],[[-124.0137998346486,41.77564911607005],[-124.013764574078,41.77575316041687]],[[-124.00319876964497,41.76044036066192],[-124.00353158023492,41.76230075901185]],[[-123.99989644297156,41.76599342542721],[-123.99831490747773,41.7674031354956]],[[-123.94260150154663,41.71467980147155],[-123.94265315364697,41.71474816332636]],[[-123.98874495533117,41.744962716262265],[-123.98925653900143,41.74506860220792]],[[-124.0366661799289,41.795143626401504],[-124.0374756465894,41.79510535932978]],[[-124.0137721075431,41.77994656115054],[-124.01435759721117,41.78040409621504]],[[-124.02672477800837,41.79374069495678],[-124.02805177915224,41.79368536012196]],[[-124.02101870888418,41.78129656023056],[-124.02108117525283,41.78137036020722]],[[-123.94428868764496,41.71998596286604],[-123.94498275493929,41.72074196315191],[-123.94743152441137,41.721405531686415]],[[-124.01435759721117,41.78040409621504],[-124.01605537490357,41.78061442726129]],[[-123.93121975000828,41.70134562997861],[-123.93141375026099,41.70184276287593]],[[-124.00067572582611,41.76575115540797],[-123.99989644297156,41.76599342542721]],[[-123.9908067898045,41.75376182266902],[-123.99186775453718,41.7545792765093]],[[-123.94285242004149,41.714964162946046],[-123.94328115432549,41.715699097281316]],[[-123.99832544080192,41.768734269230336],[-123.99915097434557,41.76897393514003]],[[-124.03330791207463,41.79355035980524],[-124.03496498408283,41.79468753392302]],[[-123.94743152441137,41.721405531686415],[-123.94842033644578,41.72245690752845]],[[-123.94336335754024,41.71769123716623],[-123.94402535454074,41.719343297690784]],[[-124.05133582281456,41.79771463659381],[-124.05504332296401,41.79683627274505]],[[-123.9905481016434,41.751793598170124],[-123.99038136649918,41.75293729520631]],[[-124.01447790581605,41.77257662703143],[-124.0137998346486,41.77564911607005]],[[-124.04364818079557,41.795393093729636],[-124.0466031783102,41.79511100603022]],[[-124.05690718338592,41.79634479465483],[-124.05781051660503,41.79520795791404]],[[-124.05504332296401,41.79683627274505],[-124.05527686142197,41.796742601569754]],[[-124.05527686142197,41.796742601569754],[-124.05647986214684,41.7965134831536]],[[-124.05647986214684,41.7965134831536],[-124.05690718338592,41.79634479465483]],[[-123.99187103325936,41.745801401174354],[-123.99253789891776,41.74605822691124]],[[-123.99066909491953,41.74532802312363],[-123.99121421395529,41.74553628141935]],[[-123.98247224476906,41.74489388657741],[-123.98388593799065,41.7448629758086]],[[-123.98071862578702,41.73929336544991],[-123.97980790373703,41.741062036530884]],[[-123.97634611525102,41.7263290346623],[-123.97649728400881,41.7266291837304]],[[-123.97662585549298,41.726791195305225],[-123.97685638784866,41.727079424894335]],[[-123.98126436602148,41.73506878044521],[-123.98136162992314,41.73513732016485]],[[-123.98761612802127,41.74485789841353],[-123.98856188588657,41.74491008299138]],[[-123.97909245555313,41.74469160729221],[-123.97954221070202,41.74461164504708]],[[-123.98146527854055,41.73878647358861],[-123.9813793980792,41.7388511559052]],[[-123.98155727421933,41.73874383805581],[-123.98146527854055,41.73878647358861]],[[-123.9795053289797,41.73466542267463],[-123.98061891663079,41.73481770796462]],[[-123.97712970175355,41.727471572362475],[-123.97707018217676,41.72809052311172]],[[-123.9836926640306,41.73637042007585],[-123.98377667049049,41.736587482200896]],[[-123.9813793980792,41.7388511559052],[-123.98114779813582,41.73889592655542]],[[-123.98088730777006,41.73911815815351],[-123.98071862578702,41.73929336544991]],[[-123.98108570323775,41.738954582877035],[-123.98088730777006,41.73911815815351]],[[-123.98114779813582,41.73889592655542],[-123.98108570323775,41.738954582877035]],[[-123.97666430321875,41.73357977638882],[-123.97729220608711,41.73401279751455]],[[-123.98061891663079,41.73481770796462],[-123.98126436602148,41.73506878044521]],[[-123.97729220608711,41.73401279751455],[-123.97768382973139,41.734285852413315]],[[-123.97649728400881,41.7266291837304],[-123.97653192442124,41.726687610515086]],[[-123.97685638784866,41.727079424894335],[-123.97712970175355,41.727471572362475]],[[-123.9765492201749,41.726700146841594],[-123.97662585549298,41.726791195305225]],[[-123.97653192442124,41.726687610515086],[-123.9765492201749,41.726700146841594]],[[-123.98520809128729,41.744483296569335],[-123.9861782163743,41.74466391211947]],[[-123.98625784322718,41.744708566144666],[-123.98731484456646,41.744902689719446]],[[-123.97980645739497,41.74120593313398],[-123.97977823395479,41.74128286310695]],[[-123.9789939388487,41.74239261575282],[-123.9785080979859,41.74337695109003]],[[-123.97932196506402,41.74187487415095],[-123.97902094382374,41.742176348088385]],[[-123.97944327674351,41.74172666770895],[-123.97932196506402,41.74187487415095]],[[-123.97957235080554,41.74153607491744],[-123.97944327674351,41.74172666770895]],[[-123.97969067303129,41.74137325735729],[-123.97957235080554,41.74153607491744]],[[-123.97974701377716,41.74131159235402],[-123.97969067303129,41.74137325735729]],[[-123.97977823395479,41.74128286310695],[-123.97974701377716,41.74131159235402]],[[-123.9802278392668,41.74439979694285],[-123.98080512952816,41.74459123756311]],[[-123.97888446324174,41.74463642344732],[-123.97909245555313,41.74469160729221]],[[-123.97978206520045,41.744501020195784],[-123.9802278392668,41.74439979694285]],[[-123.97847990784281,41.743530572052656],[-123.97852643947607,41.744027001368494]],[[-123.98136162992314,41.73513732016485],[-123.9833810657637,41.73587932258953]],[[-123.98222517624943,41.738068244476175],[-123.9819292681925,41.738458789069696]],[[-123.9819292681925,41.738458789069696],[-123.98155727421933,41.73874383805581]],[[-123.9837231662399,41.73662075739102],[-123.98260779407323,41.737708468869315]],[[-123.98938978872577,41.745105483840774],[-123.99066909491953,41.74532802312363]],[[-123.98925653900143,41.74506860220792],[-123.98938978872577,41.745105483840774]],[[-123.98861170560679,41.744921075464646],[-123.98874495533117,41.744962716262265]],[[-123.98856188588657,41.74491008299138],[-123.98861170560679,41.744921075464646]],[[-123.9785080979859,41.74337695109003],[-123.97847990784281,41.743530572052656]],[[-123.98731484456646,41.744902689719446],[-123.98736433859959,41.74488650960716]],[[-123.97768382973139,41.734285852413315],[-123.97796039218298,41.73436212910919]],[[-123.97796039218298,41.73436212910919],[-123.97904793006914,41.73467554724042]],[[-123.97614758659502,41.73301253077458],[-123.97666430321875,41.73357977638882]],[[-123.98359734696774,41.73629547041201],[-123.9836926640306,41.73637042007585]],[[-123.98097220804853,41.74469495729478],[-123.98247224476906,41.74489388657741]],[[-123.9861782163743,41.74466391211947],[-123.98625784322718,41.744708566144666]],[[-123.97891044329091,41.744533463681485],[-123.97888446324174,41.74463642344732]],[[-123.97882732856854,41.744330282675655],[-123.97891044329091,41.744533463681485]],[[-123.98377667049049,41.736587482200896],[-123.9837231662399,41.73662075739102]],[[-123.97870960673086,41.74419592687549],[-123.97882732856854,41.744330282675655]],[[-123.97852643947607,41.744027001368494],[-123.97870960673086,41.74419592687549]],[[-123.98260779407323,41.737708468869315],[-123.98222517624943,41.738068244476175]],[[-123.97904793006914,41.73467554724042],[-123.9795053289797,41.73466542267463]],[[-123.97707018217676,41.72809052311172],[-123.97689310412609,41.7283068677203]],[[-123.97565244231903,41.7289860429312],[-123.97554125191229,41.729551227430576]],[[-123.97689310412609,41.7283068677203],[-123.97638311039152,41.72854980170414]],[[-123.97574043922626,41.73250860375034],[-123.97614758659502,41.73301253077458]],[[-123.97504841658095,41.731503135740255],[-123.97529969093836,41.73163472262517]],[[-123.97536287839696,41.73183506757957],[-123.97574043922626,41.73250860375034]],[[-123.98478675832055,41.744666936827656],[-123.98520809128729,41.744483296569335]],[[-123.98388593799065,41.7448629758086],[-123.98478675832055,41.744666936827656]],[[-123.98736433859959,41.74488650960716],[-123.98761612802127,41.74485789841353]],[[-123.97954221070202,41.74461164504708],[-123.97978206520045,41.744501020195784]],[[-123.98080512952816,41.74459123756311],[-123.98097220804853,41.74469495729478]],[[-123.97902094382374,41.742176348088385],[-123.9789939388487,41.74239261575282]],[[-123.97529969093836,41.73163472262517],[-123.97536287839696,41.73183506757957]],[[-123.97638311039152,41.72854980170414],[-123.9763195805973,41.728544846491836]],[[-123.97136923039807,41.72588220135077],[-123.97385817384158,41.72504688922376]],[[-123.9642228917772,41.72735016168964],[-123.96501009621596,41.72720720242885]]]}},{"type":"Feature","properties":{"name":"North Fork Smith River"},"geometry":{"type":"MultiLineString","coordinates":[[[-123.96196285745651,41.87624672081218],[-123.96240257561587,41.87585445774496]],[[-124.00478353495589,41.906304518205644],[-124.0047468020299,41.906270451351]],[[-124.0049655721909,41.92354868587211],[-124.00501603600159,41.923485351214076]],[[-123.95986400703197,41.9818151270667],[-123.96214400711618,41.9794051270933]],[[-124.0024664637722,41.904656983841484],[-124.00221685218786,41.90454614960601]],[[-124.0021341505574,41.92689643464547],[-124.00246693721509,41.926623319895526]],[[-123.99443440400815,41.93269018725794],[-123.99477400408146,41.932292188016866]],[[-123.9641459765555,41.86116309693184],[-123.96526238821546,41.860078052341045]],[[-123.98320153829634,41.94929498961324],[-123.98345920465323,41.94921112306109]],[[-124.00207567047393,41.926944426048216],[-124.0021341505574,41.92689643464547]],[[-123.99121661030475,41.94583216831443],[-123.99114864679578,41.944304659954064]],[[-123.96408480565151,41.965245459009445],[-123.96464420497381,41.964816525632834]],[[-123.99300039852525,41.89919171956759],[-123.99013629372351,41.89805639294922]],[[-124.00467433404987,41.9061897845971],[-124.00427401778582,41.90583038008075]],[[-124.00576206859694,41.90806325189838],[-124.0057033075693,41.90788089824901]],[[-123.9628063246011,41.88443938725203],[-123.96254499140295,41.884341121054696]],[[-123.98910679785608,41.89705678582638],[-123.98752359646754,41.89587081106529]],[[-124.00630322319871,41.92062504926617],[-124.00612635741693,41.92031062005487]],[[-123.99041541484785,41.94157407517984],[-123.99026653838611,41.94118838892505]],[[-123.96823401033943,41.99634512789983],[-123.96641976049048,41.995365069882595]],[[-124.00739542267651,41.912403998850834],[-124.00714254381589,41.91221513771598]],[[-123.97062582515069,41.85315380608379],[-123.96941499648966,41.85128067834253]],[[-123.96549733347521,41.86996446960226],[-123.96535603418097,41.86857367880067]],[[-123.9915088723311,41.93909192155122],[-123.99207907135421,41.93832445487765]],[[-123.9620710584095,41.88416285423345],[-123.9618398944498,41.884010529245046]],[[-123.99383824158436,41.935165632853355],[-123.99400120479336,41.93365298738436]],[[-123.96149244667018,41.9838838288836],[-123.9603265451392,41.98298661999414]],[[-123.99207907135421,41.93832445487765],[-123.99219382871102,41.938168665315665]],[[-123.96720358319419,41.96214792925309],[-123.96738480569122,41.961964391623354]],[[-123.99219382871102,41.938168665315665],[-123.99283633859356,41.93725658817864]],[[-123.9764537387077,41.95114399033394],[-123.97720887077158,41.950779456763904]],[[-123.9684033936423,41.88755912042815],[-123.96828069285014,41.887440264621674]],[[-123.96452851009605,41.873317853447425],[-123.9645695237783,41.87326411993126]],[[-123.95832401068998,42.002685128675104],[-123.95847401092827,42.0024351290284]],[[-123.95844740031556,41.97262115288012],[-123.95836880567227,41.972450593199746]],[[-123.99638547053152,41.9310990540013],[-123.99672287091629,41.93091558720341]],[[-123.995644442904,41.90096103018462],[-123.99532099919976,41.900588652448384]],[[-124.00560122495537,41.9148201187385],[-124.00571138107148,41.91463687303545]],[[-123.98695654818088,41.895630974631786],[-123.98621573074121,41.89562425244787]],[[-124.00039380462519,41.92824805404039],[-124.00087141798682,41.92791289601882]],[[-123.96798279321139,41.8871223208634],[-123.96672232692353,41.885830731423965]],[[-124.00486780363029,41.91725338556065],[-124.00492380308107,41.916714986237785]],[[-123.96006332129103,41.98274533043729],[-123.95985744230389,41.98255660950712]],[[-123.95724010426696,41.97526618553843],[-123.95715511658366,41.97498514385505]],[[-123.95779565777617,41.96837446351176],[-123.95798753117766,41.96807713305819]],[[-123.95716001021435,41.974677313582404],[-123.95720713911402,41.97436046034615]],[[-123.96464420497381,41.964816525632834],[-123.96581560572619,41.963984259078416]],[[-123.96226380585945,41.96506879217421],[-123.96355952751522,41.96544368182927]],[[-123.99740787620131,41.93055210378434],[-123.99756076392103,41.93047468879652]],[[-124.00246693721509,41.926623319895526],[-124.00270963861414,41.92639008412939]],[[-123.9653997990347,41.87089739153925],[-123.9654267904828,41.87076825288779]],[[-123.95772697005563,41.96560196564071],[-123.95748872110094,41.965353789379115]],[[-123.96146830004164,41.876705335378944],[-123.96196285745651,41.87624672081218]],[[-123.98340913000219,41.89603531978165],[-123.9819727271293,41.896051447031645]],[[-123.99124660577405,41.94289518825847],[-123.99093773890854,41.942475055359786]],[[-123.96316258882403,41.86344731920975],[-123.96389098853277,41.86143911881364]],[[-123.98717754300326,41.94859605316369],[-123.98791531271934,41.948388605741016]],[[-123.99443073196419,41.89975065190344],[-123.99398893273711,41.899538519504034]],[[-123.98087453001439,41.89577151993049],[-123.98084859678922,41.89575978653444]],[[-123.96515401037173,41.992935126854654],[-123.96526179719226,41.99271524205502]],[[-123.96744415149887,41.95865816562009],[-123.96752400414759,41.958354724987245]],[[-123.96961382794102,41.888961175432094],[-123.9692311539284,41.8884631586435]],[[-123.96057677063851,41.88108606555779],[-123.96055686522594,41.880950103683254]],[[-123.99993147774632,41.90406225374442],[-123.9992717428664,41.903889054870554]],[[-123.98290254817813,41.94931483739278],[-123.98320153829634,41.94929498961324]],[[-123.96510372345182,41.86766078597783],[-123.96477272235023,41.86708378625253]],[[-123.99974136804968,41.92876511851151],[-124.00039380462519,41.92824805404039]],[[-123.99672287091629,41.93091558720341],[-123.99688233793155,41.9308288539532]],[[-123.99122046340162,41.944046679202074],[-123.99123073867337,41.94387372195404]],[[-123.96660149493015,41.96323931389495],[-123.96714993847156,41.96220225880316]],[[-123.98791531271934,41.948388605741016],[-123.98884109545628,41.94802378787102]],[[-123.96429401330643,42.012995128417394],[-123.9622240127234,42.01077512919512],[-123.96138461198511,42.00880212873924]],[[-124.00563126828925,41.91943045592112],[-124.00555658605319,41.919312203724125]],[[-123.95819807695912,41.96599660963832],[-123.95791115391198,41.96578298915402]],[[-123.96559966997938,41.98869303729088],[-123.96571772686899,41.988518137757495]],[[-123.96047546946549,41.87929544462987],[-123.96066119123087,41.878546920122396]],[[-123.96757316937203,41.986488954195124],[-123.9668774288993,41.9860446757965]],[[-123.98556366355524,41.895662052814856],[-123.98463953006441,41.89577438570118]],[[-123.97345090785196,41.89118623286414],[-123.97295170757504,41.890857869345346]],[[-123.9760959011976,41.89273125359546],[-123.97564364876744,41.89260821233556]],[[-123.99125775093215,41.94337988329652],[-123.99124660577405,41.94289518825847]],[[-123.96132719012458,41.883103033346636],[-123.96117952484424,41.882710121339656]],[[-123.96672232692353,41.885830731423965],[-123.96615932631356,41.88536532041914]],[[-123.96504752109695,41.87229610000633],[-123.96526299588726,41.87154596401215]],[[-123.96615932631356,41.88536532041914],[-123.9655057930154,41.88503892096141]],[[-124.0057033075693,41.90788089824901],[-124.0055611019701,41.90749282293362]],[[-123.95740622757725,41.969172661108544],[-123.9574329276759,41.969082541827106]],[[-123.9645695237783,41.87326411993126],[-123.96490899794703,41.872631516748]],[[-123.9908888046826,41.93975498827923],[-123.99129767205386,41.939340788329304]],[[-123.97897632885383,41.893438186108106],[-123.97869791008985,41.89230541167402]],[[-123.96071565797527,41.878265987392396],[-123.96098139055057,41.87747845357352]],[[-124.00088661914587,41.90431728378958],[-124.0000651925893,41.9041087529534]],[[-123.96138461198511,42.00880212873924],[-123.96137401206678,42.00877512842692]],[[-123.96557919955696,41.859523325082016],[-123.96782887536314,41.857288428519055]],[[-123.96584768954693,41.98835899517628],[-123.96643400956104,41.98785512663564]],[[-123.96526445575626,41.86804478653884],[-123.96510372345182,41.86766078597783]],[[-124.00087141798682,41.92791289601882],[-124.00207567047393,41.926944426048216]],[[-124.00565816712982,41.90874667193083],[-124.00579412432326,41.908327879894294]],[[-123.99045223205708,41.94166790046426],[-123.99041541484785,41.94157407517984]],[[-123.9992717428664,41.903889054870554],[-123.99798753367715,41.903714385646786]],[[-123.99704502852069,41.930740368777734],[-123.99730277499864,41.930605322324766]],[[-123.95766296473741,41.96857017461473],[-123.95778287169621,41.968393325907115]],[[-123.96888099555811,41.99715235044637],[-123.96833847785696,41.99635939395357]],[[-124.00497491930648,41.91816135711729],[-124.00486780363029,41.91725338556065]],[[-123.95822400602214,41.975925126553],[-123.95739775659119,41.97543352892821]],[[-123.95715511658366,41.97498514385505],[-123.95715575339037,41.974945127001654]],[[-123.96382117391407,41.87432829407982],[-123.96391052455581,41.87419565331676]],[[-123.98463953006441,41.89577438570118],[-123.98365233606016,41.895985464076524]],[[-123.99013629372351,41.89805639294922],[-123.98910679785608,41.89705678582638]],[[-123.95786734223421,41.97150326946215],[-123.95712967240941,41.97010612665207]],[[-123.95778287169621,41.968393325907115],[-123.95779565777617,41.96837446351176]],[[-123.95739775659119,41.97543352892821],[-123.95731335576896,41.975358969518034]],[[-124.00507257861103,41.916310516526075],[-124.00542513020918,41.91527636347938]],[[-123.96581560572619,41.963984259078416],[-123.96642513692889,41.96339974481755]],[[-123.97114880370717,41.88999336434734],[-123.97082079414042,41.88981872063218]],[[-124.00579412432326,41.908327879894294],[-124.00581173535866,41.90821738501564]],[[-123.9618398944498,41.884010529245046],[-123.96170425045707,41.88390705656214]],[[-124.00407190657175,41.92502286672104],[-124.00456411550174,41.92420463528036]],[[-123.96355952751522,41.96544368182927],[-123.96372965792138,41.96541825846508]],[[-124.00456411550174,41.92420463528036],[-124.00472391028518,41.923918447628765]],[[-123.96391052455581,41.87419565331676],[-123.96452851009605,41.873317853447425]],[[-124.00452132458767,41.91006086073685],[-124.00485511536053,41.90975521960491]],[[-123.95852479938551,41.96679524397946],[-123.95857374089518,41.96657131310697]],[[-123.962907775611,41.98517478691053],[-123.9621510692194,41.98458872217789]],[[-123.99135408251547,41.93928366216162],[-123.9915088723311,41.93909192155122]],[[-123.97564364876744,41.89260821233556],[-123.97482152817481,41.89218351983947]],[[-123.96526299588726,41.87154596401215],[-123.9653997990347,41.87089739153925]],[[-123.9982966044873,41.92990098665966],[-123.9987363944435,41.92955848780131]],[[-124.00390416523133,41.9055689563241],[-124.00327480145343,41.905104385336074]],[[-123.99124763798363,41.94358934149306],[-123.99125775093215,41.94337988329652]],[[-124.00492380308107,41.916714986237785],[-124.00507257861103,41.916310516526075]],[[-123.95715575339037,41.974945127001654],[-123.95715825691481,41.97478759124326]],[[-123.96526179719226,41.99271524205502],[-123.96578680895188,41.99137999434929]],[[-123.98431681993655,41.948951084275194],[-123.98521713872914,41.948818255654444]],[[-123.95810044991113,41.97206711674295],[-123.95786734223421,41.97150326946215]],[[-123.96146639170256,41.883582072742605],[-123.96132719012458,41.883103033346636]],[[-123.96632830797037,41.98588691380783],[-123.965541330368,41.98577204334346]],[[-123.96552043540773,41.988874828133994],[-123.96559966997938,41.98869303729088]],[[-123.9804660049788,41.94958885637977],[-123.98080511287961,41.94951404926058]],[[-123.96490899794703,41.872631516748],[-123.96504752109695,41.87229610000633]],[[-124.00602387419745,41.91411703198763],[-124.00622624138283,41.913796230627305]],[[-123.9654267904828,41.87076825288779],[-123.96549733347521,41.86996446960226]],[[-123.96389098853277,41.86143911881364],[-123.9641459765555,41.86116309693184]],[[-124.0000651925893,41.9041087529534],[-123.99993147774632,41.90406225374442]],[[-123.9723245278777,41.89059992031743],[-123.97114880370717,41.88999336434734]],[[-123.95712967240941,41.97010612665207],[-123.95732300880151,41.96945355514425]],[[-123.9613834528304,41.977161280962804],[-123.96076065482112,41.97673239919679]],[[-123.96076065482112,41.97673239919679],[-123.95822400602214,41.975925126553]],[[-123.98521713872914,41.948818255654444],[-123.98644182626052,41.94871958318359]],[[-123.99628360018647,41.90175218558333],[-123.99599559914626,41.90137038567675]],[[-123.97290088061803,41.89083765945632],[-123.9723245278777,41.89059992031743]],[[-123.98884109545628,41.94802378787102],[-123.9906828060341,41.946986122201146]],[[-123.99469536573571,41.89995957259654],[-123.99445525110386,41.899770008588746]],[[-124.00636732008391,41.92074049631865],[-124.00630322319871,41.92062504926617]],[[-123.9583415384827,41.9724005929598],[-123.95810044991113,41.97206711674295]],[[-124.00555658605319,41.919312203724125],[-124.00510700363292,41.91857345236101]],[[-124.00571138107148,41.91463687303545],[-124.00602387419745,41.91411703198763]],[[-123.95798753117766,41.96807713305819],[-123.95852479938551,41.96679524397946]],[[-123.99364302598813,41.936113941131254],[-123.99383824158436,41.935165632853355]],[[-123.95748872110094,41.965353789379115],[-123.9567937370963,41.96361332609646]],[[-123.96643400956104,41.98785512663564],[-123.96699427044538,41.98744810722911]],[[-123.97371593702634,41.95189439018275],[-123.97453800455176,41.95165559072431]],[[-123.96100094426268,41.87743354724042],[-123.96146830004164,41.876705335378944]],[[-123.96212635549992,41.97851391723702],[-123.96181589245548,41.97776082565603]],[[-123.98345920465323,41.94921112306109],[-123.9841849385142,41.94897485654336]],[[-123.99571572883757,41.93156186979038],[-123.99583693126101,41.93147397936604]],[[-123.99114864679578,41.944304659954064],[-123.99122046340162,41.944046679202074]],[[-123.96641976049048,41.995365069882595],[-123.96483400979402,41.99357512753855],[-123.96515401037173,41.992935126854654]],[[-123.96736819460885,41.95902368865398],[-123.9673950872062,41.95889168883559]],[[-123.96571772686899,41.988518137757495],[-123.96584768954693,41.98835899517628]],[[-123.9841849385142,41.94897485654336],[-123.98431681993655,41.948951084275194]],[[-123.96307474071315,41.87525321159308],[-123.96327732432961,41.87503458727074]],[[-124.00513486392678,41.90674304128052],[-124.00498963037406,41.90655278960782]],[[-124.00510700363292,41.91857345236101],[-124.00497491930648,41.91816135711729]],[[-123.99583693126101,41.93147397936604],[-123.99638547053152,41.9310990540013]],[[-124.00689514960918,41.921923617591155],[-124.00682101157233,41.92161809520214]],[[-123.96586400927984,41.99019512701434],[-123.96550990416465,41.989080170813416]],[[-123.95985744230389,41.98255660950712],[-123.95986400703197,41.9818151270667]],[[-124.00501603600159,41.923485351214076],[-124.00686453814383,41.922217519147004]],[[-123.95845720630658,41.97321439375916],[-123.95844740031556,41.97262115288012]],[[-123.9692311539284,41.8884631586435],[-123.96888891818283,41.88803107421467]],[[-124.00581173535866,41.90821738501564],[-124.00577053542087,41.908089585580214]],[[-123.96348932373685,41.874839386323366],[-123.96382117391407,41.87432829407982]],[[-124.0037794041821,41.92531865305055],[-124.00407190657175,41.92502286672104]],[[-123.9700010043436,41.95618319096611],[-123.97226884266817,41.955296084705715]],[[-123.96170425045707,41.88390705656214],[-123.96146639170256,41.883582072742605]],[[-124.00427401778582,41.90583038008075],[-124.00390416523133,41.9055689563241]],[[-124.00581018912538,41.919748540019555],[-124.00563126828925,41.91943045592112]],[[-123.96764680483105,41.960850391854954],[-123.96732087841306,41.95926049282946]],[[-123.98164117350424,41.94937813015357],[-123.98290254817813,41.94931483739278]],[[-123.95720713911402,41.97436046034615],[-123.95845720630658,41.97321439375916]],[[-123.96714993847156,41.96220225880316],[-123.96720358319419,41.96214792925309]],[[-123.96117952484424,41.882710121339656],[-123.96074499166505,41.881854592555044]],[[-124.00714254381589,41.91221513771598],[-124.0057633245213,41.91160583989486]],[[-123.9603265451392,41.98298661999414],[-123.96006332129103,41.98274533043729]],[[-123.99123073867337,41.94387372195404],[-123.99124763798363,41.94358934149306]],[[-123.99017673303109,41.940667703052995],[-123.99041481862196,41.940214271446386]],[[-123.96542492584612,41.88501618692859],[-123.96425136494548,41.884709544341185]],[[-123.96642513692889,41.96339974481755],[-123.96660149493015,41.96323931389495]],[[-123.97082079414042,41.88981872063218],[-123.96961382794102,41.888961175432094]],[[-124.00682101157233,41.92161809520214],[-124.00636732008391,41.92074049631865]],[[-123.9567937370963,41.96361332609646],[-123.95677840378946,41.96343372623744]],[[-123.9723850047456,41.95280152435861],[-123.97371593702634,41.95189439018275]],[[-123.99719630653453,41.90344725412553],[-123.99628360018647,41.90175218558333]],[[-123.96941499648966,41.85128067834253],[-123.96837858731531,41.849260384938674],[-123.96934452009143,41.8478767848469]],[[-124.00434233507633,41.910297385257266],[-124.00452132458767,41.91006086073685]],[[-123.9622040074196,41.9790251269476],[-123.96212635549992,41.97851391723702]],[[-124.00135946790303,41.904359985015674],[-124.00088661914587,41.90431728378958]],[[-123.9819727271293,41.896051447031645],[-123.98087453001439,41.89577151993049]],[[-123.98365233606016,41.895985464076524],[-123.98340913000219,41.89603531978165]],[[-123.95836880567227,41.972450593199746],[-123.9583415384827,41.9724005929598]],[[-123.97337400407612,41.954591457618555],[-123.97230620511714,41.95366092430751],[-123.9723850047456,41.95280152435861]],[[-123.99532099919976,41.900588652448384],[-123.99469536573571,41.89995957259654]],[[-123.96885417996023,41.95700223708081],[-123.9700010043436,41.95618319096611]],[[-123.96477272235023,41.86708378625253],[-123.96455056837314,41.866440250998764]],[[-124.0054205237658,41.90718464575552],[-124.00513486392678,41.90674304128052]],[[-123.96719008330804,41.99813736788761],[-123.96826401205196,41.99816512744528],[-123.96897401096005,41.99731512720552]],[[-123.95857374089518,41.96657131310697],[-123.95855400508962,41.966395126532426]],[[-123.96240257561587,41.87585445774496],[-123.96307474071315,41.87525321159308]],[[-124.00542513020918,41.91527636347938],[-124.00560122495537,41.9148201187385]],[[-124.00327480145343,41.905104385336074],[-124.00295460109321,41.904917185422796]],[[-123.96181589245548,41.97776082565603],[-123.9613834528304,41.977161280962804]],[[-123.99599559914626,41.90137038567675],[-123.995644442904,41.90096103018462]],[[-123.95847401092827,42.0024351290284],[-123.96223401121316,42.001285128517985],[-123.96301859454714,41.999592609529664]],[[-123.99070381025041,41.94217828824405],[-123.9904933466711,41.941754318672814]],[[-123.98752359646754,41.89587081106529],[-123.98695654818088,41.895630974631786]],[[-123.96066119123087,41.878546920122396],[-123.96071565797527,41.878265987392396]],[[-123.99756076392103,41.93047468879652],[-123.9982966044873,41.92990098665966]],[[-123.99338772060256,41.936532747442],[-123.99364302598813,41.936113941131254]],[[-123.99041481862196,41.940214271446386],[-123.9908888046826,41.93975498827923]],[[-123.98080511287961,41.94951404926058],[-123.98164117350424,41.94937813015357]],[[-123.965541330368,41.98577204334346],[-123.962907775611,41.98517478691053]],[[-123.95791115391198,41.96578298915402],[-123.95772697005563,41.96560196564071]],[[-123.96805565971586,41.957693680913515],[-123.96814493856078,41.957611458092316]],[[-123.96254499140295,41.884341121054696],[-123.9620710584095,41.88416285423345]],[[-124.00686453814383,41.922217519147004],[-124.00687724306215,41.922161915228465]],[[-123.96322384193024,41.99866540753358],[-123.96364437576699,41.997629739655004]],[[-123.96833847785696,41.99635939395357],[-123.96823401033943,41.99634512789983]],[[-124.00485511536053,41.90975521960491],[-124.00526915938767,41.90935689685886]],[[-124.00577053542087,41.908089585580214],[-124.00576206859694,41.90806325189838]],[[-123.98621573074121,41.89562425244787],[-123.98556366355524,41.895662052814856]],[[-123.99283633859356,41.93725658817864],[-123.99338772060256,41.936532747442]],[[-123.99398893273711,41.899538519504034],[-123.99300039852525,41.89919171956759]],[[-124.00270963861414,41.92639008412939],[-124.0033406714083,41.925782986342995]],[[-123.97854739582782,41.89220258602859],[-123.9760959011976,41.89273125359546]],[[-124.00725400268034,41.91331471854578],[-124.00746606972228,41.91311365214148]],[[-123.96828069285014,41.887440264621674],[-123.96798279321139,41.8871223208634]],[[-123.96738480569122,41.961964391623354],[-123.96764680483105,41.960850391854954]],[[-123.97333553866129,41.95473239077829],[-123.97337400407612,41.954591457618555]],[[-123.9668774288993,41.9860446757965],[-123.96632830797037,41.98588691380783]],[[-123.98644182626052,41.94871958318359],[-123.98717754300326,41.94859605316369]],[[-123.99892930629778,41.92940825129777],[-123.99974136804968,41.92876511851151]],[[-124.00612635741693,41.92031062005487],[-124.00602182746736,41.920124787905195]],[[-123.96850854062845,41.85663011526584],[-123.97045572179843,41.854860584405245]],[[-123.9673950872062,41.95889168883559],[-123.96744415149887,41.95865816562009]],[[-124.0033406714083,41.925782986342995],[-124.0037794041821,41.92531865305055]],[[-123.96526238821546,41.860078052341045],[-123.96557919955696,41.859523325082016]],[[-123.96888891818283,41.88803107421467],[-123.9684033936423,41.88755912042815]],[[-124.00526915938767,41.90935689685886],[-124.00565816712982,41.90874667193083]],[[-123.96699427044538,41.98744810722911],[-123.96758029806944,41.986692265038165]],[[-123.95715825691481,41.97478759124326],[-123.95716001021435,41.974677313582404]],[[-123.9904933466711,41.941754318672814],[-123.99045223205708,41.94166790046426]],[[-123.96897401096005,41.99731512720552],[-123.96888099555811,41.99715235044637]],[[-123.96372965792138,41.96541825846508],[-123.96408480565151,41.965245459009445]],[[-123.99688233793155,41.9308288539532],[-123.99704502852069,41.930740368777734]],[[-123.96214400711618,41.9794051270933],[-123.9622040074196,41.9790251269476]],[[-123.99083894021942,41.94674332179297],[-123.99122313965466,41.945874988809855]],[[-123.9621510692194,41.98458872217789],[-123.96149244667018,41.9838838288836]],[[-124.0047468020299,41.906270451351],[-124.00467433404987,41.9061897845971]],[[-123.9655057930154,41.88503892096141],[-123.96542492584612,41.88501618692859]],[[-124.00221685218786,41.90454614960601],[-124.00174099940945,41.904401838214575]],[[-123.97453800455176,41.95165559072431],[-123.9764537387077,41.95114399033394]],[[-123.96455056837314,41.866440250998764],[-123.96316258882403,41.86344731920975]],[[-123.97482152817481,41.89218351983947],[-123.97434736314233,41.89180618395203]],[[-123.96050434427984,41.880104630475586],[-123.96047546946549,41.87929544462987]],[[-124.00602182746736,41.920124787905195],[-124.00581018912538,41.919748540019555]],[[-123.96732087841306,41.95926049282946],[-123.96736819460885,41.95902368865398]],[[-123.96364437576699,41.997629739655004],[-123.96480401016257,41.996875127279814],[-123.96719008330804,41.99813736788761]],[[-123.95677840378946,41.96343372623744],[-123.95966480411002,41.96383119222105],[-123.96226380585945,41.96506879217421]],[[-124.0055611019701,41.90749282293362],[-124.0054205237658,41.90718464575552]],[[-123.95968401132434,42.00488512821125],[-123.95832401068998,42.002685128675104]],[[-123.96752400414759,41.958354724987245],[-123.96805565971586,41.957693680913515]],[[-123.97720887077158,41.950779456763904],[-123.9804320721294,41.949596390097604]],[[-123.98084859678922,41.89575978653444],[-123.97943959637529,41.89471058651315]],[[-124.00472391028518,41.923918447628765],[-124.0049655721909,41.92354868587211]],[[-123.99798753367715,41.903714385646786],[-123.99719630653453,41.90344725412553]],[[-124.00174099940945,41.904401838214575],[-124.00135946790303,41.904359985015674]],[[-124.00687724306215,41.922161915228465],[-124.00689514960918,41.921923617591155]],[[-123.96550990416465,41.989080170813416],[-123.96552043540773,41.988874828133994]],[[-123.96758029806944,41.986692265038165],[-123.96757316937203,41.986488954195124]],[[-123.96535603418097,41.86857367880067],[-123.96526445575626,41.86804478653884]],[[-123.95731335576896,41.975358969518034],[-123.95724010426696,41.97526618553843]],[[-123.96814493856078,41.957611458092316],[-123.96850767178266,41.957295457797635]],[[-123.99445525110386,41.899770008588746],[-123.99443073196419,41.89975065190344]],[[-124.00498963037406,41.90655278960782],[-124.00478353495589,41.906304518205644]],[[-123.9987363944435,41.92955848780131],[-123.99892930629778,41.92940825129777]],[[-123.99400120479336,41.93365298738436],[-123.99443440400815,41.93269018725794]],[[-123.96052552434638,41.880736854453815],[-123.96050434427984,41.880104630475586]],[[-123.97943959637529,41.89471058651315],[-123.97897632885383,41.893438186108106]],[[-123.96055686522594,41.880950103683254],[-123.96052552434638,41.880736854453815]],[[-124.00295460109321,41.904917185422796],[-124.0024664637722,41.904656983841484]],[[-123.99129767205386,41.939340788329304],[-123.99135408251547,41.93928366216162]],[[-123.99477400408146,41.932292188016866],[-123.99571572883757,41.93156186979038]],[[-123.95732300880151,41.96945355514425],[-123.95740622757725,41.969172661108544]],[[-123.99026653838611,41.94118838892505],[-123.99017673303109,41.940667703052995]],[[-123.96074499166505,41.881854592555044],[-123.96057677063851,41.88108606555779]],[[-123.97045572179843,41.854860584405245],[-123.97078181886395,41.85425553067778]],[[-123.97078181886395,41.85425553067778],[-123.97062582515069,41.85315380608379]],[[-123.96137401206678,42.00877512842692],[-123.95968401132434,42.00488512821125]],[[-123.9906828060341,41.946986122201146],[-123.99083894021942,41.94674332179297]],[[-123.97434736314233,41.89180618395203],[-123.97345090785196,41.89118623286414]],[[-123.99093773890854,41.942475055359786],[-123.99070381025041,41.94217828824405]],[[-123.97295170757504,41.890857869345346],[-123.97290088061803,41.89083765945632]],[[-123.95855400508962,41.966395126532426],[-123.95844049325189,41.96618431738344]],[[-123.96098139055057,41.87747845357352],[-123.96100094426268,41.87743354724042]],[[-123.96578680895188,41.99137999434929],[-123.96591795887893,41.99058176262462]],[[-123.9804320721294,41.949596390097604],[-123.9804660049788,41.94958885637977]],[[-123.99730277499864,41.930605322324766],[-123.99740787620131,41.93055210378434]],[[-123.96782887536314,41.857288428519055],[-123.96850854062845,41.85663011526584]],[[-123.99122313965466,41.945874988809855],[-123.99121661030475,41.94583216831443]],[[-124.00757945149331,41.912664960994725],[-124.00739542267651,41.912403998850834]],[[-123.96425136494548,41.884709544341185],[-123.9628063246011,41.88443938725203]],[[-123.96301859454714,41.999592609529664],[-123.96322384193024,41.99866540753358]],[[-123.96591795887893,41.99058176262462],[-123.96586400927984,41.99019512701434]],[[-123.97869791008985,41.89230541167402],[-123.97854739582782,41.89220258602859]],[[-123.95749720353288,41.96886559031525],[-123.95766296473741,41.96857017461473]],[[-123.97226884266817,41.955296084705715],[-123.97333553866129,41.95473239077829]],[[-123.96850767178266,41.957295457797635],[-123.96885417996023,41.95700223708081]],[[-124.00746606972228,41.91311365214148],[-124.00757945149331,41.912664960994725]],[[-123.9574329276759,41.969082541827106],[-123.95749720353288,41.96886559031525]],[[-124.00622624138283,41.913796230627305],[-124.00725400268034,41.91331471854578]],[[-123.96327732432961,41.87503458727074],[-123.96348932373685,41.874839386323366]],[[-124.0057633245213,41.91160583989486],[-124.00434233507633,41.910297385257266]],[[-123.95844049325189,41.96618431738344],[-123.95819807695912,41.96599660963832]]]}},{"type":"Feature","properties":{"name":"Smith River"},"geometry":{"type":"MultiLineString","coordinates":[[[-124.12053790212963,41.867560962826865],[-124.1237436849508,41.870501068028155],[-124.12413761233698,41.87162130498404],[-124.12405301485389,41.87260689085514],[-124.12447534673315,41.87344590532257]],[[-124.04390228748613,41.80994453579383],[-124.04444679156636,41.80895910890456],[-124.04607252477606,41.80824717572005]],[[-124.0902588873462,41.815018517950854],[-124.09214511196214,41.81482024579989]],[[-124.17179316887257,41.912979292370295],[-124.17639742710777,41.913875903617786],[-124.18055542742837,41.91393050273018],[-124.18341036096471,41.91346370293182],[-124.19485502005807,41.91263805310024]],[[-124.12447534673315,41.87344590532257],[-124.12488314651664,41.874755772865555],[-124.12595063643708,41.875319476289576]],[[-124.08908031731558,41.79895328065954],[-124.0885783825157,41.801764297276364]],[[-124.03340182961945,41.833821414847975],[-124.03256877509712,41.83351693006569]],[[-124.10233263343542,41.8184201485138],[-124.10256056237539,41.81961194486169]],[[-124.11501308047528,41.825393724047665],[-124.11591926267609,41.82823126523398]],[[-124.05099759208376,41.80794384128693],[-124.05157032584738,41.80729170838291],[-124.05131454493784,41.80632712338648]],[[-124.03282045838436,41.83905136816624],[-124.03437165919485,41.839055217134025]],[[-124.0433408310284,41.813995693503024],[-124.04394985861273,41.81284690865981]],[[-124.03146039219632,41.8219671772417],[-124.03398459204831,41.821738977184275],[-124.03500945858067,41.82113237650553]],[[-124.20051523597706,41.94422190286528],[-124.20252723616272,41.94683936988813],[-124.20306717021828,41.9471159696699],[-124.20491017001756,41.94696130286301]],[[-124.11608898727405,41.837838837205396],[-124.11504250781311,41.83809803954168],[-124.11352836041304,41.83936053140754]],[[-124.02914355825436,41.838573570310814],[-124.0309089415121,41.838435699334326]],[[-124.04026425545759,41.815467154256524],[-124.04110592560019,41.81519457581044]],[[-124.02360272694617,41.838770378936715],[-124.02429912711737,41.83840857954201],[-124.02621001550719,41.83852684975357]],[[-124.03437165919485,41.839055217134025],[-124.0351886842932,41.83863110832752]],[[-124.12595063643708,41.875319476289576],[-124.12709872715016,41.87595003381091],[-124.1278304118242,41.87743124854228],[-124.1332259481882,41.87849670523267]],[[-124.06429647001235,41.789001639242315],[-124.06818356318281,41.788933973978985]],[[-124.05131454493784,41.80632712338648],[-124.05174731649323,41.80373282551684]],[[-124.01415925897285,41.84189098067203],[-124.01694339458602,41.84293054512308]],[[-124.01275843715499,41.84186367474897],[-124.01415925897285,41.84189098067203]],[[-124.1332259481882,41.87849670523267],[-124.14103836478333,41.880924661349574],[-124.14459803941025,41.882885336841184],[-124.14745339436284,41.88669247460429],[-124.1493896967514,41.89088754319213]],[[-124.0813690520566,41.810014873987726],[-124.0809858182368,41.81106019815734]],[[-124.02158492162215,41.841942990962025],[-124.02161779312704,41.8408649792543],[-124.02210839339169,41.83990357903132]],[[-124.02621001550719,41.83852684975357],[-124.02914355825436,41.838573570310814]],[[-124.08433436854546,41.7923178618246],[-124.08649791936483,41.7924836804362],[-124.0879769570717,41.79299933732461]],[[-124.0319820607207,41.83871149370551],[-124.03282045838436,41.83905136816624]],[[-124.1147797813401,41.833127020681],[-124.1163617122368,41.83551112986234]],[[-124.0439558739389,41.81181801265277],[-124.04390615306937,41.81064575431106]],[[-124.03500945858067,41.82113237650553],[-124.03587612546796,41.8199145765391]],[[-124.05315297055029,41.80168452560227],[-124.05442218356568,41.80085535878363]],[[-124.05781051660503,41.79520795791404],[-124.05771346497227,41.7947177139785]],[[-124.11400449933822,41.82421278545292],[-124.11497869395312,41.82533547240618]],[[-124.00878076031017,41.84434876136293],[-124.00996259241438,41.84395298101354],[-124.01101719220149,41.842727513779685]],[[-124.03095432543654,41.82575337787206],[-124.03106979243738,41.825452510651715],[-124.03048312592553,41.824935310591194],[-124.03020895670177,41.824120077803826]],[[-124.01101719220149,41.842727513779685],[-124.01275843715499,41.84186367474897]],[[-124.10362422937447,41.82102689913012],[-124.10691724014832,41.82049245077227]],[[-124.05442218356568,41.80085535878363],[-124.05555238333972,41.80032695847545],[-124.05797818302705,41.796944557762465],[-124.05820951659376,41.79645342492944],[-124.05781051660503,41.79520795791404]],[[-124.04394985861273,41.81284690865981],[-124.0439509251599,41.81270470905097]],[[-124.03256877509712,41.83351693006569],[-124.03071232639785,41.83261657809511],[-124.02813530384495,41.83229710332249]],[[-124.03006007399685,41.82750821593063],[-124.03095432543654,41.82575337787206]],[[-123.99321845696107,41.846860715755994],[-123.99618279014544,41.84281911466348]],[[-124.01694339458602,41.84293054512308],[-124.0180969970069,41.84332300089848]],[[-124.08015949388742,41.79226825184256],[-124.08433436854546,41.7923178618246]],[[-123.97397834197439,41.84758732514116],[-123.97426621606945,41.84765201557426]],[[-124.0180969970069,41.84332300089848],[-124.02141339377904,41.842952512750706]],[[-123.97426621606945,41.84765201557426],[-123.97777558816846,41.84912451736392],[-123.97851328400661,41.84917570869671]],[[-124.03463439399209,41.8338277109248],[-124.03340182961945,41.833821414847975]],[[-124.2002894338883,41.93603467054348],[-124.20111512455257,41.9426887547525],[-124.20051523597706,41.94422190286528]],[[-124.0894525245982,41.796746613657824],[-124.08908031731558,41.79895328065954]],[[-124.05174731649323,41.80373282551684],[-124.05315297055029,41.80168452560227]],[[-124.16603455903213,41.911480970384545],[-124.17179316887257,41.912979292370295]],[[-124.0309089415121,41.838435699334326],[-124.0319820607207,41.83871149370551]],[[-124.04110592560019,41.81519457581044],[-124.0425873919131,41.81458884298334]],[[-124.02813530384495,41.83229710332249],[-124.027863525768,41.83211664533877]],[[-124.0012041245234,41.84355558122068],[-124.00342039190927,41.843873314593495],[-124.00381999124549,41.844520713976344],[-124.00466612527833,41.84478311464971],[-124.00756819811973,41.84448201363266]],[[-124.02210839339169,41.83990357903132],[-124.02360272694617,41.838770378936715]],[[-123.99618279014544,41.84281911466348],[-123.99749936618065,41.84297269669863]],[[-124.10783060723537,41.82072328479622],[-124.1122292060361,41.82283059703237]],[[-124.04607252477606,41.80824717572005],[-124.04926259137395,41.80843597498597],[-124.05099759208376,41.80794384128693]],[[-124.05771346497227,41.7947177139785],[-124.0570885827737,41.79104595737543],[-124.0559041149972,41.78903302372909],[-124.05617971495501,41.78848342408411]],[[-123.96934452009143,41.8478767848469],[-123.96999858718345,41.8474889844579],[-123.9730150178166,41.84752211453884]],[[-124.0439509251599,41.81270470905097],[-124.0439558739389,41.81181801265277]],[[-124.03714939240321,41.81753731015632],[-124.03854619151724,41.81614310942679],[-124.0401443911607,41.81545237621707]],[[-124.00756819811973,41.84448201363266],[-124.00878076031017,41.84434876136293]],[[-123.97851328400661,41.84917570869671],[-123.98009865490819,41.84859198323047]],[[-124.06949779489523,41.789082595872046],[-124.07439328919041,41.790572252072764]],[[-123.98984259055779,41.84821271570327],[-123.99247479053972,41.84728644892919]],[[-124.1197634088524,41.847191504366],[-124.12029754193178,41.84904057108544],[-124.12240474264048,41.852525371349934],[-124.12239134368609,41.85379890423701],[-124.12118614431319,41.8593203053238]],[[-124.03635823913852,41.81881723987998],[-124.03711239206005,41.81757271006466]],[[-123.99749936618065,41.84297269669863],[-124.00028992396874,41.843544714948905]],[[-124.16320382311048,41.91060312136176],[-124.16603455903213,41.911480970384545]],[[-124.03711239206005,41.81757271006466],[-124.03714939240321,41.81753731015632]],[[-124.05617971495501,41.78848342408411],[-124.0578417825662,41.787674157507986],[-124.06102138243408,41.788061156512974],[-124.06331011988101,41.788914264868154]],[[-124.0351886842932,41.83863110832752],[-124.03551134447545,41.83832976749816]],[[-124.02728286001485,41.83073531138637],[-124.02779999285214,41.82955897834454],[-124.02849672599417,41.829441511091524],[-124.02959059240722,41.82819831124939]],[[-124.11958654203008,41.84661763748236],[-124.11965953756078,41.84702388644541]],[[-124.03587612546796,41.8199145765391],[-124.03635823913852,41.81881723987998]],[[-124.00028992396874,41.843544714948905],[-124.0012041245234,41.84355558122068]],[[-124.10052174451079,41.81571182973348],[-124.1013134690286,41.81664385633406]],[[-124.1493896967514,41.89088754319213],[-124.1515246204035,41.89327437090706],[-124.15525088970254,41.89644588412686],[-124.15709973105885,41.89726679887844],[-124.15885722290787,41.89942270416856],[-124.16053091640377,41.90319641576089],[-124.16072365344836,41.90673467389261],[-124.16320382311048,41.91060312136176]],[[-124.03551134447545,41.83832976749816],[-124.03578359495476,41.83531631062273],[-124.0353985277143,41.83415917783339],[-124.03463439399209,41.8338277109248]],[[-123.9730150178166,41.84752211453884],[-123.97397834197439,41.84758732514116]],[[-123.98077016446916,41.84843091397874],[-123.98654352283641,41.84826618348424]],[[-124.027863525768,41.83211664533877],[-124.02722312608809,41.83126451142864],[-124.02728286001485,41.83073531138637]],[[-124.0401443911607,41.81545237621707],[-124.04026425545759,41.815467154256524]],[[-124.11531257421187,41.842054938444576],[-124.11602696313228,41.842256006837566],[-124.117216693929,41.84376696386874],[-124.11952667491502,41.84440603761046],[-124.1201538077883,41.84488790408482],[-124.11958654203008,41.84661763748236]],[[-124.12118614431319,41.8593203053238],[-124.1211857634778,41.86201828817256],[-124.12047761151727,41.8652347343592]],[[-124.04261285897911,41.814570975858665],[-124.0433408310284,41.813995693503024]],[[-124.04390615306937,41.81064575431106],[-124.04390228748613,41.80994453579383]],[[-123.98009865490819,41.84859198323047],[-123.98077016446916,41.84843091397874]],[[-124.02959059240722,41.82819831124939],[-124.03006007399685,41.82750821593063]],[[-123.98654352283641,41.84826618348424],[-123.98984259055779,41.84821271570327]],[[-124.0425873919131,41.81458884298334],[-124.04261285897911,41.814570975858665]],[[-124.12047761151727,41.865234735134116],[-124.12053790212963,41.867560962826865]],[[-124.11965953756078,41.84702388644541],[-124.1197634088524,41.847191504366]],[[-123.99247479053972,41.84728644892919],[-123.99321845696107,41.846860715755994]],[[-124.03020895670177,41.824120077803826],[-124.03146039219632,41.8219671772417]],[[-124.19485502005807,41.91263805310024],[-124.19699570514608,41.91325901472558],[-124.20254476395543,41.918628466326936],[-124.2026573351506,41.923364448709975],[-124.20210195124841,41.931160941269006],[-124.2018239871977,41.93274561015421],[-124.2002894338883,41.93603467054348]],[[-124.02141339377904,41.842952512750706],[-124.02158492162215,41.841942990962025]],[[-124.09538209727187,41.81495911686816],[-124.10008790744877,41.81476987229476]],[[-124.08884001122549,41.79370780080073],[-124.08935379562486,41.79511185780613]],[[-124.08935379562486,41.79511185780613],[-124.08947791778631,41.79642714997199]],[[-124.08241673645576,41.80786502818927],[-124.08212774586787,41.809250549649974],[-124.0813690520566,41.810014873987726]],[[-124.08198537482376,41.80470840543134],[-124.08243186061529,41.806958831148116]],[[-124.08329081610623,41.80316237588646],[-124.08205156318196,41.80384679135054]],[[-124.08792652551759,41.81449085408556],[-124.0902588873462,41.815018517950854]],[[-124.10298122835995,41.82050039830663],[-124.10362422937447,41.82102689913012]],[[-124.11578526897003,41.828815344697944],[-124.11475318113274,41.829930544210384]],[[-124.11584663965651,41.82868679794246],[-124.1158182424472,41.82874627700714]],[[-124.11591926267609,41.82823126523398],[-124.11584663965651,41.82868679794246]],[[-124.11639970941143,41.83557774352661],[-124.11720993878322,41.83751589914959],[-124.11608898727405,41.837838837205396]],[[-124.07659962780224,41.791253442018],[-124.08015949388742,41.79226825184256]],[[-124.1122292060361,41.82283059703237],[-124.11318846586862,41.82343263307265]],[[-124.10256056237539,41.81961194486169],[-124.10298122835995,41.82050039830663]],[[-124.1013134690286,41.81664385633406],[-124.10233263343542,41.8184201485138]],[[-124.10008790744877,41.81476987229476],[-124.10015093570567,41.81478061239001]],[[-124.11318846586862,41.82343263307265],[-124.11400449933822,41.82421278545292]],[[-124.1163617122368,41.83551112986234],[-124.11639970941143,41.83557774352661]],[[-124.11366209086404,41.83208979965242],[-124.1147797813401,41.833127020681]],[[-124.09282641814933,41.814742274064905],[-124.09538209727187,41.81495911686816]],[[-124.09214511196214,41.81482024579989],[-124.09282641814933,41.814742274064905]],[[-124.08483638970962,41.813389985787595],[-124.08694063114007,41.81421943631686]],[[-124.08694063114007,41.81421943631686],[-124.08792652551759,41.81449085408556]],[[-124.08472540012593,41.813347357941495],[-124.08483638970962,41.813389985787595]],[[-124.08279579669428,41.81283332744595],[-124.08472540012593,41.813347357941495]],[[-124.08262993143639,41.81281087562708],[-124.08279579669428,41.81283332744595]],[[-124.08123516656607,41.81234191853822],[-124.08262993143639,41.81281087562708]],[[-124.08110336734588,41.81209338425217],[-124.08123516656607,41.81234191853822]],[[-124.0809858182368,41.81106019815734],[-124.08110336734588,41.81209338425217]],[[-124.08243186061529,41.806958831148116],[-124.08241673645576,41.80786502818927]],[[-124.08205156318196,41.80384679135054],[-124.08198537482376,41.80470840543134]],[[-124.08458303948717,41.803158213723044],[-124.08329081610623,41.80316237588646]],[[-124.08810789681094,41.80279631157113],[-124.0873008504322,41.80321646614637],[-124.08458303948717,41.803158213723044]],[[-124.0885783825157,41.801764297276364],[-124.08810789681094,41.80279631157113]],[[-124.08947791778631,41.79642714997199],[-124.0894525245982,41.796746613657824]],[[-124.0879769570717,41.79299933732461],[-124.08884001122549,41.79370780080073]],[[-124.06331011988101,41.788914264868154],[-124.06429647001235,41.789001639242315]],[[-124.11497869395312,41.82533547240618],[-124.11501308047528,41.825393724047665]],[[-124.11408543414221,41.84015262709909],[-124.11531257421187,41.842054938444576]],[[-124.10691724014832,41.82049245077227],[-124.10783060723537,41.82072328479622]],[[-124.10015093570567,41.81478061239001],[-124.10052174451079,41.81571182973348]],[[-124.0759944106529,41.79110059859561],[-124.07659962780224,41.791253442018]],[[-124.07439328919041,41.790572252072764],[-124.07557718051112,41.79090507711897]],[[-124.06838344973548,41.78913537213202],[-124.06905802679024,41.78909968031543]],[[-124.06905802679024,41.78909968031543],[-124.06949779489523,41.789082595872046]],[[-124.06818356318281,41.788933973978985],[-124.06838344973548,41.78913537213202]],[[-124.07557718051112,41.79090507711897],[-124.0759944106529,41.79110059859561]],[[-124.11394702753205,41.8312654262997],[-124.11366209086404,41.83208979965242]],[[-124.11475318113274,41.829930544210384],[-124.11394702753205,41.8312654262997]],[[-124.1158182424472,41.82874627700714],[-124.11578526897003,41.828815344697944]],[[-124.11352836041304,41.83936053140754],[-124.11408543414221,41.84015262709909]]]}},{"type":"Feature","properties":{"name":"Middle Fork Smith River"},"geometry":{"type":"MultiLineString","coordinates":[[[-123.96527718564737,41.846146518094336],[-123.96594775248468,41.846515002640366]],[[-123.92950383581086,41.84435279915012],[-123.9312661141156,41.84426705444744]],[[-123.92360842490403,41.8458736292024],[-123.92528338056749,41.845073121894565]],[[-123.91927057975325,41.84462412174416],[-123.9201717216081,41.844491006197515]],[[-123.93303589675048,41.841808227216646],[-123.93291458090884,41.840606720692335]],[[-123.9312661141156,41.84426705444744],[-123.931293714276,41.844263121301026]],[[-123.91094813300488,41.848027310879424],[-123.91266937889775,41.84816058959261]],[[-123.91713828657076,41.84539663960208],[-123.91791647894581,41.84503980683551]],[[-123.95553131772641,41.84244198574025],[-123.9583292154403,41.842823057200754]],[[-123.94117925201517,41.83697504071321],[-123.94252058131015,41.83730458577909]],[[-123.94958678321652,41.83940238610148],[-123.94968587325508,41.83941034059107]],[[-123.93829964846174,41.83758998712132],[-123.940781514194,41.836930119885004]],[[-123.91266937889775,41.84816058959261],[-123.9134643790161,41.84803778960933]],[[-123.93703218042161,41.838271186526775],[-123.93829964846174,41.83758998712132]],[[-123.91419117942428,41.84773938968262],[-123.91442451289707,41.847519122585155]],[[-123.96452615744901,41.845733845408056],[-123.96527718564737,41.846146518094336]],[[-123.96343327434046,41.84512231116513],[-123.96452615744901,41.845733845408056]],[[-123.95132003478894,41.84009244854323],[-123.95224558340578,41.84081558593434]],[[-123.90835717770372,41.84858312378492],[-123.90974337793992,41.84814218925919]],[[-123.90445617883886,41.850354124254636],[-123.9070824238456,41.84904950100161]],[[-123.94807051624899,41.83969918611313],[-123.94958678321652,41.83940238610148]],[[-123.91442451289707,41.847519122585155],[-123.9148598462468,41.846900788957576]],[[-123.93334991425854,41.843506120987804],[-123.93338064746636,41.843415254395794]],[[-123.9323659146932,41.844048254399546],[-123.93334991425854,41.843506120987804]],[[-123.93508811460998,41.83991652038244],[-123.93571738161823,41.83984972053239]],[[-123.931293714276,41.844263121301026],[-123.9323659146932,41.844048254399546]],[[-123.96147438612412,41.84391705230292],[-123.96160467136757,41.84400513923339]],[[-123.89696731000136,41.852480444386956],[-123.90062297803814,41.85201999118871]],[[-123.9134643790161,41.84803778960933],[-123.91419117942428,41.84773938968262]],[[-123.94252058131015,41.83730458577909],[-123.94327991504969,41.83801551917762],[-123.9433172691744,41.83952583445903]],[[-123.94594898322701,41.84018481135111],[-123.94662824996783,41.84009025238034]],[[-123.9583292154403,41.842823057200754],[-123.96147438612412,41.84391705230292]],[[-123.9366365808975,41.839487586920626],[-123.93703218042161,41.838271186526775]],[[-123.93571738161823,41.83984972053239],[-123.9366365808975,41.839487586920626]],[[-123.9201717216081,41.844491006197515],[-123.92232078091254,41.84559078866353]],[[-123.93291458090884,41.840606720692335],[-123.93508811460998,41.83991652038244]],[[-123.92528338056749,41.845073121894565],[-123.92689278051733,41.84451692114838]],[[-123.95224558340578,41.84081558593434],[-123.95413417003356,41.841793523473086]],[[-123.94968587325508,41.83941034059107],[-123.95132003478894,41.84009244854323]],[[-123.93338064746636,41.843415254395794],[-123.93334208736292,41.84263816387785]],[[-123.9433172691744,41.83952583445903],[-123.94356538134944,41.84008991981627],[-123.94496731549802,41.84021351956315]],[[-123.9070824238456,41.84904950100161],[-123.90835717770372,41.84858312378492]],[[-123.90062297803814,41.85201999118871],[-123.90195791117152,41.85157679080051]],[[-123.92232078091254,41.84559078866353],[-123.92360842490403,41.8458736292024]],[[-123.94662824996783,41.84009025238034],[-123.94749958260893,41.83980778628433]],[[-123.95413417003356,41.841793523473086],[-123.95553131772641,41.84244198574025]],[[-123.9148598462468,41.846900788957576],[-123.9160451766258,41.84575484702526]],[[-123.92761957364176,41.84434126948019],[-123.92950383581086,41.84435279915012]],[[-123.92689278051733,41.84451692114838],[-123.92761957364176,41.84434126948019]],[[-123.96311711853531,41.84492991871983],[-123.96343327434046,41.84512231116513]],[[-123.94749958260893,41.83980778628433],[-123.94807051624899,41.83969918611313]],[[-123.940781514194,41.836930119885004],[-123.94117925201517,41.83697504071321]],[[-123.96160467136757,41.84400513923339],[-123.96311711853531,41.84492991871983]],[[-123.91791647894581,41.84503980683551],[-123.91927057975325,41.84462412174416]],[[-123.94496731549802,41.84021351956315],[-123.94594898322701,41.84018481135111]],[[-123.9160451766258,41.84575484702526],[-123.91713828657076,41.84539663960208]],[[-123.90974337793992,41.84814218925919],[-123.91094813300488,41.848027310879424]],[[-123.93334208736292,41.84263816387785],[-123.93303589675048,41.841808227216646]],[[-123.96594775248468,41.846515002640366],[-123.96934452009143,41.8478767848469]],[[-123.90195791117152,41.85157679080051],[-123.90445617883886,41.850354124254636]]]}},{"type":"Feature","properties":{"name":"Mill Creek"},"geometry":{"type":"MultiLineString","coordinates":[[[-124.1066552961568,41.75942034886274],[-124.10794874632717,41.76045045011685]],[[-124.09876710060293,41.77115281200468],[-124.09809750354314,41.771916186884795],[-124.09869434647611,41.77320924327079]],[[-124.10408304757321,41.7573022730374],[-124.10532132863881,41.758003129076954]],[[-124.10614080523494,41.75231320822778],[-124.10514592168549,41.7538231768579]],[[-124.09330845586094,41.78410783372155],[-124.09270423970514,41.784656891295946]],[[-124.10627481038689,41.76235379171137],[-124.10654919604166,41.763471153364925],[-124.10804532139545,41.76361843257846],[-124.10826503219904,41.76453247275749]],[[-124.09719800989394,41.738973284780066],[-124.0981864421335,41.73954781651432]],[[-124.10393121287372,41.74837714569857],[-124.10398258611102,41.749262858168564],[-124.10561902225187,41.749885073646645]],[[-124.09981234599073,41.74134005372934],[-124.10153095725191,41.7415897505532]],[[-124.09973088779824,41.77854571265074],[-124.09905352523434,41.778637649007486],[-124.0984948875828,41.77730281223195],[-124.09788269261348,41.777232387693175]],[[-124.1020946633438,41.74529795568518],[-124.10377229005768,41.74755184571629]],[[-124.09326495738382,41.78050794196931],[-124.09340143692529,41.782079027466665]],[[-124.10008280467075,41.737006122514416],[-124.09939434169176,41.73793506741462],[-124.09798286376672,41.737567870545945]],[[-124.10361277621838,41.754422458240406],[-124.1032787908657,41.75470476686605]],[[-124.08846756045797,41.78762723377901],[-124.08603115877122,41.78911412384679],[-124.08457183397815,41.79166684063309]],[[-124.09122715091817,41.78492745514833],[-124.0902225779175,41.7867685764641]],[[-124.10384806797587,41.75552827804829],[-124.10361973218717,41.7566194028537]],[[-124.10377229005768,41.74755184571629],[-124.10393515961863,41.748051019289974]],[[-124.10319099374101,41.75497318968582],[-124.10369911035248,41.755365193240145]],[[-124.10536287299333,41.76895532268744],[-124.10442584520705,41.770113791086224],[-124.10353587972631,41.770021437409646]],[[-124.10265813947774,41.74188231047338],[-124.10283089931296,41.7430271204033],[-124.10174986684444,41.74433256208771]],[[-124.10826503219904,41.76453247275749],[-124.10777039466305,41.76508338598141],[-124.1062443060965,41.76498590114081]],[[-124.10574198838019,41.75878387403115],[-124.1066552961568,41.75942034886274]],[[-124.08457183397815,41.79166684063309],[-124.08433436854546,41.7923178618246]],[[-124.0902225779175,41.7867685764641],[-124.0892729929687,41.78659068239923],[-124.08869388177312,41.78737496955992]],[[-124.08869388177312,41.78737496955992],[-124.08846756045797,41.78762723377901]],[[-124.09211594683887,41.78439592163349],[-124.09122715091817,41.78492745514833]],[[-124.09270423970514,41.784656891295946],[-124.09211594683887,41.78439592163349]],[[-124.09330284322132,41.782870567068585],[-124.09330845586094,41.78410783372155]],[[-124.09340143692529,41.782079027466665],[-124.09330284322132,41.782870567068585]],[[-124.09342501334125,41.779738129738355],[-124.09326495738382,41.78050794196931]],[[-124.09384026646872,41.77915858816818],[-124.09342501334125,41.779738129738355]],[[-124.09393029033588,41.77911352978819],[-124.09384026646872,41.77915858816818]],[[-124.09523467339544,41.778575925136224],[-124.09393029033588,41.77911352978819]],[[-124.0956907300173,41.77779360759297],[-124.09523467339544,41.778575925136224]],[[-124.09728466971517,41.77838042210668],[-124.0956907300173,41.77779360759297]],[[-124.09788269261348,41.777232387693175],[-124.09751296596356,41.778012487407835]],[[-124.09751296596356,41.778012487407835],[-124.09728466971517,41.77838042210668]],[[-124.09995482004769,41.77772128791648],[-124.09973088779824,41.77854571265074]],[[-124.09999279016841,41.775501122628505],[-124.09995482004769,41.77772128791648]],[[-124.10022416743756,41.77484190995801],[-124.09999279016841,41.775501122628505]],[[-124.09931725374146,41.77389585575404],[-124.10022416743756,41.77484190995801]],[[-124.09917456637507,41.77378541251811],[-124.09931725374146,41.77389585575404]],[[-124.09869434647611,41.77320924327079],[-124.09917456637507,41.77378541251811]],[[-124.09917290256142,41.77064667302132],[-124.09876710060293,41.77115281200468]],[[-124.10017506048302,41.768957725396035],[-124.09917290256142,41.77064667302132]],[[-124.10070105866873,41.76849019199509],[-124.10017506048302,41.768957725396035]],[[-124.1020864243968,41.769366588880295],[-124.10070105866873,41.76849019199509]],[[-124.10353587972631,41.770021437409646],[-124.1020864243968,41.769366588880295]],[[-124.10661568615471,41.76723763230238],[-124.10536287299333,41.76895532268744]],[[-124.10706425925714,41.766303209901295],[-124.10661568615471,41.76723763230238]],[[-124.1060448367979,41.76516401036368],[-124.10632332007499,41.76576662633196]],[[-124.10632332007499,41.76576662633196],[-124.10706425925714,41.766303209901295]],[[-124.1062443060965,41.76498590114081],[-124.1060448367979,41.76516401036368]],[[-124.1064113044958,41.761991940150885],[-124.10627481038689,41.76235379171137]],[[-124.10760326515651,41.76171550958883],[-124.1064113044958,41.761991940150885]],[[-124.108386987969,41.76123723954145],[-124.10760326515651,41.76171550958883]],[[-124.10794874632717,41.76045045011685],[-124.108386987969,41.76123723954145]],[[-124.10532132863881,41.758003129076954],[-124.10574198838019,41.75878387403115]],[[-124.10361973218717,41.756619403629884],[-124.10408304757321,41.7573022730374]],[[-124.10369911035248,41.755365193240145],[-124.10384806797587,41.75552827804829]],[[-124.1032787908657,41.75470476686605],[-124.10319099374101,41.75497318968582]],[[-124.1041818337759,41.75402354419116],[-124.10361277621838,41.754422458240406]],[[-124.10491869094378,41.75405657359014],[-124.1041818337759,41.75402354419116]],[[-124.10514592168549,41.7538231768579],[-124.10491869094378,41.75405657359014]],[[-124.10548817199856,41.75095441320356],[-124.10614080523494,41.75231320822778]],[[-124.10561902225187,41.749885073646645],[-124.10548817199856,41.75095441320356]],[[-124.10393515961863,41.748051019289974],[-124.10393121287372,41.74837714569857]],[[-124.10174986684444,41.74433256208771],[-124.1020946633438,41.74529795568518]],[[-124.10153095725191,41.7415897505532],[-124.10265813947774,41.74188231047338]],[[-124.09922883749911,41.74080996494892],[-124.09981234599073,41.74134005372934]],[[-124.09897877016093,41.73995252254288],[-124.09922883749911,41.74080996494892]],[[-124.09838220713162,41.73964502942634],[-124.09897877016093,41.73995252254288]],[[-124.0981864421335,41.73954781651432],[-124.09838220713162,41.73964502942634]],[[-124.09969673539621,41.73440158939153],[-124.10008280467075,41.737006122514416]],[[-124.09798286376672,41.737567870545945],[-124.09719800989394,41.738973284780066]]]}}]}