{"type":"FeatureCollection","features":[{"type":"Feature","properties":{"name":"Howland Hill Road","road":true},"geometry":{"type":"LineString","coordinates":[[-124.145116,41.757919],[-124.1462588,41.7583036],[-124.1672427,41.7582132],[-124.1674854,41.7583179]]}},{"type":"Feature","properties":{"name":"Boy Scout Tree Trail"},"geometry":{"type":"LineString","coordinates":[[-124.1101483,41.7686151],[-124.1111219,41.7693272],[-124.1117173,41.7701554],[-124.1125596,41.7705315],[-124.1127527,41.7708756],[-124.1137558,41.7707116],[-124.1138792,41.7705595],[-124.1144532,41.7703595],[-124.1149414,41.7704035],[-124.1149521,41.7709116],[-124.1162556,41.7705635],[-124.1165185,41.7708156],[-124.1171783,41.7710716],[-124.1173554,41.7711957],[-124.1172762,41.771473],[-124.1175968,41.7716598],[-124.11735,41.7719358],[-124.1167921,41.7720518],[-124.1167706,41.7722439],[-124.1171837,41.772976],[-124.1178864,41.77316],[-124.1182727,41.773028],[-124.1192597,41.7733681],[-124.1201127,41.7738162],[-124.12096,41.7747486],[-124.1215664,41.7749043],[-124.1219848,41.7753724],[-124.1218883,41.7757285],[-124.1222423,41.7761005],[-124.1217113,41.7771286],[-124.1217814,41.7778429],[-124.1221619,41.7779527],[-124.1225052,41.7778007],[-124.1227581,41.77801],[-124.1235888,41.7780727],[-124.1244824,41.7786415],[-124.1253913,41.77837],[-124.1252182,41.7787868]]}},{"type":"Feature","properties":{"name":"Howland Hill Road","road":true},"geometry":{"type":"LineString","coordinates":[[-124.099634,41.7743582],[-124.0992612,41.7746583],[-124.0988508,41.7756884],[-124.0972361,41.7773567],[-124.0964422,41.7775447],[-124.0953532,41.7775047],[-124.0944493,41.7779987],[-124.0930519,41.7792168],[-124.0928373,41.7797889],[-124.0924376,41.7802069],[-124.0926495,41.780769],[-124.0925744,41.782683],[-124.0900853,41.7858771],[-124.0888837,41.7864051],[-124.0881193,41.786971],[-124.0862283,41.787507],[-124.0847799,41.788247],[-124.0831411,41.788425],[-124.0823257,41.788725],[-124.0792465,41.7902568],[-124.0784018,41.7898258],[-124.0780744,41.7895329],[-124.0779912,41.7892129],[-124.0777338,41.7891109],[-124.0761808,41.7894769],[-124.0738285,41.7891149],[-124.0720681,41.7890939],[-124.0701646,41.788741],[-124.0680027,41.787581],[-124.0662659,41.787925]]}},{"type":"Feature","properties":{"name":"Howland Hill Road","road":true},"geometry":{"type":"LineString","coordinates":[[-124.1117656,41.7666986],[-124.112412,41.7662784],[-124.1152793,41.7664725],[-124.1159794,41.7663084],[-124.1169477,41.7664305],[-124.1181842,41.7663164],[-124.1239268,41.764766],[-124.125587,41.7645239],[-124.1288754,41.764822],[-124.1290739,41.764934],[-124.1292805,41.7654922],[-124.1294602,41.7655562],[-124.1300476,41.764716],[-124.1302165,41.7640678],[-124.1307147,41.7637846],[-124.1330543,41.7631875],[-124.134087,41.7631575],[-124.1348058,41.7627593],[-124.1357043,41.7627353],[-124.1361684,41.7622852],[-124.1366753,41.7620631],[-124.1377965,41.7620971],[-124.1403338,41.7608607],[-124.142009,41.760369]]}},{"type":"Feature","properties":{"name":"Howland Hill Road","road":true},"geometry":{"type":"LineString","coordinates":[[-124.099634,41.7743582],[-124.1001624,41.7740402]]}},{"type":"Feature","properties":{"name":"Simpson-Reed Grove Trail"},"geometry":{"type":"LineString","coordinates":[[-124.1089278,41.8124411],[-124.1082975,41.8128609],[-124.107914,41.8128529],[-124.1075639,41.8133437],[-124.1072877,41.8133057],[-124.1070074,41.8134606],[-124.1072488,41.8140464],[-124.1075063,41.8142463],[-124.107466,41.8144132],[-124.1071294,41.8146201],[-124.1066748,41.8143342],[-124.106428,41.8140124],[-124.1063409,41.8134406],[-124.1061987,41.8132767],[-124.1064455,41.8130298],[-124.1059104,41.8129129],[-124.1062818,41.812495],[-124.1060109,41.8121632],[-124.1064173,41.8119663],[-124.1069524,41.8122821],[-124.1073574,41.8122092],[-124.1077933,41.8124311],[-124.107914,41.8128529]]}},{"type":"Feature","properties":{"name":"Stout Grove Trail"},"geometry":{"type":"LineString","coordinates":[[-124.0848939,41.7896469],[-124.0833651,41.7899979]]}},{"type":"Feature","properties":{"name":"Stout Grove Trail"},"geometry":{"type":"LineString","coordinates":[[-124.0833651,41.7899979],[-124.0832417,41.7900579]]}},{"type":"Feature","properties":{"name":"Boy Scout Tree Trail"},"geometry":{"type":"LineString","coordinates":[[-124.132424,41.781021],[-124.1341218,41.780937],[-124.1350123,41.781961],[-124.1351894,41.781971],[-124.1353281,41.782144],[-124.1356587,41.782089],[-124.1363427,41.782401],[-124.1369194,41.7829251],[-124.138408,41.7830511],[-124.1389659,41.7832331],[-124.139623,41.7836631],[-124.1396713,41.7841931],[-124.1397893,41.7842571]]}},{"type":"Feature","properties":{"name":"Boy Scout Tree Trail"},"geometry":{"type":"LineString","coordinates":[[-124.1323435,41.780973],[-124.132424,41.781021]]}},{"type":"Feature","properties":{"name":"Boy Scout Tree Trail"},"geometry":{"type":"LineString","coordinates":[[-124.1277308,41.7786188],[-124.1278387,41.7786138]]}},{"type":"Feature","properties":{"name":"Boy Scout Tree Trail"},"geometry":{"type":"LineString","coordinates":[[-124.1253805,41.7789128],[-124.1267779,41.7794789],[-124.1269121,41.7793929],[-124.1269442,41.7790068],[-124.1271883,41.7787388],[-124.1277308,41.7786188]]}},{"type":"Feature","properties":{"name":"Boy Scout Tree Trail"},"geometry":{"type":"LineString","coordinates":[[-124.1252652,41.7788468],[-124.1253001,41.7788818]]}},{"type":"Feature","properties":{"name":"Boy Scout Tree Trail"},"geometry":{"type":"LineString","coordinates":[[-124.1252652,41.7788468],[-124.1252182,41.7787868]]}},{"type":"Feature","properties":{"name":"Boy Scout Tree Trail"},"geometry":{"type":"LineString","coordinates":[[-124.1278387,41.7786138],[-124.1283497,41.7781827],[-124.1284329,41.7777807],[-124.1288111,41.7777107],[-124.1292751,41.7778147],[-124.1299269,41.7776667],[-124.1302648,41.7778227],[-124.130761,41.7778307],[-124.1310373,41.7782208],[-124.1322443,41.7785868],[-124.1325404,41.7790828],[-124.1326493,41.7797489],[-124.132829,41.7799529],[-124.1332448,41.7799749],[-124.1334003,41.7802989],[-124.1332496,41.7805396],[-124.1321826,41.780905],[-124.1323435,41.780973]]}},{"type":"Feature","properties":{"name":"Boy Scout Tree Trail"},"geometry":{"type":"LineString","coordinates":[[-124.1253001,41.7788818],[-124.1253483,41.7789068]]}},{"type":"Feature","properties":{"name":"Hiouchi Trail"},"geometry":{"type":"LineString","coordinates":[[-124.0896052,41.8028985],[-124.0889416,41.8022542],[-124.0892807,41.8020518],[-124.0897474,41.8013789],[-124.0897232,41.801103],[-124.0899164,41.8005856],[-124.0898815,41.7998173],[-124.0900221,41.7992604],[-124.0902972,41.7990715],[-124.090139,41.7989055],[-124.090147,41.7983776],[-124.0899386,41.7976586],[-124.090239,41.7963798],[-124.090448,41.7962958],[-124.0902811,41.7959621],[-124.0903197,41.7956224]]}},{"type":"Feature","properties":{"name":"Mill Creek Trail"},"geometry":{"type":"LineString","coordinates":[[-124.1010147,41.7775117],[-124.1007719,41.7773419],[-124.1007726,41.7770276],[-124.1005149,41.7768502],[-124.1006192,41.776438],[-124.1009,41.7763765],[-124.100896,41.7765906]]}},{"type":"Feature","properties":{"name":"Hiouchi Trail"},"geometry":{"type":"LineString","coordinates":[[-124.0835354,41.8063334],[-124.0838116,41.8059576],[-124.0837884,41.8057077],[-124.0830553,41.8051538],[-124.0832377,41.8048719],[-124.0831196,41.8047199],[-124.0833128,41.804658],[-124.0836427,41.8041821],[-124.0841335,41.8041241],[-124.0842569,41.8039002],[-124.0846163,41.8037362],[-124.0870088,41.8037422],[-124.087894,41.8035983],[-124.0883714,41.8031564],[-124.0890983,41.8032244],[-124.0891948,41.8034083],[-124.0893397,41.8034123],[-124.0895972,41.8032884],[-124.0896374,41.8029865]]}},{"type":"Feature","properties":{"name":"Hiouchi Trail"},"geometry":{"type":"LineString","coordinates":[[-124.0896374,41.8029865],[-124.0896052,41.8028985]]}},{"type":"Feature","properties":{"name":"Hiouchi Trail"},"geometry":{"type":"LineString","coordinates":[[-124.090216,41.7932533],[-124.0901765,41.7931085],[-124.0898439,41.7929645],[-124.0896234,41.7930733],[-124.0887845,41.7925426],[-124.0879321,41.7924778],[-124.0872073,41.7921386],[-124.0869742,41.7918235],[-124.0854662,41.7916902]]}},{"type":"Feature","properties":{"name":"Hiouchi Trail"},"geometry":{"type":"LineString","coordinates":[[-124.090262,41.7933279],[-124.090216,41.7932533]]}},{"type":"Feature","properties":{"name":"Hiouchi Trail"},"geometry":{"type":"LineString","coordinates":[[-124.0903335,41.7955543],[-124.0903347,41.7950759],[-124.0897611,41.7941022],[-124.090262,41.7933279]]}},{"type":"Feature","properties":{"name":"Hiouchi Trail"},"geometry":{"type":"LineString","coordinates":[[-124.0903197,41.7956224],[-124.0903335,41.7955543]]}},{"type":"Feature","properties":{"name":"Mill Creek Trail"},"geometry":{"type":"LineString","coordinates":[[-124.0854662,41.7916902],[-124.0849945,41.7914227],[-124.0855631,41.7912367],[-124.0857616,41.7907568],[-124.0860817,41.7906684],[-124.0859681,41.7902868],[-124.0861838,41.7901627],[-124.0867172,41.7903614],[-124.0868935,41.7902928],[-124.0863544,41.7899729],[-124.0864107,41.7898589],[-124.0867299,41.7895989],[-124.0876606,41.7896589],[-124.0876034,41.7894427],[-124.0880559,41.7891149],[-124.0879449,41.788573],[-124.0882036,41.7879497],[-124.0887415,41.787963],[-124.0892753,41.787611],[-124.089404,41.787263],[-124.0904796,41.787385],[-124.090636,41.7870398],[-124.0911314,41.786619],[-124.0911394,41.7860651],[-124.0913567,41.7856091],[-124.0921729,41.785172],[-124.0924618,41.7851551],[-124.0926093,41.7853051],[-124.0940516,41.7851294]]}},{"type":"Feature","properties":{"name":"Mill Creek Trail"},"geometry":{"type":"LineString","coordinates":[[-124.0940516,41.7851294],[-124.0940639,41.7851031]]}},{"type":"Feature","properties":{"name":"Grove of Titans"},"geometry":{"type":"LineString","coordinates":[[-124.1006772,41.7783622],[-124.101251,41.7786258]]}},{"type":"Feature","properties":{"name":"Mill Creek Trail"},"geometry":{"type":"LineString","coordinates":[[-124.1003203,41.7779262],[-124.1000797,41.7778996]]}},{"type":"Feature","properties":{"name":"Mill Creek Trail"},"geometry":{"type":"LineString","coordinates":[[-124.1002881,41.7785483],[-124.100324,41.7784188],[-124.1006462,41.778408],[-124.1007403,41.7782131],[-124.1005148,41.7782083],[-124.1003203,41.7779262],[-124.1007408,41.7777863]]}},{"type":"Feature","properties":{"name":"Mill Creek Trail"},"geometry":{"type":"LineString","coordinates":[[-124.0940639,41.7851031],[-124.0938257,41.7847071],[-124.0943059,41.7846652],[-124.0944717,41.7844389],[-124.0937897,41.7841181],[-124.0937876,41.783302],[-124.0939663,41.7829243],[-124.0944015,41.7826629],[-124.0939622,41.7821285],[-124.0939496,41.7818588],[-124.0934875,41.7808921],[-124.0937841,41.7799489],[-124.0941046,41.7795249],[-124.0943956,41.7793319],[-124.0949066,41.7793309],[-124.0957646,41.7787916],[-124.0957215,41.7784253],[-124.0955772,41.7782818],[-124.0957046,41.7781767],[-124.0961753,41.7784428],[-124.0963393,41.7786874],[-124.0969799,41.7789878],[-124.0973149,41.7788372],[-124.0974024,41.7786368],[-124.0979831,41.7788028],[-124.0979058,41.7785596],[-124.0982609,41.7784218],[-124.0985529,41.7786298],[-124.0985115,41.7789158],[-124.0988935,41.7791131],[-124.0994379,41.7790258],[-124.0997716,41.7788012],[-124.0999532,41.7788498]]}},{"type":"Feature","properties":{"name":"Mill Creek Trail"},"geometry":{"type":"LineString","coordinates":[[-124.0999532,41.7788498],[-124.1002985,41.7786131]]}},{"type":"Feature","properties":{"name":"Mill Creek Trail"},"geometry":{"type":"LineString","coordinates":[[-124.1002985,41.7786131],[-124.1002881,41.7785483]]}},{"type":"Feature","properties":{"name":"Mill Creek Trail"},"geometry":{"type":"LineString","coordinates":[[-124.1047919,41.7704615],[-124.1054758,41.7690052],[-124.1055912,41.7688931],[-124.1057441,41.7689812],[-124.1064575,41.7681069],[-124.1078067,41.7678309],[-124.1081446,41.7668686],[-124.1077799,41.7665425],[-124.1076994,41.7661224],[-124.1072086,41.7658723],[-124.1076136,41.7653582],[-124.1080561,41.7652441],[-124.108209,41.7650821],[-124.1085926,41.7643519],[-124.1084236,41.7637597],[-124.107804,41.7633435],[-124.1077799,41.7631775],[-124.1079274,41.7629574],[-124.1084692,41.7627713],[-124.1089091,41.7622952],[-124.1095394,41.7621471]]}},{"type":"Feature","properties":{"name":"Howland Hill Road","road":true},"geometry":{"type":"LineString","coordinates":[[-124.1677541,41.758106],[-124.1672427,41.7582132]]}},{"type":"Feature","properties":{"name":"Howland Hill Road","road":true},"geometry":{"type":"LineString","coordinates":[[-124.1671042,41.7582142],[-124.1673258,41.7584336]]}},{"type":"Feature","properties":{"name":"Howland Hill Road","road":true},"geometry":{"type":"LineString","coordinates":[[-124.142009,41.760369],[-124.142328,41.760804],[-124.1422436,41.7614369],[-124.1424689,41.761855],[-124.1428605,41.761951],[-124.143262,41.76164],[-124.14381,41.761739],[-124.1442257,41.7616009],[-124.1441077,41.7603765],[-124.1436673,41.7593639],[-124.1439468,41.75917],[-124.1448045,41.7592574],[-124.1451699,41.759112],[-124.1452691,41.7585257],[-124.145116,41.757919]]}},{"type":"Feature","properties":{"name":"Hiouchi Trail"},"geometry":{"type":"LineString","coordinates":[[-124.0851877,41.7962724],[-124.0847155,41.796298],[-124.0840074,41.7960381],[-124.0832927,41.7951239],[-124.0818741,41.7944867],[-124.0814111,41.7940364],[-124.0808849,41.7939431],[-124.0804321,41.7935625],[-124.0798001,41.7933339],[-124.0794155,41.7928246],[-124.0789783,41.7928106],[-124.078694,41.7930285],[-124.0778702,41.7928235],[-124.076736,41.7927986],[-124.0762103,41.7923906],[-124.0749653,41.7921391],[-124.074432,41.7921446],[-124.0741175,41.7923135]]}},{"type":"Feature","properties":{"name":"Hiouchi Trail"},"geometry":{"type":"LineString","coordinates":[[-124.0740246,41.7923557],[-124.0737158,41.7927566],[-124.0732062,41.7929705],[-124.0729728,41.7928986]]}},{"type":"Feature","properties":{"name":"Hiouchi Trail"},"geometry":{"type":"LineString","coordinates":[[-124.0741175,41.7923135],[-124.0740246,41.7923557]]}},{"type":"Feature","properties":{"name":"Stout Grove Trail"},"geometry":{"type":"LineString","coordinates":[[-124.0803677,41.7909108],[-124.0809041,41.7906048],[-124.0813877,41.7907529],[-124.0824839,41.7902348],[-124.0832417,41.7900579]]}},{"type":"Feature","properties":{"name":"Mill Creek Trail"},"geometry":{"type":"LineString","coordinates":[[-124.1010081,41.7776327],[-124.1010147,41.7775117]]}},{"type":"Feature","properties":{"name":"Grove of Titans"},"geometry":{"type":"LineString","coordinates":[[-124.1013708,41.7787453],[-124.1013881,41.7788538]]}},{"type":"Feature","properties":{"name":"Mill Creek Trail"},"geometry":{"type":"LineString","coordinates":[[-124.1018245,41.7766243],[-124.1018413,41.7765862]]}},{"type":"Feature","properties":{"name":"Mill Creek Trail"},"geometry":{"type":"LineString","coordinates":[[-124.1018408,41.7765491],[-124.1016027,41.7762845],[-124.1015115,41.7758895],[-124.10111,41.7755582],[-124.101515,41.7753343]]}},{"type":"Feature","properties":{"name":"Mill Creek Trail"},"geometry":{"type":"LineString","coordinates":[[-124.1014368,41.7749606],[-124.1014698,41.7748108]]}},{"type":"Feature","properties":{"name":"Grove of Titans"},"geometry":{"type":"LineString","coordinates":[[-124.101251,41.7786258],[-124.1013708,41.7787453],[-124.1012823,41.7786333]]}},{"type":"Feature","properties":{"name":"Mill Creek Trail"},"geometry":{"type":"LineString","coordinates":[[-124.10131,41.7740472],[-124.101296,41.7740044]]}},{"type":"Feature","properties":{"name":"Mill Creek Trail"},"geometry":{"type":"LineString","coordinates":[[-124.1006616,41.7731323],[-124.1006636,41.7730945]]}},{"type":"Feature","properties":{"name":"Mill Creek Trail"},"geometry":{"type":"LineString","coordinates":[[-124.1009054,41.7766536],[-124.1013667,41.7774107],[-124.1013447,41.7768573],[-124.1014407,41.7767042],[-124.1018245,41.7766243]]}},{"type":"Feature","properties":{"name":"Mill Creek Trail"},"geometry":{"type":"LineString","coordinates":[[-124.1015319,41.7752731],[-124.1014368,41.7749606]]}},{"type":"Feature","properties":{"name":"Mill Creek Trail"},"geometry":{"type":"LineString","coordinates":[[-124.101515,41.7753343],[-124.1015319,41.7752731]]}},{"type":"Feature","properties":{"name":"Mill Creek Trail"},"geometry":{"type":"LineString","coordinates":[[-124.101296,41.7740044],[-124.1007495,41.7740156],[-124.1001063,41.773541],[-124.1007428,41.773303]]}},{"type":"Feature","properties":{"name":"Mill Creek Trail"},"geometry":{"type":"LineString","coordinates":[[-124.1014698,41.7748108],[-124.1009913,41.7743188],[-124.10131,41.7740472]]}},{"type":"Feature","properties":{"name":"Mill Creek Trail"},"geometry":{"type":"LineString","coordinates":[[-124.1006636,41.7730945],[-124.1006197,41.77275],[-124.100102,41.77269],[-124.0997855,41.772788],[-124.0995723,41.7725069],[-124.099254,41.7724665]]}},{"type":"Feature","properties":{"name":"Mill Creek Trail"},"geometry":{"type":"LineString","coordinates":[[-124.100896,41.7765906],[-124.1009054,41.7766536]]}},{"type":"Feature","properties":{"name":"Stout Grove Trail"},"geometry":{"type":"LineString","coordinates":[[-124.0832417,41.7900579],[-124.0831277,41.7904968],[-124.0832845,41.790943],[-124.0835246,41.7911997]]}},{"type":"Feature","properties":{"name":"Mill Creek Trail"},"geometry":{"type":"LineString","coordinates":[[-124.1001463,41.7703655],[-124.1008517,41.7693172],[-124.1012192,41.7691232],[-124.1014177,41.7691832],[-124.1017664,41.7696793],[-124.1028777,41.7701228]]}},{"type":"Feature","properties":{"name":"Mill Creek Trail"},"geometry":{"type":"LineString","coordinates":[[-124.099254,41.7724665],[-124.0985799,41.7719358],[-124.0985692,41.7716978],[-124.1001463,41.7703655]]}},{"type":"Feature","properties":{"name":"Mill Creek Trail"},"geometry":{"type":"LineString","coordinates":[[-124.1028777,41.7701228],[-124.1039068,41.7705595],[-124.1046149,41.7705955],[-124.1047919,41.7704615]]}},{"type":"Feature","properties":{"name":"Howland Hill Road","road":true},"geometry":{"type":"LineString","coordinates":[[-124.1001624,41.7740402],[-124.0998539,41.7734801],[-124.0998539,41.773128],[-124.09934,41.7726332],[-124.0991619,41.7720991],[-124.1001463,41.7703655],[-124.1005459,41.7702194],[-124.1030645,41.7701274],[-124.1045827,41.7704955],[-124.1058567,41.7701894],[-124.1101483,41.7686151],[-124.110918,41.7681429],[-124.1113257,41.7670887],[-124.1117656,41.7666986]]}}]}