{"type":"FeatureCollection","features":[{"type":"Feature","properties":{"kind":"river"},"geometry":{"type":"Polygon","coordinates":[[[-124.249477213978,41.774678554522716],[-124.24989158681385,41.77461969571373],[-124.24884354863318,41.77367668795764],[-124.24887181473522,41.77273788790203],[-124.24977612813726,41.77196065355259],[-124.24852838965946,41.77219645985443],[-124.24816855536488,41.77287503273493],[-124.24837802835592,41.77407826027027],[-124.24900697904187,41.774681182056796],[-124.249477213978,41.774678554522716]]]}},{"type":"Feature","properties":{"kind":"river"},"geometry":{"type":"Polygon","coordinates":[[[-124.19692779158275,41.74055423237061],[-124.19684320242388,41.74092135781543],[-124.19828033575153,41.74302395742185],[-124.19865440350868,41.74391875741769],[-124.19855193693775,41.744253690968044],[-124.19881480804493,41.74446794007447],[-124.19914198414409,41.74414076356654],[-124.19909439532843,41.74387307415028],[-124.19692779158275,41.74055423237061]]]}},{"type":"Feature","properties":{"kind":"river"},"geometry":{"type":"Polygon","coordinates":[[[-124.17861116807744,41.74465884713047],[-124.17953292915105,41.74464950205391],[-124.18007314519132,41.744051405784106],[-124.17945553320273,41.74376549296281],[-124.17786480043021,41.743995959752105],[-124.17605413313927,41.74392995968089],[-124.16969899876929,41.74165076000864],[-124.16640833127765,41.73952569385185],[-124.16660633134248,41.7394707602347],[-124.16423253025324,41.73599515996656],[-124.16242952961574,41.735451160021086],[-124.16149879601872,41.73494049364713],[-124.16061959590118,41.73403436067305],[-124.16033392981893,41.73350729350662],[-124.16048072937511,41.733221760037154],[-124.16016619576223,41.73144295994768],[-124.15988779572785,41.73099269345484],[-124.15766012825314,41.73013576062002],[-124.15642932758536,41.72914169405314],[-124.15555752774458,41.72823016060802],[-124.15544059463151,41.72766456067091],[-124.15175692686937,41.722464493659025],[-124.15134659338595,41.72220629367202],[-124.15145679320443,41.72193729350783],[-124.14930412532861,41.71888416065839],[-124.14890179146943,41.71763776058487],[-124.14859412537999,41.71748396040888],[-124.14874079174781,41.71724796007252],[-124.14855759223649,41.717280893438584],[-124.14848459150312,41.71680316069761],[-124.14796472518339,41.71626496021962],[-124.14799419102097,41.71580929328857],[-124.14718159131306,41.71457369376804],[-124.14661132361466,41.7125750933359],[-124.14502338987819,41.709264093330454],[-124.14461438931866,41.70725996002063],[-124.14431476967744,41.70769353529068],[-124.14373459817787,41.70793399695196],[-124.14361548514643,41.70828809076547],[-124.14444229750617,41.71088331965651],[-124.14643468466929,41.71460497485516],[-124.14844877112532,41.71935558769303],[-124.15303677518123,41.72589016449943],[-124.15370725045155,41.72717317918064],[-124.16092303013947,41.73588727906372],[-124.16478571030473,41.73957978034349],[-124.16941499650063,41.74245316249387],[-124.17347372260816,41.743934956406754],[-124.17861116807744,41.74465884713047]]]}},{"type":"Feature","properties":{"kind":"river"},"geometry":{"type":"Polygon","coordinates":[[[-124.25548126494307,41.78454306435717],[-124.25549855133194,41.784016954981624],[-124.2552786178541,41.78385768857169],[-124.25607141724335,41.78318828815358],[-124.25624095038309,41.78222208802316],[-124.25563245347105,41.78182546116088],[-124.25503970711988,41.78205244944333],[-124.25610694939328,41.78239737242276],[-124.25568787958767,41.78257250814557],[-124.25583066164262,41.7830070330484],[-124.2552180098789,41.78346029360572],[-124.25523053478487,41.784426731895024],[-124.25478683034034,41.785086506311636],[-124.25232780848822,41.78567002726083],[-124.24983308800077,41.78695111195174],[-124.24834159718475,41.788056753634905],[-124.24556296079297,41.79080149878842],[-124.24154883508791,41.79591641869864],[-124.24050773102482,41.798415407960576],[-124.23751595584123,41.80327385133621],[-124.23216765451141,41.81466234638492],[-124.2287574889908,41.823000644889966],[-124.22740977289905,41.82553383373752],[-124.22712602452067,41.8269115612679],[-124.22558255799828,41.829750198956106],[-124.22315219036737,41.83614206214974],[-124.22156195497001,41.8404403615052],[-124.21860808851565,41.85081139224931],[-124.21743963767675,41.85381954048732],[-124.21585893356945,41.86089516671892],[-124.21643235720703,41.859804763323474],[-124.2171943567943,41.85646116271079],[-124.21753922405,41.856032895849026],[-124.21833075710956,41.85285949594873],[-124.22002442261218,41.84817616232103],[-124.22025122257291,41.84685849502136],[-124.22190822174372,41.842674694843375],[-124.22287495469038,41.83848009427704],[-124.22374042184214,41.83705789422343],[-124.22532302076155,41.83239636050131],[-124.22720735368698,41.82895909333502],[-124.22713375360611,41.828607759931465],[-124.22750055427483,41.82833309357506],[-124.22784462031946,41.82695496010441],[-124.22868775345265,41.825412092928794],[-124.2299185530799,41.82198575957279],[-124.23098161969095,41.82050315966551],[-124.23134755359497,41.81909209284677],[-124.23213915324871,41.81763149221712],[-124.23240975240081,41.81622589218827],[-124.23362641949727,41.814177692341566],[-124.23538435253265,41.80994415808997],[-124.23711401842546,41.80738515782771],[-124.23723081835017,41.8066823578243],[-124.23815381869962,41.80482635784296],[-124.2410989509128,41.799477957302564],[-124.24164141762778,41.79895055715679],[-124.24323115148782,41.79621589026535],[-124.24350915091667,41.79535375704866],[-124.24591935092052,41.791778556405326],[-124.25067615037764,41.78755428900091],[-124.25436735056437,41.78586108874431],[-124.25595915092462,41.78589475503207],[-124.25637741743812,41.7856424886512],[-124.25548315143097,41.784867954785426],[-124.25548126494307,41.78454306435717]]]}},{"type":"Feature","properties":{"kind":"river"},"geometry":{"type":"Polygon","coordinates":[[[-124.1425814962538,41.69637220863699],[-124.14190245114669,41.69710816820058],[-124.14178232151363,41.698346346396306],[-124.14289509234568,41.70213545642607],[-124.14383221378002,41.7043739234037],[-124.14387180817408,41.705786676986285],[-124.14450789380064,41.70616342172428],[-124.14477638899331,41.70594789358679],[-124.14420552298796,41.70501989301239],[-124.14411092285293,41.70416876024169],[-124.14432352264822,41.703746293563675],[-124.14240838783975,41.69759655997124],[-124.14264332061308,41.69683355992441],[-124.14308090047538,41.696403033190315],[-124.1425814962538,41.69637220863699]]]}},{"type":"Feature","properties":{"kind":"river"},"geometry":{"type":"Polygon","coordinates":[[[-124.25373490992787,41.77819336942853],[-124.25414991436776,41.77822137060379],[-124.2532886166351,41.77797688794602],[-124.25175674894356,41.77686155513241],[-124.25099461512741,41.77602528819775],[-124.250766548837,41.775256888006254],[-124.2500984262137,41.77561610787261],[-124.250244937542,41.77628331449239],[-124.25064789676202,41.77637803054492],[-124.25218983474018,41.777778292433965],[-124.25295499650983,41.77823402800631],[-124.25373490992787,41.77819336942853]]]}},{"type":"Feature","properties":{"kind":"river"},"geometry":{"type":"Polygon","coordinates":[[[-124.18375601486403,41.746849872526944],[-124.18417241986245,41.74717585908682],[-124.18212370443987,41.74870585324588],[-124.18402727371458,41.75007999124756],[-124.18660898907514,41.7480990898769],[-124.1847054187599,41.74648700504645],[-124.18692426771025,41.748003911306434],[-124.18619853176817,41.74861067324605],[-124.18674580887115,41.749223385281134],[-124.18917285928016,41.74965168814055],[-124.1935450025077,41.749843558696995],[-124.19407325657082,41.74932092279075],[-124.19794987468703,41.747300284041586],[-124.19792703184741,41.74697287043426],[-124.1984562234315,41.746487459981935],[-124.19900635575934,41.74629900694804],[-124.19990341247828,41.746466686661385],[-124.1994572627792,41.74558033782356],[-124.19822228228695,41.744488604574315],[-124.19776780311439,41.7454834910191],[-124.19712273664018,41.746131357850516],[-124.19611113691441,41.7464443575469],[-124.19544400279828,41.74627429129685],[-124.19502620348449,41.74679035780171],[-124.19438840305814,41.74680689144366],[-124.19370673580573,41.74719675794366],[-124.19308380356756,41.74867895863179],[-124.19236533575443,41.748486892068144],[-124.19191800296836,41.74805875843875],[-124.19139740307226,41.74802029170048],[-124.18867033553813,41.748388292065414],[-124.18699984480543,41.74825437483783],[-124.18705199011882,41.74803276020519],[-124.18467289063119,41.746357615361276],[-124.18430934267128,41.746745399347525],[-124.18377846230078,41.74642609257075],[-124.18354900169497,41.746688069140625],[-124.18375601486403,41.746849872526944]]]}},{"type":"Feature","properties":{"kind":"river"},"geometry":{"type":"Polygon","coordinates":[[[-123.96638401399058,42.02005512886552],[-123.96815401513756,42.02172512854977],[-123.96781401445868,42.02085512903987],[-123.96731401505177,42.020385128688275],[-123.96461401388413,42.01871512859797],[-123.96382401353095,42.01787512863898],[-123.96337401281606,42.01559512881241],[-123.96443401297388,42.014135128330366],[-123.96467401314702,42.012925128733464],[-123.9633940129172,42.012085128836546],[-123.96206401191426,42.01022512841006],[-123.96076401158332,42.006095128430246],[-123.9583440107911,42.00274512856789],[-123.958648077674,42.002396194949036],[-123.96103401034738,42.00199512816136],[-123.96230401104691,42.00132512804417],[-123.96303401109665,42.00029512817349],[-123.96327401022928,41.99880512812102],[-123.96379401077789,41.99801512763658],[-123.96393401044536,41.99725512760564],[-123.9644440104231,41.99689512727215],[-123.96530401061005,41.997065127339724],[-123.96745401159761,41.99830512751479],[-123.96836401151711,41.99826512763682],[-123.96914401129952,41.99764512747325],[-123.96871401068577,41.99643512740532],[-123.96723401048507,41.99613512701214],[-123.96524401030659,41.993745127194316],[-123.96485400989516,41.99357512753855],[-123.96604401019012,41.99120512694638],[-123.9657340091427,41.988785127299224],[-123.96783400935715,41.98664512684096],[-123.96747400961767,41.986215126367476],[-123.96634400858564,41.98580512646683],[-123.96424400837115,41.98555512702367],[-123.9627840082716,41.9850751273519],[-123.95972400736451,41.982145127255066],[-123.95975400699596,41.98190512700643],[-123.96143400716754,41.98092512665811],[-123.96223400705104,41.97951512661052],[-123.9623240069859,41.9784451265467],[-123.96192400704416,41.97757512687002],[-123.96088400698748,41.976565126518864],[-123.95806400625355,41.975835126670475],[-123.9573040055318,41.97520512702615],[-123.95748400540153,41.97428512687357],[-123.9584740057256,41.97344512666457],[-123.95876400563135,41.97288512630154],[-123.9587840057325,41.97256512642533],[-123.9582740057547,41.97222512648756],[-123.95729400496094,41.970215126455756],[-123.95753400513412,41.9690251266641],[-123.95848400525591,41.96751512658917],[-123.9587640045908,41.96659512599722],[-123.95857400415025,41.96615512650067],[-123.95736400479468,41.96513512614357],[-123.95664400427519,41.963555126104545],[-123.95725400475867,41.96523512638482],[-123.95852400441765,41.96647512608425],[-123.95830400434564,41.96738512648747],[-123.95730400449125,41.968895126549135],[-123.95707400488892,41.96963512627877],[-123.95725400475867,41.97074512677492],[-123.9584640061953,41.97292512665649],[-123.95819400535015,41.97350512704693],[-123.95709400603059,41.97425512667008],[-123.95699400552489,41.97496512692222],[-123.95754400570496,41.9757651271037],[-123.96110400705949,41.977055126545245],[-123.96184400663958,41.97784512649455],[-123.96209400738357,41.97863512669969],[-123.96196400724642,41.97953512664296],[-123.96087400745718,41.98117512726447],[-123.95958400769705,41.98175512677839],[-123.95967400763193,41.9824151268402],[-123.96276400817047,41.9852751269459],[-123.96651400892505,41.98596512698745],[-123.96753400888058,41.98652512680315],[-123.96713400893884,41.98726512665571],[-123.96608400935186,41.98805512677743],[-123.96548400943925,41.98883512704983],[-123.96578400991582,41.99109512751702],[-123.96538400997406,41.992405127144735],[-123.96471401022771,41.99354512714274],[-123.96524401030659,41.99437512746371],[-123.96738401072336,41.996405127584275],[-123.96849401061377,41.996485127333344],[-123.96871401172629,41.9978351275541],[-123.96816401154626,41.99812512747932],[-123.96736401062222,41.99816512744528],[-123.96540401111575,41.99701512786737],[-123.96414400994654,41.996875127279814],[-123.96370401084303,41.9972851277993],[-123.96292401106065,41.998965127670864],[-123.96292401106065,41.999785127749206],[-123.9622540113143,42.00099512830169],[-123.96069401070905,42.00192512797137],[-123.9583440107911,42.00222512813301],[-123.95805401088539,42.002925128679955],[-123.96047401167756,42.006175128368504],[-123.96072401138103,42.00756512892382],[-123.96201401218167,42.01066512880008],[-123.96314401321376,42.01226512880958],[-123.96433401350869,42.01336512900122],[-123.96389401336467,42.01450512846719],[-123.96287401340915,42.01564512914608],[-123.96347401332179,42.01813512881805],[-123.96638401399058,42.02005512886552]]]}},{"type":"Feature","properties":{"kind":"river"},"geometry":{"type":"Polygon","coordinates":[[[-124.08645874950855,41.79319480121213],[-124.08804874246154,41.794859495816354],[-124.08809302342009,41.797536860561415],[-124.08841292930921,41.7984159711276],[-124.0887588266934,41.798056426744935],[-124.08910860734991,41.79628610700161],[-124.08863747339255,41.79529387228147],[-124.08828769273605,41.79386619560323],[-124.08848042874008,41.793766258084375],[-124.08705275178409,41.79293820600894],[-124.08523246371718,41.792724054327074],[-124.08645874950855,41.79319480121213]]]}},{"type":"Feature","properties":{"kind":"river"},"geometry":{"type":"Polygon","coordinates":[[[-124.08368135135207,41.80279016757462],[-124.0833630125069,41.80311265096931],[-124.08494979229135,41.802995272491465],[-124.08486284528279,41.80314742901807],[-124.08549321005424,41.802886588926185],[-124.08676266759511,41.80318748615219],[-124.08767255305585,41.80298775172313],[-124.0881294098483,41.80172187733082],[-124.08814844537454,41.80085575360613],[-124.08794311787037,41.800795532679345],[-124.08717574184467,41.801659277453496],[-124.08589105088824,41.80233732525247],[-124.08368135135207,41.80279016757462]]]}},{"type":"Feature","properties":{"kind":"river"},"geometry":{"type":"Polygon","coordinates":[[[-124.08249504703333,41.80396831098839],[-124.08223949296018,41.80465216869298],[-124.0828315400726,41.80578504588006],[-124.08283400821888,41.80507807791948],[-124.08311954319389,41.80448559273945],[-124.08418188351233,41.80372086347493],[-124.08283626305577,41.80371846749833],[-124.08249504703333,41.80396831098839]]]}},{"type":"Feature","properties":{"kind":"river"},"geometry":{"type":"Polygon","coordinates":[[[-124.08376150783673,41.811911319773884],[-124.08300293680847,41.81096606304917],[-124.08271710320027,41.80957348216171],[-124.0820452034391,41.81029386516072],[-124.08150387610867,41.81049016975212],[-124.08192028110714,41.81000832971274],[-124.08136181514368,41.8102558824629],[-124.08110007405625,41.8111743541532],[-124.08148554606439,41.812349808918306],[-124.08471726315122,41.81292342934664],[-124.086353143647,41.81373244613757],[-124.08666842228212,41.81351234583545],[-124.08658830741884,41.81321050519337],[-124.08541998664666,41.81293991492515],[-124.08376150783673,41.811911319773884]]]}},{"type":"Feature","properties":{"kind":"river"},"geometry":{"type":"Polygon","coordinates":[[[-124.09064433750312,41.814765958274435],[-124.0910012572624,41.81487303421278],[-124.0922028844826,41.81452801222409],[-124.08861363164046,41.813720548780424],[-124.0865129987814,41.81375468746574],[-124.08698591621379,41.81382012325574],[-124.08769694004773,41.81433901376756],[-124.0883392355803,41.81445067993576],[-124.08842549063387,41.814215708387955],[-124.08966875897823,41.81477190724399],[-124.09064433750312,41.814765958274435]]]}},{"type":"Feature","properties":{"kind":"river"},"geometry":{"type":"Polygon","coordinates":[[[-124.09906853597569,41.816214513326095],[-124.10108589074854,41.816800341799244],[-124.1001935923909,41.8157533780578],[-124.10002108124327,41.81493841379889],[-124.09959872751283,41.81477779882491],[-124.09933698538485,41.81505143761694],[-124.09811156427709,41.815247743138436],[-124.09554602817738,41.81526921386086],[-124.09376619086392,41.815002713806386],[-124.09083945424865,41.81544529429649],[-124.09218468866716,41.8160262333053],[-124.09906853597569,41.816214513326095]]]}},{"type":"Feature","properties":{"kind":"river"},"geometry":{"type":"Polygon","coordinates":[[[-124.11239146064155,41.82406391471108],[-124.11325282600887,41.82477299388869],[-124.11481375372979,41.827495098389754],[-124.11488989687538,41.828451641371764],[-124.11431882588485,41.82955095285036],[-124.11523360497635,41.82941497054133],[-124.115835004407,41.82885470347905],[-124.11504693944676,41.826053144968526],[-124.1133765579701,41.8237260317721],[-124.11219158553472,41.82334055857968],[-124.10789011224469,41.82098223618696],[-124.10701209105201,41.82090371286179],[-124.10635535915277,41.82115355679256],[-124.11239146064155,41.82406391471108]]]}},{"type":"Feature","properties":{"kind":"river"},"geometry":{"type":"Polygon","coordinates":[[[-124.11602410686686,41.83433168579263],[-124.11602898176798,41.833261126655096],[-124.11536590573384,41.831219152416054],[-124.11552770874762,41.830686153699126],[-124.11525316076956,41.830284223469675],[-124.11471064410895,41.83074107977333],[-124.11426092537876,41.83076963328094],[-124.11406818937466,41.832104511052734],[-124.11488910294804,41.83263275158617],[-124.11602410686686,41.83433168579263]]]}},{"type":"Feature","properties":{"kind":"river"},"geometry":{"type":"Polygon","coordinates":[[[-124.11406767222935,41.83797729786967],[-124.11410197758987,41.838439349880936],[-124.11512990641334,41.83767792306307],[-124.11659565442189,41.83769695822373],[-124.11708743048978,41.83733630786942],[-124.11501720515146,41.83394977065196],[-124.11425426388102,41.83331875007807],[-124.113867796082,41.834222509599904],[-124.11381782860596,41.837299152112664],[-124.11406767222935,41.83797729786967]]]}},{"type":"Feature","properties":{"kind":"river"},"geometry":{"type":"Polygon","coordinates":[[[-124.11374862790225,41.839299524950135],[-124.11509897342303,41.84135181037144],[-124.11597937327609,41.84185744612872],[-124.11516193092366,41.84084858846241],[-124.11483594519522,41.83972548208345],[-124.11557357756081,41.838728488944334],[-124.11664800263937,41.838039601000894],[-124.11562245455737,41.838264460634576],[-124.11453979885603,41.838805787261656],[-124.11428995627318,41.839204346822186],[-124.1138378588826,41.839097271259114],[-124.11374862790225,41.839299524950135]]]}},{"type":"Feature","properties":{"kind":"river"},"geometry":{"type":"Polygon","coordinates":[[[-124.11606167013889,41.84422681991379],[-124.11629723659729,41.844262512027605],[-124.1184650213489,41.84785530800658],[-124.11982488359229,41.84920803180316],[-124.11917529079584,41.84707365400805],[-124.11991768256321,41.84541041157083],[-124.11983202165452,41.844882409050356],[-124.11700522103186,41.84380689327749],[-124.11602488310511,41.84236018026748],[-124.1155680263127,41.84249343047728],[-124.11571079380022,41.84301691175451],[-124.11528249029716,41.84290269857262],[-124.11606167013889,41.84422681991379]]]}},{"type":"Feature","properties":{"kind":"river"},"geometry":{"type":"Polygon","coordinates":[[[-124.12125365518992,41.85464767052315],[-124.12099191514305,41.85697359363363],[-124.1213239453326,41.85648204455496],[-124.12207903057245,41.85372853663498],[-124.12210202845162,41.85282005349787],[-124.12170311066507,41.85218136685345],[-124.12139047394541,41.852702460751395],[-124.12125365518992,41.85464767052315]]]}},{"type":"Feature","properties":{"kind":"river"},"geometry":{"type":"Polygon","coordinates":[[[-124.13076002447504,41.875927676183196],[-124.13042689860335,41.87537564088691],[-124.12925620333291,41.874795053027846],[-124.12847574155352,41.874005072243605],[-124.12851381156551,41.87374808953011],[-124.12716227775505,41.87196825305822],[-124.12512496346189,41.87123632095209],[-124.1253419262156,41.87249759401928],[-124.12445871379953,41.87173600771637],[-124.12416052385186,41.87182658535962],[-124.12418507524805,41.87258071687482],[-124.12500599090248,41.87417495546],[-124.12505357971814,41.87472223153307],[-124.12725458143187,41.87580488690177],[-124.12787324123805,41.877256357428934],[-124.13045495763913,41.87787501660546],[-124.13285821312007,41.87806537385817],[-124.1323228345217,41.877803633457965],[-124.132548883217,41.877708455287404],[-124.1332270303434,41.878112963470116],[-124.1332984130466,41.87777983854121],[-124.13387711843399,41.87802160216837],[-124.13076002447504,41.875927676183196]]]}},{"type":"Feature","properties":{"kind":"river"},"geometry":{"type":"Polygon","coordinates":[[[-124.12696904645689,41.8771849735904],[-124.12708801901628,41.87692323268346],[-124.12754011744741,41.87732774118773],[-124.12730537925391,41.87643044625988],[-124.12624331051482,41.87560263241155],[-124.12509021691501,41.87522923055394],[-124.1260509293328,41.876535349646296],[-124.12696904645689,41.8771849735904]]]}},{"type":"Feature","properties":{"kind":"river"},"geometry":{"type":"Polygon","coordinates":[[[-124.14226973566365,41.882901993425016],[-124.14502991194439,41.88400844149517],[-124.14465534889312,41.88358071550246],[-124.14466961773384,41.883251836459124],[-124.14146686286617,41.88131019594592],[-124.13967631741885,41.880960813306025],[-124.13903154957784,41.88112950434732],[-124.14071429988039,41.88225305432638],[-124.14226973566365,41.882901993425016]]]}},{"type":"Feature","properties":{"kind":"river"},"geometry":{"type":"Polygon","coordinates":[[[-124.15854334379078,41.9014836533677],[-124.15953822317809,41.90193119713955],[-124.15985231144246,41.90255937391997],[-124.16029965047174,41.90501497854815],[-124.15993797235117,41.902188178029405],[-124.15930979374136,41.90147434044508],[-124.1592050973064,41.90084616228382],[-124.1585959563039,41.900313163629406],[-124.15816249591511,41.898961588397995],[-124.15686370676553,41.89734359581826],[-124.15655913626429,41.89713420340612],[-124.15555976177075,41.89714372065944],[-124.1564734763961,41.89910439717836],[-124.15805223366455,41.901139474725156],[-124.15789835639715,41.90128810184314],[-124.15807086650422,41.901537945549876],[-124.1589215237377,41.902418345586966],[-124.15969484953595,41.902686035143795],[-124.15939146732437,41.90197219692956],[-124.15854334379078,41.9014836533677]]]}},{"type":"Feature","properties":{"kind":"river"},"geometry":{"type":"Polygon","coordinates":[[[-124.1626933892301,41.90905920515191],[-124.16308472984915,41.90977583546863],[-124.16434108602827,41.910584852054754],[-124.16797690276024,41.91141766324054],[-124.16737252011903,41.91102743118577],[-124.16441611996476,41.91016571742136],[-124.16286471104752,41.90892839896251],[-124.1626933892301,41.90905920515191]]]}},{"type":"Feature","properties":{"kind":"river"},"geometry":{"type":"Polygon","coordinates":[[[-124.20310530994604,41.93906917038363],[-124.20318601167043,41.93931773384083],[-124.20356672427674,41.9382172333953],[-124.20336447050956,41.9372535516615],[-124.2036975953407,41.93516557402519],[-124.20338066121626,41.93477358377313],[-124.20270595409474,41.93485505425446],[-124.20227498682507,41.93566621052355],[-124.20230221031223,41.93644208584059],[-124.20266973103037,41.93717712395551],[-124.20234304606316,41.93844302556178],[-124.20258805952842,41.93867442774296],[-124.20317336918414,41.93857914445701],[-124.20310530994604,41.93906917038363]]]}},{"type":"Feature","properties":{"kind":"river"},"geometry":{"type":"Polygon","coordinates":[[[-124.10387038014322,41.82090942785378],[-124.10453618965977,41.820953492983975],[-124.10481458657254,41.82060371151093],[-124.10687335979533,41.82034638857837],[-124.10855863963566,41.820694145225914],[-124.10689490404867,41.819707122656695],[-124.10731606844895,41.81818664631592],[-124.10658795384651,41.81736573249702],[-124.10436077750377,41.815973748287725],[-124.10289740815561,41.81568107483623],[-124.10236916865999,41.815188526064],[-124.10129613685623,41.81539860106179],[-124.10111293734492,41.815542994797255],[-124.10127355102848,41.81586422205563],[-124.10113673227302,41.81629847319775],[-124.10238611167269,41.81751382937214],[-124.10308352740493,41.81990058040612],[-124.10387038014322,41.82090942785378]],[[-124.10458088787237,41.82051372354886],[-124.10366717324703,41.820018795639456],[-124.10301044238834,41.81884810106082],[-124.10288671042709,41.818210405248074],[-124.10318176420576,41.81773451304168],[-124.10292478147963,41.81651622891603],[-124.10335308394211,41.81607840808051],[-124.10451426144941,41.81640201497244],[-124.10640831296097,41.81773451304168],[-124.10683661646398,41.8183151017103],[-124.10634168861907,41.81932399352211],[-124.10661770687146,41.82035192061471],[-124.1053899039817,41.820285295758275],[-124.10458088787237,41.82051372354886]]]}},{"type":"Feature","properties":{"kind":"river"},"geometry":{"type":"Polygon","coordinates":[[[-124.20211164486174,41.9332705260222],[-124.2019891386494,41.93411446098727],[-124.20236290048956,41.93377996388229],[-124.20292835467833,41.93186850725317],[-124.20328226209215,41.93189572983663],[-124.20292835467833,41.93131042044382],[-124.2025336104731,41.93140570452634],[-124.20211164486174,41.9332705260222]]]}},{"type":"Feature","properties":{"kind":"river"},"geometry":{"type":"Polygon","coordinates":[[[-124.16678911672133,41.912888442428475],[-124.1669151763568,41.91353416428644],[-124.16660346779332,41.91403623112686],[-124.16552319283343,41.91427655748201],[-124.16614185159908,41.91432890533969],[-124.16675813170434,41.91399578032787],[-124.16708416945946,41.913406213662654],[-124.16698185272539,41.91263574405392],[-124.1666820301801,41.91256036162119],[-124.16678911672133,41.912888442428475]]]}},{"type":"Feature","properties":{"kind":"river"},"geometry":{"type":"Polygon","coordinates":[[[-124.19636988646702,41.914307765965745],[-124.19803382912022,41.91554394337481],[-124.19753414187345,41.91474801418509],[-124.19603865124533,41.91375220853763],[-124.19415618399712,41.91353746287758],[-124.19272642285179,41.91372170595748],[-124.19454959840013,41.91464089167212],[-124.1962449651756,41.914527866451564],[-124.19605460783194,41.91426017776458],[-124.19636988646702,41.914307765965745]]]}},{"type":"Feature","properties":{"kind":"river"},"geometry":{"type":"Polygon","coordinates":[[[-123.97969038480342,41.74432528986241],[-123.97894809188672,41.74378796120338],[-123.97891953755679,41.74282428012195],[-123.97919436543847,41.74242096174332],[-123.97900876749661,41.74244237611767],[-123.97860815363988,41.74381412729963],[-123.97899208045524,41.744621478461475],[-123.97969038480342,41.74432528986241]]]}},{"type":"Feature","properties":{"kind":"river"},"geometry":{"type":"Polygon","coordinates":[[[-124.25499596932,41.78134259783807],[-124.25550364786676,41.78143728391695],[-124.25475381732285,41.78021208812733],[-124.2546341829839,41.779177553818975],[-124.25411002654313,41.779482241094826],[-124.25398378897638,41.7801207212352],[-124.25357941567084,41.78042872035422],[-124.25400006396632,41.78105215602579],[-124.25499596932,41.78134259783807]]]}},{"type":"Feature","properties":{"kind":"river"},"geometry":{"type":"Polygon","coordinates":[[[-124.20085935404838,41.93188211893338],[-124.20129493400462,41.93231769813407],[-124.2013629932427,41.93278050043653],[-124.20161837458726,41.9304261481075],[-124.2014610635581,41.93009037062458],[-124.20100463858725,41.93023652129344],[-124.20062795284696,41.930711499945964],[-124.20085935404838,41.93188211893338]]]}},{"type":"Feature","properties":{"kind":"lake"},"geometry":{"type":"Polygon","coordinates":[[[-124.20352051729003,41.84258028295972],[-124.20540624036865,41.842633820562824],[-124.20767372803331,41.84195471175961],[-124.20923227605329,41.84385828033035],[-124.2122779862685,41.84456022200648],[-124.21335310642368,41.846010502831575],[-124.21443338242409,41.84654350182791],[-124.21435248091721,41.84602953861412],[-124.21501801573281,41.84541884977793],[-124.21598169783422,41.84496080374551],[-124.21661225510442,41.845317722993755],[-124.21624343788109,41.844615781876655],[-124.21727850372628,41.84495485448023],[-124.21698702001925,41.84343794818845],[-124.21793880361606,41.84340225638985],[-124.21717142759036,41.84215303864689],[-124.21874901113665,41.84146239997865],[-124.21863122790742,41.84007398464803],[-124.22021951646596,41.837386382985436],[-124.22044556620178,41.83669633942879],[-124.22002916016281,41.83629183123337],[-124.22050505248149,41.836303729048595],[-124.22145683607827,41.83374580760794],[-124.22104043107983,41.833246121685534],[-124.22175426851733,41.83307955884453],[-124.22155201370957,41.83209208292402],[-124.2220279070688,41.832294337045106],[-124.22261087448284,41.830842864580816],[-124.22306297291395,41.831616189995245],[-124.22319278471447,41.83072015773841],[-124.22432408745439,41.83017661583901],[-124.22583492491627,41.82597559786042],[-124.22604907614752,41.82452412634697],[-124.2257040538523,41.824559818594125],[-124.22627512484281,41.824286180108636],[-124.22676291462552,41.82256107096247],[-124.22476416771951,41.82295368189155],[-124.22459760530393,41.8237151101812],[-124.2241574053774,41.82363182920922],[-124.2244429403524,41.82319162765393],[-124.22394325310562,41.822822811849335],[-124.22394325310562,41.82347716326257],[-124.22244835662234,41.82306075809806],[-124.22099926443911,41.82333915508682],[-124.21607377987732,41.82635155375709],[-124.21613088645611,41.826836963149],[-124.21486025519306,41.8272795432662],[-124.21291861382532,41.82638724576089],[-124.21311135086994,41.82523082774212],[-124.21274015394567,41.824516989601],[-124.21175505765765,41.82486676985787],[-124.2120049002405,41.825209412310464],[-124.21109832575841,41.82476683339048],[-124.21181216423643,41.823981610424674],[-124.21313990311879,41.823817428007104],[-124.21181930229864,41.82195430980395],[-124.21072712987473,41.82213276947387],[-124.20994547668407,41.824941723075284],[-124.21030239644335,41.826393195201646],[-124.20979676046456,41.82773164171143],[-124.21036188272303,41.82935562312995],[-124.21150997447663,41.830426381718944],[-124.21180145714308,41.83237159118849],[-124.21113520852128,41.832555998601016],[-124.21090915982599,41.834096699587626],[-124.20997204879701,41.83297303899834],[-124.20855388960413,41.83294448647361],[-124.20685019543622,41.834952751220264],[-124.20609828694623,41.835238286317676],[-124.20577467883766,41.83586646447494],[-124.20631124884729,41.83907516819489],[-124.20599597021217,41.84030653879485],[-124.20385269003273,41.84093591604781],[-124.20273061890913,41.84025776288258],[-124.20131951557629,41.83678034609309],[-124.19950945803822,41.83470672586183],[-124.2003589259415,41.8323439199131],[-124.19954514938983,41.830259513039714],[-124.20085861214774,41.83110184172217],[-124.20127977654802,41.83209407700694],[-124.20193650844722,41.83127316238669],[-124.20077295123903,41.8304094191651],[-124.19966650165014,41.8283321491988],[-124.19794615061636,41.827953814514856],[-124.19934527532354,41.827496958478605],[-124.2008015045284,41.825876544730534],[-124.2029150618584,41.82538161640114],[-124.20528262494722,41.82408480945611],[-124.20480673262854,41.822228830607024],[-124.2059012847534,41.82186001390929],[-124.20447360779737,41.81883809833932],[-124.20356941197566,41.81892137934244],[-124.20278418871338,41.8158399775648],[-124.20383115202256,41.81563772264346],[-124.2045568869241,41.814781118025174],[-124.20537780153799,41.814852500953066],[-124.206091640016,41.813591386194894],[-124.2061273313676,41.81197335279117],[-124.20554436395359,41.80955819941279],[-124.20340284747903,41.80748806948573],[-124.20465206559594,41.80808293357208],[-124.2062106125754,41.8076189390659],[-124.20597266641606,41.8056915754863],[-124.20684116880507,41.80513240235391],[-124.20602878136609,41.802765383705854],[-124.20650467264424,41.80211817011928],[-124.20739934966224,41.80247984805645],[-124.2090554550145,41.80150902788001],[-124.2095123118069,41.80105217166665],[-124.20916967025313,41.8000813508037],[-124.2100833827974,41.79991002968206],[-124.20987398992749,41.79920570875417],[-124.20875088451322,41.79888210264228],[-124.208807991092,41.79794935372595],[-124.20785620645466,41.79718792629647],[-124.20869377689392,41.79673107030597],[-124.20985495336068,41.797149854377224],[-124.20850341955021,41.79593157127394],[-124.20583842298186,41.79473232225597],[-124.20452495918342,41.79277164615128],[-124.2032305329923,41.7938947531411],[-124.20342089033598,41.79503689372623],[-124.20501988910941,41.79760671203676],[-124.20442978259264,41.79777803311037],[-124.20326860508534,41.79703564158677],[-124.2029640345841,41.79800646127178],[-124.20210742757804,41.79829199668606],[-124.20094625007076,41.797568641142036],[-124.20040468549864,41.799164783446194],[-124.2019941654684,41.7995645322708],[-124.20284125471133,41.80064004908371],[-124.2003618550443,41.80192971757581],[-124.20024764188672,41.80245795806733],[-124.19889848673667,41.80326459546373],[-124.19789197522147,41.80288626159851],[-124.1981132645149,41.80384280375203],[-124.1995575983368,41.80458043699548],[-124.19631677137608,41.80401650489518],[-124.1953173979231,41.805215753145646],[-124.19428947014018,41.80549415014711],[-124.1943180244701,41.80617229697658],[-124.19387544484265,41.805915314729965],[-124.19284037899749,41.80670767690131],[-124.1914983629502,41.806115190502986],[-124.19145553249582,41.80668626070435],[-124.19239779832952,41.806957519593645],[-124.19201946542412,41.807607111928505],[-124.19025687912138,41.80733585423839],[-124.19007128117954,41.807856955766795],[-124.1907993968225,41.80822101340575],[-124.18721592726747,41.80923466497303],[-124.18738724804437,41.8098342888259],[-124.18698036080905,41.80963441379779],[-124.18386802625196,41.81173309840886],[-124.18110547131083,41.81296803974502],[-124.17812864651762,41.81323566968591],[-124.17734818265716,41.813863847379814],[-124.17626314829543,41.81350216933752],[-124.17470222265557,41.814396847326556],[-124.1748545079062,41.81565320247077],[-124.1762922509867,41.81562561392763],[-124.17760298546486,41.81851926280893],[-124.17778346710178,41.82061735233713],[-124.1752184086071,41.824167509064004],[-124.17427812603093,41.82754793062996],[-124.17467311476165,41.82827604485078],[-124.1739354834366,41.829113615781814],[-124.17358332307917,41.831231335714804],[-124.17582477554633,41.83307303940987],[-124.17383554640348,41.83509558133729],[-124.17419079194377,41.83892110004364],[-124.17351194141648,41.8409062252093],[-124.17393072507531,41.841305974787204],[-124.17289328056978,41.841648616845276],[-124.17397831493152,41.84193891193791],[-124.17334061959909,41.84403214968184],[-124.17421150272956,41.84422795319395],[-124.17500624271442,41.84519877312823],[-124.17477781535875,41.84582219183395],[-124.17553924265243,41.84619814743518],[-124.17523943051246,41.8468406012457],[-124.17673849121223,41.847321252598945],[-124.17790038252575,41.84929620523566],[-124.1786471559812,41.84949102222032],[-124.17932092141959,41.84897497751491],[-124.18045592325731,41.850024320081495],[-124.1816030285848,41.85027150188339],[-124.18174606765163,41.84977209691276],[-124.18095846676948,41.84923909768645],[-124.18156760777201,41.84896783961952],[-124.18244563000522,41.85105224717549],[-124.18307380757453,41.85063822106611],[-124.18248846045957,41.85183033144006],[-124.18490123474417,41.853479296495706],[-124.18443723988955,41.8542074125548],[-124.18547944379691,41.854878420910644],[-124.18555082754062,41.85565650435826],[-124.18480843577325,41.856927136838166],[-124.1871783796035,41.857019935695035],[-124.18786366479209,41.858361950675985],[-124.18974819854053,41.85850709766819],[-124.18832052054397,41.858709352001036],[-124.18834431547207,41.85950647176194],[-124.18996234977179,41.860446358991474],[-124.18972440361244,41.85944698563667],[-124.19020029489059,41.859458882246166],[-124.19059290704202,41.860565332427235],[-124.19213955759794,41.85989908314075],[-124.19075946945759,41.85970872603389],[-124.19040254969832,41.85909006617302],[-124.1906999831779,41.85850709766819],[-124.18935558638915,41.85749582648411],[-124.18987906752345,41.857388752082194],[-124.18974819854053,41.856758194367835],[-124.19065239332171,41.85693665388098],[-124.19036685730616,41.857353058766684],[-124.19158038303097,41.8574363400385],[-124.19165890587745,41.85701755566255],[-124.1902657299023,41.856508350677856],[-124.19102715823651,41.85597297170915],[-124.1909379282967,41.8555327716898],[-124.19326201996226,41.85630589795637],[-124.19370108674742,41.85456997747687],[-124.1921827813741,41.851036085315165],[-124.19282166707727,41.85150008068725],[-124.19284308334498,41.85037935398258],[-124.19259680875271,41.85009738828388],[-124.19235410319155,41.85044003054234],[-124.19106146047542,41.84837406376782],[-124.19137673911054,41.84780299247691],[-124.1906212605489,41.84716053825418],[-124.19061001862116,41.84569389782336],[-124.19002044589826,41.844996715591954],[-124.1902048545099,41.84366421748099],[-124.18952670738352,41.84076127471136],[-124.18979439616244,41.83985707960484],[-124.19012157226159,41.83997010362595],[-124.18969326875856,41.839422827765596],[-124.19055582345611,41.83952395456415],[-124.19015131488116,41.838649503644085],[-124.19401793971026,41.83970836307545],[-124.1957846902295,41.83950610835093],[-124.19776559093943,41.84082670926028],[-124.19762282449246,41.84032107388545],[-124.1990564501805,41.840761273936145],[-124.19934198515551,41.841463215479486],[-124.20031161598891,41.84139183120968],[-124.20051386975611,41.841897466650664],[-124.2019204093075,41.84194335064787],[-124.20128866166655,41.842021872973575],[-124.20218702737708,41.8425304832202],[-124.20352051729003,41.84258028295972]]]}},{"type":"Feature","properties":{"kind":"lake"},"geometry":{"type":"Polygon","coordinates":[[[-124.22366877796493,41.78126602546827],[-124.22563183455985,41.78387153585012],[-124.22738787694524,41.78535631886051],[-124.22925099546649,41.788418685492466],[-124.22981871697854,41.78770175343313],[-124.22903684423525,41.785142167453095],[-124.22828017530288,41.78382156707801],[-124.22700240389656,41.78331474208546],[-124.22528919196556,41.78123747239139],[-124.22608869135227,41.78091624455077],[-124.22361880944835,41.78008105472146],[-124.22366877796493,41.78126602546827]]]}},{"type":"Feature","properties":{"kind":"lake"},"geometry":{"type":"Polygon","coordinates":[[[-124.17821490261167,41.760779436576485],[-124.17657902315644,41.76054148954352],[-124.17345273608093,41.76134429393099],[-124.17295996734373,41.762159429851444],[-124.1747944274817,41.76327787061593],[-124.17428879254341,41.7658952776228],[-124.1715375367594,41.768168294964504],[-124.1672991260639,41.76898857877415],[-124.1684844491592,41.77053886120714],[-124.16829409285604,41.77168100193327],[-124.1695001267371,41.77101112052925],[-124.1695862028188,41.77022676204126],[-124.17060573661517,41.76945276138473],[-124.1717109979144,41.769368165841726],[-124.17498513652582,41.76726472169943],[-124.17680304489178,41.76498995635045],[-124.17759302547485,41.76250579944708],[-124.17876372074527,41.761782442941545],[-124.17878275627153,41.76084017631824],[-124.17821490261167,41.760779436576485]]]}},{"type":"Feature","properties":{"kind":"lake"},"geometry":{"type":"Polygon","coordinates":[[[-124.18813713997977,41.79977604079704],[-124.18726488334461,41.799198018437885],[-124.18691885485316,41.80006157685943],[-124.18548742573208,41.79934792358889],[-124.18469506544811,41.79960490580233],[-124.18408354370413,41.80177497517147],[-124.1814974237638,41.803135074385445],[-124.1804286914459,41.80310271404805],[-124.18159938671634,41.80433051600128],[-124.1827558048218,41.80408067237231],[-124.18497721660701,41.80535349788256],[-124.18684271378865,41.80815174511357],[-124.18596707229688,41.809979171306736],[-124.1832057670369,41.81069588210376],[-124.18069305571917,41.81216638873942],[-124.18063833612506,41.81304786329099],[-124.18580252747641,41.81071944837282],[-124.18698036080905,41.80963441379779],[-124.18738724804437,41.8098342888259],[-124.18721592726747,41.80923466497303],[-124.1907993968225,41.80822101340575],[-124.19007128117954,41.807856955766795],[-124.19025687912138,41.80733585423839],[-124.19201946542412,41.807607111928505],[-124.19239779832952,41.806957519593645],[-124.19145553249582,41.80668626070435],[-124.1914983629502,41.806115190502986],[-124.19284037899749,41.80670767690131],[-124.19387544484265,41.805915314729965],[-124.1943180244701,41.80617229697658],[-124.19428947014018,41.80549415014711],[-124.1953173979231,41.805215753145646],[-124.19631677137608,41.80401650489518],[-124.19862264225343,41.80440766970001],[-124.19637618585895,41.802676797895856],[-124.19556716870912,41.801306228948185],[-124.19441533311472,41.80074574697346],[-124.1942059412853,41.801221639742224],[-124.19590012185219,41.80270594488793],[-124.19594753169604,41.80326677892829],[-124.19509127743096,41.803247868493955],[-124.19518645610282,41.80275294057435],[-124.1931972259194,41.80109683687275],[-124.19253097729758,41.801629836005084],[-124.19410142070056,41.802467406420824],[-124.19418272073192,41.803209731141656],[-124.19367294238785,41.80350592175395],[-124.19446601543753,41.80436700677811],[-124.19386347558176,41.804923009596045],[-124.19141738964649,41.80204862141797],[-124.19116040692033,41.800811301544876],[-124.19122703230278,41.802200906626105],[-124.19183039418029,41.80277531214718],[-124.1913697997903,41.803247869269626],[-124.19220719437932,41.804381563990795],[-124.19155998024323,41.80481938488763],[-124.19026555301156,41.80470517180472],[-124.19047494588149,41.803563029777564],[-124.18973255411409,41.803087138108985],[-124.18975158964035,41.80392470809129],[-124.18893467171698,41.8041395630867],[-124.19019299554563,41.80537253412276],[-124.1899090609117,41.80575997696473],[-124.18742668739891,41.80370471758475],[-124.18670946302375,41.80249814439252],[-124.1869650722452,41.80143947076077],[-124.18835705680905,41.80052575641213],[-124.18813713997977,41.79977604079704]]]}},{"type":"Feature","properties":{"kind":"lake"},"geometry":{"type":"Polygon","coordinates":[[[-124.15496160464357,41.7396013952062],[-124.15510178432336,41.73914581146179],[-124.15398034584437,41.73853252496784],[-124.15392777807425,41.73634221428369],[-124.15035319051617,41.73457244338327],[-124.1490915713168,41.734817758435895],[-124.14914414012749,41.73606185381323],[-124.15059850573624,41.738199598178994],[-124.15182507975551,41.73897058668131],[-124.15182508079604,41.74054761035083],[-124.15362989612457,41.740424952626526],[-124.15496160464357,41.7396013952062]]]}},{"type":"Feature","properties":{"kind":"lake"},"geometry":{"type":"Polygon","coordinates":[[[-124.17951968523622,41.85207081515],[-124.18020675494039,41.85206046496604],[-124.18074748812597,41.85335572392515],[-124.18023352475474,41.854026732690684],[-124.18049050644036,41.85426943714573],[-124.1812186210428,41.854212330161225],[-124.18127572866211,41.85358415229144],[-124.18253208380071,41.85304163543024],[-124.18331730602249,41.8536840894936],[-124.18286045027061,41.85456924894666],[-124.18404628947069,41.853895421625985],[-124.1816578907321,41.85616689956977],[-124.18011124017612,41.85630966606005],[-124.18112251109316,41.85683314821452],[-124.17927842913869,41.85791580276518],[-124.17856459066068,41.85891517679959],[-124.18090836090246,41.857463705964825],[-124.18356146000677,41.85663089414801],[-124.18488206082691,41.85540547058085],[-124.18487016232234,41.85600033671165],[-124.18555082754062,41.85565650435826],[-124.18542233617758,41.85477848324951],[-124.18443723988955,41.8542074125548],[-124.18490123474417,41.853479296495706],[-124.18248846045957,41.85183033144006],[-124.18307380757453,41.85063822106611],[-124.18244563000522,41.85105224717549],[-124.18156760777201,41.84896783961952],[-124.18095846676948,41.84923909768645],[-124.18174606765163,41.84977209691276],[-124.1816030285848,41.85027150188339],[-124.18045592325731,41.850024320081495],[-124.17932092141959,41.84897497751491],[-124.1786471559812,41.84949102222032],[-124.17790038252575,41.84929620523566],[-124.17673849121223,41.847321252598945],[-124.17523943051246,41.8468406012457],[-124.17553924265243,41.84619814743518],[-124.17477781535875,41.84582219183395],[-124.17500624271442,41.84519877312823],[-124.17429927904355,41.84432874605798],[-124.17334061959909,41.84403214968184],[-124.17397831493152,41.84193891193791],[-124.17242115602419,41.841953942000934],[-124.17303981583034,41.84266778027102],[-124.17258771843979,41.844317937279115],[-124.17320637928648,41.84494254511917],[-124.17289109961084,41.845299463694104],[-124.17357519546925,41.846144173313476],[-124.17439432556762,41.8460174674265],[-124.17455136917954,41.84695973253833],[-124.17605342453574,41.84914323132941],[-124.17874874017942,41.85168534290971],[-124.17866308031124,41.85062886197751],[-124.17937691774873,41.85010062116877],[-124.17916276651748,41.8495295513389],[-124.17969100705366,41.84972942508035],[-124.17976239079738,41.85072879914661],[-124.1808474251591,41.85080018230031],[-124.18069038050665,41.85128559307367],[-124.17899144574058,41.85211364508331],[-124.17951968523622,41.85207081515]]]}},{"type":"Feature","properties":{"kind":"lake"},"geometry":{"type":"Polygon","coordinates":[[[-124.16639406035591,41.75000576168684],[-124.16648923798721,41.750493551266466],[-124.16735774141675,41.74997006982915],[-124.1679645037589,41.75018422145406],[-124.16999894305704,41.748744647177546],[-124.17053432165541,41.748911209602205],[-124.17096262515842,41.74769768411662],[-124.17231861349428,41.74671673696766],[-124.17543570745322,41.748477538232976],[-124.17553088612505,41.748114670636305],[-124.17477540756342,41.747109347575666],[-124.17175974484425,41.74567514268082],[-124.17116487892564,41.74483043311523],[-124.16996325066488,41.74490181709122],[-124.16965392076182,41.74427126016078],[-124.16866644373232,41.74399762273778],[-124.16811916766991,41.74475904983621],[-124.16884490465249,41.745865498822106],[-124.16886869854005,41.747007640897074],[-124.16716738407307,41.74929192309109],[-124.16640595677941,41.749446588780856],[-124.16639406035591,41.75000576168684]]]}},{"type":"Feature","properties":{"kind":"lake"},"geometry":{"type":"Polygon","coordinates":[[[-124.17459092819549,41.816629068484716],[-124.17613757771089,41.81739049675897],[-124.17773429563411,41.819388489970294],[-124.17754155963006,41.82095893424148],[-124.17507667645079,41.82386068781743],[-124.17395595073744,41.8271372058979],[-124.17433759254048,41.82751773967613],[-124.1752184086071,41.824167509064004],[-124.17778346710178,41.82061735233713],[-124.17760298546486,41.81851926280893],[-124.1762922509867,41.81562561392763],[-124.1748545079062,41.81565320247077],[-124.17470222265557,41.814396847326556],[-124.17626314829543,41.81350216933752],[-124.17734818265716,41.813863847379814],[-124.17845891508338,41.8131462018356],[-124.18055793303388,41.81306453341478],[-124.18058954861438,41.81220564995412],[-124.17787696323037,41.81219851183525],[-124.17408886020723,41.80962393498449],[-124.17245086638722,41.809295015245986],[-124.17164039457104,41.8095858642492],[-124.16985579785575,41.80855079878739],[-124.1714619346914,41.80761091082167],[-124.17141434483521,41.80696845645224],[-124.16840432597162,41.806195131950716],[-124.16685767645619,41.807301581830515],[-124.16747633730292,41.80805111244581],[-124.16736926116701,41.80876494954829],[-124.16809575461772,41.80933925666854],[-124.16810689457311,41.81033539450815],[-124.17008184759156,41.8123936278868],[-124.1704030749587,41.813952174982845],[-124.17142624438034,41.814606527081246],[-124.17004615623995,41.81761654562246],[-124.17054584348674,41.818544535332165],[-124.172187671674,41.8177474154484],[-124.17291340657552,41.816819425820356],[-124.17418641962053,41.816343532583616],[-124.17459092819549,41.816629068484716]]]}},{"type":"Feature","properties":{"kind":"lake"},"geometry":{"type":"Polygon","coordinates":[[[-124.19552222076837,41.869259089727954],[-124.19606949683079,41.86845007263246],[-124.19604570190269,41.86586835689073],[-124.19505822487321,41.863298538952385],[-124.19555791107943,41.86184706841763],[-124.193582958061,41.85844443937411],[-124.19365142414782,41.85623760316935],[-124.19455992361753,41.85568817627444],[-124.19336305371809,41.85235693034125],[-124.19366286689858,41.851985734169766],[-124.19309179590805,41.851329003286125],[-124.19342016133743,41.85015830848793],[-124.19223518890202,41.84927314922564],[-124.19023504768066,41.844083289278004],[-124.19002044589826,41.844996715591954],[-124.19061001862116,41.84569389782336],[-124.19058556815673,41.84707130848602],[-124.19137673911054,41.84780299247691],[-124.19106146047542,41.84837406376782],[-124.19235410319155,41.85044003054234],[-124.19259680875271,41.85009738828388],[-124.19284308334498,41.85037935398258],[-124.19282166707727,41.85150008068725],[-124.19250515228795,41.85143076465161],[-124.19370108674742,41.85456997747687],[-124.19326201996226,41.85630589795637],[-124.1909379282967,41.8555327716898],[-124.19102715823651,41.85597297170915],[-124.1902657299023,41.856508350677856],[-124.19165890587745,41.85701755566255],[-124.19158038303097,41.8574363400385],[-124.19036685730616,41.857353058766684],[-124.19065239332171,41.85693665388098],[-124.18974819854053,41.856758194367835],[-124.18987906752345,41.857388752082194],[-124.18935558638915,41.85749582648411],[-124.1906999831779,41.85850709766819],[-124.19040254969832,41.85909006617302],[-124.19075946945759,41.85970872603389],[-124.19213955759794,41.85989908314075],[-124.19059290704202,41.860565332427235],[-124.19020029489059,41.859458882246166],[-124.18972440361244,41.85944698563667],[-124.18996234977179,41.860446358991474],[-124.18852277535171,41.859661136668635],[-124.18832052054397,41.858709352001036],[-124.18971146561454,41.85850129768475],[-124.18786366479209,41.858361950675985],[-124.1871783796035,41.857019935695035],[-124.18480843577325,41.856927136838166],[-124.18444185985985,41.85798718642305],[-124.18680942398917,41.85865343547927],[-124.1874399812594,41.86031905836352],[-124.18949821652616,41.860271468677496],[-124.19015653419898,41.86095477084008],[-124.18908577596169,41.86158532824846],[-124.18893111101015,41.86216829581412],[-124.18908577596169,41.86323905325499],[-124.19057294023794,41.86464293520544],[-124.19026361033487,41.865249697731684],[-124.18621852562612,41.86579697428164],[-124.18891921458663,41.8664037367042],[-124.19089416760507,41.86584456295484],[-124.1934520890781,41.86591594706062],[-124.19414213262802,41.868009873265706],[-124.19310706678284,41.869235294729506],[-124.19552222076837,41.869259089727954]]]}},{"type":"Feature","properties":{"kind":"lake"},"geometry":{"type":"Polygon","coordinates":[[[-124.20835312484085,41.85020501745215],[-124.20823415124092,41.84630270123791],[-124.20705711079508,41.846105771603476],[-124.2071025592326,41.847036379110264],[-124.2077316899309,41.84761791976567],[-124.20738908583637,41.84826162429593],[-124.20692029308015,41.84725981036228],[-124.20635517082167,41.847253861310776],[-124.20673509054116,41.84927702780732],[-124.2069968316286,41.84983620149423],[-124.20828174109711,41.84965774154639],[-124.20835312484085,41.85020501745215]]]}},{"type":"Feature","properties":{"kind":"lake"},"geometry":{"type":"Polygon","coordinates":[[[-124.16112991220125,41.743192656535555],[-124.1606088097273,41.74364237478385],[-124.16084437722627,41.743985016808196],[-124.16173667454336,41.74323548709154],[-124.16400668029993,41.74339253144264],[-124.16539152784213,41.74256447797673],[-124.1642565239233,41.741922023898574],[-124.16439929141082,41.74120818548278],[-124.16258312802009,41.741535104417075],[-124.16219765497142,41.740835542964454],[-124.16343973398561,41.74111631893548],[-124.161693844089,41.740422963454506],[-124.16070160869823,41.74067994580039],[-124.16115846549063,41.74122246277915],[-124.16080154677189,41.74135809189002],[-124.16140117105178,41.74279290796042],[-124.16112991220125,41.743192656535555]]]}},{"type":"Feature","properties":{"kind":"lake"},"geometry":{"type":"Polygon","coordinates":[[[-124.18569735655801,41.88788335276929],[-124.18672578171613,41.88887108529379],[-124.19044249995495,41.88966106589141],[-124.19239365908584,41.887709907835834],[-124.19310749652334,41.88625843693149],[-124.19408307504824,41.88575874906015],[-124.19367856647332,41.883974154358064],[-124.19637201019661,41.88160192629464],[-124.19513885584128,41.87996253844367],[-124.19562972456366,41.87866795477257],[-124.19805677393217,41.87766858113131],[-124.19701932942664,41.87569898285531],[-124.19693302130587,41.87636640862355],[-124.19594119588541,41.875903497055084],[-124.19474932367005,41.87716889426073],[-124.19410686893579,41.87674059254636],[-124.19372615424844,41.87566983345046],[-124.19470173381389,41.8751701472226],[-124.19558213366695,41.871529571783505],[-124.19503485760453,41.87098229626761],[-124.19436884726494,41.8730310510277],[-124.18985042682921,41.8730821279241],[-124.1894311666059,41.87125473478715],[-124.18865427281708,41.87105486013006],[-124.18735865625521,41.87241829167242],[-124.18697913193859,41.87157120320116],[-124.18586078488566,41.87174371489081],[-124.1859321686294,41.8730524179143],[-124.18673712769721,41.87307237464349],[-124.18600801522282,41.873493411596456],[-124.17990469628785,41.87433812077404],[-124.17982141508008,41.874921088276125],[-124.18773312461789,41.873195978072395],[-124.18915780275535,41.8734064654963],[-124.189752454324,41.8754794775849],[-124.19172740734244,41.87555086100405],[-124.1916798185268,41.87657402982125],[-124.18975705244308,41.8768433625036],[-124.19178488018913,41.87680622504402],[-124.19166951724166,41.88056556552455],[-124.19009728828259,41.880494181508865],[-124.19047205423794,41.88039900347193],[-124.19033291301089,41.87996499199561],[-124.19116804547936,41.88016700646138],[-124.19148927284647,41.8797446507272],[-124.19119778913944,41.8789296862096],[-124.1915249652386,41.87828128317914],[-124.19085871453572,41.87743062563926],[-124.186664914648,41.87788867234115],[-124.18568933612309,41.87773995513265],[-124.18913787445105,41.87689413961976],[-124.18553129047707,41.877544849995225],[-124.1836657922549,41.876878601775374],[-124.18364675672863,41.877335457759806],[-124.18558839809639,41.878077849613256],[-124.18956685638213,41.877544849995225],[-124.19105163991696,41.878192063515456],[-124.18998564212202,41.87982913232375],[-124.1876442526217,41.879219991070705],[-124.18737775213245,41.87963877645118],[-124.18813918046664,41.88034309584786],[-124.18586346426031,41.88040262218445],[-124.18842471648216,41.881351987555036],[-124.18802496626854,41.88302712876737],[-124.18983335791192,41.8846451617527],[-124.18957399652541,41.8849545314658],[-124.19000467868882,41.88573019607986],[-124.18762521813598,41.88586344656895],[-124.18897675194644,41.88607283874777],[-124.18931701379928,41.88663919000681],[-124.18890298850175,41.88721501934476],[-124.18981908074699,41.88751479208349],[-124.18848658350335,41.88746720250182],[-124.18611062642798,41.886262171509365],[-124.18817703508813,41.887588149764284],[-124.18693971651632,41.8871312934892],[-124.18356109686046,41.88346970911803],[-124.18084851147646,41.88187546997948],[-124.18094368910775,41.8828748436792],[-124.18284725838245,41.88375524457561],[-124.18510774741641,41.885706401790735],[-124.18569735655801,41.88788335276929]]]}},{"type":"Feature","properties":{"kind":"lake"},"geometry":{"type":"Polygon","coordinates":[[[-124.19060589810712,41.880544150018345],[-124.19177659233702,41.88050131975906],[-124.19169807053105,41.87669656117803],[-124.18573181799862,41.87766400621974],[-124.1910490718794,41.87753770056819],[-124.1915249652386,41.87828128317914],[-124.19119778913944,41.8789296862096],[-124.19148927284647,41.8797446507272],[-124.19116804547936,41.88016700646138],[-124.19033291301089,41.87996499199561],[-124.19047205423794,41.88039900347193],[-124.19009728828259,41.880494181508865],[-124.19060589810712,41.880544150018345]]]}},{"type":"Feature","properties":{"kind":"lake"},"geometry":{"type":"Polygon","coordinates":[[[-124.20048916332037,41.843286160235564],[-124.20183117936769,41.843407512024726],[-124.20044248601236,41.841481061146915],[-124.19934198515551,41.841463215479486],[-124.19850917411809,41.84046384163366],[-124.19762282449246,41.84032107388545],[-124.19776559093943,41.84082670926028],[-124.1960633649648,41.84018810210218],[-124.19619185528732,41.840816279737204],[-124.19791934438331,41.841801376115995],[-124.19901865590998,41.841765684179634],[-124.19902579501274,41.841408765271716],[-124.19998947607361,41.841715715590354],[-124.19959686496273,41.8418941752123],[-124.20048916332037,41.843286160235564]]]}},{"type":"Feature","properties":{"kind":"lake"},"geometry":{"type":"Polygon","coordinates":[[[-124.18977060123434,41.84017830736914],[-124.18965162867492,41.84215920832448],[-124.19021764683308,41.84402110520425],[-124.18983702891533,41.84022105766629],[-124.19067340898388,41.84014967433638],[-124.1921772290855,41.841301332932474],[-124.1924415465347,41.83913134447577],[-124.19021674989288,41.838578119336304],[-124.19055582345611,41.83952395456415],[-124.18978844743042,41.839339547847096],[-124.19012157226159,41.83997010362595],[-124.18977060123434,41.84017830736914]]]}},{"type":"Feature","properties":{"kind":"lake"},"geometry":{"type":"Polygon","coordinates":[[[-124.20633335186734,41.80249888437482],[-124.20602025419117,41.80305037434797],[-124.20653041545168,41.80387891784267],[-124.20718662708398,41.80388799367653],[-124.2080146797601,41.802498388726285],[-124.21042269464286,41.80168937122894],[-124.21067015752479,41.80039494448222],[-124.21247616946728,41.7992813567811],[-124.21155531677971,41.798082107611485],[-124.21205500402647,41.79711128752095],[-124.2106987108142,41.79514109434761],[-124.20955656883315,41.796061945488134],[-124.20889269887174,41.79595486991266],[-124.20616583632274,41.794270210813785],[-124.20598023838089,41.79322800749299],[-124.20355318797186,41.792285741173224],[-124.20256333124145,41.793123311143475],[-124.20342089033598,41.7947132875092],[-124.2032305329923,41.793552109944784],[-124.20452495918342,41.79277164615128],[-124.20583842298186,41.79473232225597],[-124.20850341955021,41.79593157127394],[-124.20985495336068,41.797149854377224],[-124.20869377689392,41.79673107030597],[-124.20785620645466,41.79718792629647],[-124.208807991092,41.79794935372595],[-124.20875088451322,41.79888210264228],[-124.20987398992749,41.79920570875417],[-124.21006434727116,41.800119422532795],[-124.20909352710756,41.80027170767163],[-124.2095123118069,41.80105217166665],[-124.20739934966224,41.80247984805645],[-124.20679020865974,41.80200395609965],[-124.20633335186734,41.80249888437482]]]}},{"type":"Feature","properties":{"kind":"lake"},"geometry":{"type":"Polygon","coordinates":[[[-124.21274015394567,41.824516989601],[-124.21311135086994,41.82523082774212],[-124.21291861382532,41.82638724576089],[-124.21486025519306,41.8272795432662],[-124.21613088645611,41.826836963149],[-124.21607377987732,41.82635155375709],[-124.21995084854467,41.823808268926825],[-124.2184351580329,41.82088496039526],[-124.21718286826004,41.82066717067864],[-124.21595535255766,41.822028355304916],[-124.21397047388683,41.820612724490786],[-124.21106977142848,41.82194717199615],[-124.21181930229864,41.82195430980395],[-124.21313990311879,41.823817428007104],[-124.21181216423643,41.823981610424674],[-124.21109832575841,41.82476683339048],[-124.2120049002405,41.825209412310464],[-124.21175505765765,41.82486676985787],[-124.21274015394567,41.824516989601]]]}},{"type":"Feature","properties":{"kind":"lake"},"geometry":{"type":"Polygon","coordinates":[[[-124.21022817204218,41.858210139232916],[-124.21078496586772,41.85702635736476],[-124.21131439573409,41.857629551241395],[-124.21006517969825,41.86048490398484],[-124.21021389695828,41.861425981104226],[-124.21086824811607,41.86149617517316],[-124.21057081463648,41.860574134416076],[-124.21138348093855,41.86015685619485],[-124.2113738830543,41.85950337729753],[-124.21208772153233,41.85962235016281],[-124.21161182921365,41.85861107879003],[-124.21244464025108,41.85661828013066],[-124.21318822238918,41.855963928057236],[-124.21256361281046,41.85340600661796],[-124.21285785289164,41.85234359700123],[-124.21364010126766,41.85275108069154],[-124.2126909138028,41.850179457469125],[-124.2137485831648,41.84960481826815],[-124.21346304818982,41.84869110507258],[-124.21458258457292,41.84718133632123],[-124.21443338242409,41.84654350182791],[-124.21335310642368,41.846010502831575],[-124.2122779862685,41.84456022200648],[-124.20949996587277,41.843941561344415],[-124.20915503306344,41.84422128761499],[-124.2102757598173,41.84613437406613],[-124.20997118931605,41.84640087399097],[-124.21056129479229,41.84659123040045],[-124.21126561550717,41.8480760149846],[-124.21082779424101,41.84984633346291],[-124.21008540247361,41.84929429849944],[-124.20949529699739,41.850360297791966],[-124.21023768876476,41.85112172483667],[-124.21062078315306,41.853748649754635],[-124.20944294877988,41.853748649754635],[-124.20912172245329,41.855676013132054],[-124.20708728315516,41.857175073940844],[-124.20676605578801,41.859102437909925],[-124.20726574303478,41.85942366514473],[-124.20684441943284,41.85996221583917],[-124.2074442029144,41.86049442204811],[-124.20683744057229,41.8613153368869],[-124.20712043768523,41.861941927682466],[-124.20776543028154,41.862350402586195],[-124.20905057803232,41.86140813557563],[-124.20894326361419,41.860137503005866],[-124.20987601168474,41.85955096600525],[-124.21022817204218,41.858210139232916]]]}},{"type":"Feature","properties":{"kind":"lake"},"geometry":{"type":"Polygon","coordinates":[[[-124.20401873738406,41.88966406284481],[-124.20389484309956,41.88779511092592],[-124.20456109380245,41.88564407846637],[-124.2033618442021,41.88446386604642],[-124.20181995304797,41.881437190602405],[-124.20060166792136,41.88269354604843],[-124.20050649029004,41.88457807938015],[-124.20132502520302,41.88680525551539],[-124.20063974105496,41.89007939321575],[-124.20130599071732,41.89137382082102],[-124.20323794783653,41.8924310769965],[-124.20258138138216,41.890041322307],[-124.20356608226734,41.89066950063122],[-124.20361961981502,41.890241197229464],[-124.20269002248095,41.88896545982881],[-124.20401873738406,41.88966406284481]]]}},{"type":"Feature","properties":{"kind":"lake"},"geometry":{"type":"Polygon","coordinates":[[[-124.22346916299158,41.78102202850656],[-124.22361880944835,41.78008105472146],[-124.22498007745297,41.78038227239936],[-124.22504813565052,41.7794294429216],[-124.22236660187768,41.776176213639225],[-124.22228493141631,41.774393062139225],[-124.22086929968012,41.77398470716131],[-124.22096458344589,41.775073654199566],[-124.22175406977536,41.77606731853539],[-124.22178129430301,41.77741489057991],[-124.22330582102825,41.77985141041209],[-124.22138655009776,41.778871357427086],[-124.22123682039826,41.77925248988868],[-124.22346916299158,41.78102202850656]]]}},{"type":"Feature","properties":{"kind":"lake"},"geometry":{"type":"Polygon","coordinates":[[[-124.24322950848487,41.792842929478994],[-124.24823866653573,41.787724876619805],[-124.252071761202,41.78543808777346],[-124.25180323063121,41.78213311534728],[-124.25225532698127,41.78191896326119],[-124.24980448164413,41.77899222684473],[-124.24737743019456,41.774947142888486],[-124.24621149536651,41.775066115410986],[-124.24585457560724,41.775660981696916],[-124.24780573473814,41.77977744884416],[-124.24775814488194,41.78058646592729],[-124.24683015517269,41.7802771360671],[-124.24575939797595,41.77875428062604],[-124.24476002348241,41.77823079925154],[-124.24428413220426,41.77832597722514],[-124.24437930983555,41.77927776315914],[-124.24392721244499,41.779396736183564],[-124.24316578515132,41.778111826391886],[-124.24204743809838,41.77806423687584],[-124.24219020558587,41.77870669236271],[-124.2429040440639,41.778897048308],[-124.24383203377316,41.78158584016573],[-124.24352270387004,41.78279936498391],[-124.24387962466987,41.78377494467793],[-124.24278507150449,41.783346641446585],[-124.24285645524823,41.78394150618682],[-124.2452597117697,41.78605922706955],[-124.24359408969487,41.78732034145687],[-124.24199985032327,41.78627337851732],[-124.24071494085474,41.78608302196879],[-124.23995351356108,41.78900975903809],[-124.23945382631429,41.789057348189196],[-124.24081012056712,41.79336417214866],[-124.24176190416394,41.7936735024849],[-124.24322950848487,41.792842929478994]]]}},{"type":"Feature","properties":{"kind":"lake"},"geometry":{"type":"Polygon","coordinates":[[[-124.19707504689272,41.89205127321768],[-124.19785765945558,41.89395820251727],[-124.19823541694576,41.893599203182056],[-124.19735061459396,41.892685079166526],[-124.19743879567565,41.89199615966278],[-124.19864027201844,41.89179223994825],[-124.19854713799563,41.892584762194154],[-124.19922998729452,41.89228274993874],[-124.19816629428205,41.89142848952634],[-124.19797890870305,41.89175365961121],[-124.19721282918256,41.89149462590948],[-124.19707504689272,41.89205127321768]]]}},{"type":"Feature","properties":{"kind":"lake"},"geometry":{"type":"Polygon","coordinates":[[[-124.19974631683968,41.801685916383285],[-124.20188783123317,41.80116243452305],[-124.20060292280516,41.799687169276375],[-124.19812828253995,41.79873538456285],[-124.19689096188709,41.79649869143282],[-124.19503498246857,41.79557070194137],[-124.19570123213096,41.79699837866275],[-124.19536810729977,41.796451102376],[-124.19439252773432,41.79626074579526],[-124.191180254063,41.7921442779215],[-124.18970498829133,41.79059762871869],[-124.18908632744463,41.79064521746686],[-124.18887217725391,41.79104972621852],[-124.190466415585,41.792215662023466],[-124.19065677292869,41.79326262489058],[-124.19151337889417,41.79371472298868],[-124.19286967314697,41.79561829165198],[-124.19313141423441,41.79630833499344],[-124.19244136964397,41.796284540786615],[-124.19298864570638,41.79711735216202],[-124.1951777509966,41.79787877887852],[-124.19639127568085,41.79911609874836],[-124.19746203391814,41.79937783926306],[-124.19974631683968,41.801685916383285]]]}},{"type":"Feature","properties":{"kind":"lake"},"geometry":{"type":"Polygon","coordinates":[[[-124.22455726692816,41.7978766619422],[-124.22676386359238,41.800612841917264],[-124.22764650371487,41.800848212418934],[-124.22823492976946,41.80067168462371],[-124.22864682717525,41.79949483186363],[-124.228470299567,41.79914177686315],[-124.22752881829581,41.79925946259656],[-124.22746997506603,41.79875929964592],[-124.22799955893137,41.79855335115998],[-124.22808782325579,41.7976707113955],[-124.22944120193276,41.79705286431734],[-124.22938235974351,41.79661154454275],[-124.22864682717525,41.7963173319986],[-124.22897046129717,41.79608196114602],[-124.2287056693645,41.79558179977165],[-124.22611659430801,41.7956112207263],[-124.22449842369839,41.794787424235885],[-124.22364520571107,41.79614080413414],[-124.22455726692816,41.7978766619422]]]}},{"type":"Feature","properties":{"kind":"lake"},"geometry":{"type":"Polygon","coordinates":[[[-124.21905548269322,41.803966872166946],[-124.21937911681515,41.80540851549447],[-124.22070307647856,41.80540851549447],[-124.22102671060048,41.80587925608069],[-124.22117381711415,41.80464356145198],[-124.22258603902088,41.80420224120766],[-124.22285083095355,41.80358439427436],[-124.22223298380432,41.802378121325376],[-124.22043828454589,41.80161316755976],[-124.22023233376191,41.80081879231702],[-124.22002638505903,41.80161316755976],[-124.2188495329498,41.80131895393138],[-124.21905548269322,41.803966872166946]]]}},{"type":"Feature","properties":{"kind":"lake"},"geometry":{"type":"Polygon","coordinates":[[[-124.15342614086704,41.79236537094137],[-124.15356890835453,41.793388538408614],[-124.1577091717351,41.79074733676081],[-124.15778055547885,41.79010488166014],[-124.1560197526511,41.78862961634437],[-124.15601975369167,41.78955760547382],[-124.1553772989574,41.79010488166014],[-124.15561524511675,41.791556354301626],[-124.15423515801686,41.79222260299145],[-124.15404480171374,41.79122322929936],[-124.15478243303879,41.789343454910814],[-124.15571042378858,41.78917689269478],[-124.15521073654179,41.788724794399855],[-124.15528212028553,41.78758265383835],[-124.15380685451387,41.78663086936399],[-124.15354511342645,41.785774263281745],[-124.15530591521363,41.78467971066056],[-124.1538306473609,41.783513775125],[-124.15335475608275,41.78084877870179],[-124.15009489359576,41.780634627757856],[-124.14971417994894,41.78156261699952],[-124.15063061244874,41.782348519807385],[-124.15023766212381,41.783561364476405],[-124.14847686137715,41.78506042531831],[-124.14831029896155,41.786059798879656],[-124.15199846391103,41.7887723845384],[-124.15342614086704,41.79236537094137]]]}}]}